{
"type": "FeatureCollection",
"crs": { "type": "name", "properties": { "name": "urn:ogc:def:crs:OGC:1.3:CRS84" } },
"features": [
{ "type": "Feature", "properties": { "id": 2116655840, "tags.power": "substation", "Type": "Node", "Country": "BO", "Area": null, "tags.substation": null, "tags.voltage": null }, "geometry": { "type": "Point", "coordinates": [ -66.292929100000038, -17.731676699999959 ] } },
{ "type": "Feature", "properties": { "id": 4085709446, "tags.power": "substation", "Type": "Node", "Country": "BO", "Area": null, "tags.substation": null, "tags.voltage": null }, "geometry": { "type": "Point", "coordinates": [ -65.905302999999634, -19.390194799999794 ] } },
{ "type": "Feature", "properties": { "id": 4879630621, "tags.power": "substation", "Type": "Node", "Country": "BO", "Area": null, "tags.substation": null, "tags.voltage": null }, "geometry": { "type": "Point", "coordinates": [ -64.207725599999833, -18.107197500000062 ] } },
{ "type": "Feature", "properties": { "id": 9346419383, "tags.power": "substation", "Type": "Node", "Country": "BO", "Area": null, "tags.substation": "delapaz", "tags.voltage": null }, "geometry": { "type": "Point", "coordinates": [ -68.288993300000243, -16.641679300000096 ] } },
{ "type": "Feature", "properties": { "id": 10774344369, "tags.power": "substation", "Type": "Node", "Country": "BO", "Area": null, "tags.substation": null, "tags.voltage": null }, "geometry": { "type": "Point", "coordinates": [ -64.794877299999769, -14.835376499999954 ] } },
{ "type": "Feature", "properties": { "id": 10870926811, "tags.power": "substation", "Type": "Node", "Country": "BO", "Area": null, "tags.substation": null, "tags.voltage": null }, "geometry": { "type": "Point", "coordinates": [ -68.068360900000044, -16.538612299999979 ] } },
{ "type": "Feature", "properties": { "id": 123355525, "tags.power": "substation", "Type": "Way", "Country": "BO", "Area": 33410.0, "tags.substation": null, "tags.voltage": null }, "geometry": { "type": "Point", "coordinates": [ -65.282497205883956, -19.05369979408697 ] } },
{ "type": "Feature", "properties": { "id": 124799296, "tags.power": "substation", "Type": "Way", "Country": "BO", "Area": 9750.0, "tags.substation": null, "tags.voltage": null }, "geometry": { "type": "Point", "coordinates": [ -68.159925454295475, -16.454315868805725 ] } },
{ "type": "Feature", "properties": { "id": 174008184, "tags.power": "substation", "Type": "Way", "Country": "BO", "Area": 1900.0, "tags.substation": "transmission", "tags.voltage": "115000" }, "geometry": { "type": "Point", "coordinates": [ -67.835027850000159, -16.286074050000074 ] } },
{ "type": "Feature", "properties": { "id": 192581601, "tags.power": "substation", "Type": "Way", "Country": "BO", "Area": 3220.0, "tags.substation": "transmission", "tags.voltage": null }, "geometry": { "type": "Point", "coordinates": [ -66.143999152113125, -17.400578561585288 ] } },
{ "type": "Feature", "properties": { "id": 201638884, "tags.power": "substation", "Type": "Way", "Country": "BO", "Area": 9210.0, "tags.substation": "substation", "tags.voltage": null }, "geometry": { "type": "Point", "coordinates": [ -66.293073219621292, -17.731800202377855 ] } },
{ "type": "Feature", "properties": { "id": 201639226, "tags.power": "substation", "Type": "Way", "Country": "BO", "Area": 16480.0, "tags.substation": null, "tags.voltage": null }, "geometry": { "type": "Point", "coordinates": [ -65.161202094174342, -16.999076950067927 ] } },
{ "type": "Feature", "properties": { "id": 208073022, "tags.power": "substation", "Type": "Way", "Country": "BO", "Area": 4990.0, "tags.substation": "industrial", "tags.voltage": null }, "geometry": { "type": "Point", "coordinates": [ -68.31971787436062, -16.647209931690462 ] } },
{ "type": "Feature", "properties": { "id": 208079823, "tags.power": "substation", "Type": "Way", "Country": "BO", "Area": 5540.0, "tags.substation": null, "tags.voltage": null }, "geometry": { "type": "Point", "coordinates": [ -68.2257007334794, -16.540344509182219 ] } },
{ "type": "Feature", "properties": { "id": 208134530, "tags.power": "substation", "Type": "Way", "Country": "BO", "Area": 97760.0, "tags.substation": "transmission", "tags.voltage": "230000;115000;69000" }, "geometry": { "type": "Point", "coordinates": [ -67.04546054817709, -17.969179502175358 ] } },
{ "type": "Feature", "properties": { "id": 208143013, "tags.power": "substation", "Type": "Way", "Country": "BO", "Area": 1190.0, "tags.substation": "industrial", "tags.voltage": null }, "geometry": { "type": "Point", "coordinates": [ -67.455136799999721, -17.797581550000046 ] } },
{ "type": "Feature", "properties": { "id": 208145814, "tags.power": "substation", "Type": "Way", "Country": "BO", "Area": 3040.0, "tags.substation": "industrial", "tags.voltage": "30000" }, "geometry": { "type": "Point", "coordinates": [ -67.039274919447209, -17.980149265821598 ] } },
{ "type": "Feature", "properties": { "id": 208239835, "tags.power": "substation", "Type": "Way", "Country": "BO", "Area": 12340.0, "tags.substation": "distribution", "tags.voltage": "115000" }, "geometry": { "type": "Point", "coordinates": [ -66.114535409220551, -17.380453143353371 ] } },
{ "type": "Feature", "properties": { "id": 208259013, "tags.power": "substation", "Type": "Way", "Country": "BO", "Area": 2830.0, "tags.substation": null, "tags.voltage": null }, "geometry": { "type": "Point", "coordinates": [ -65.875193479814783, -17.212521572736222 ] } },
{ "type": "Feature", "properties": { "id": 208406049, "tags.power": "substation", "Type": "Way", "Country": "BO", "Area": 25270.0, "tags.substation": null, "tags.voltage": null }, "geometry": { "type": "Point", "coordinates": [ -66.57586580710786, -18.410458848195013 ] } },
{ "type": "Feature", "properties": { "id": 208454375, "tags.power": "substation", "Type": "Way", "Country": "BO", "Area": 1930.0, "tags.substation": "yes", "tags.voltage": null }, "geometry": { "type": "Point", "coordinates": [ -66.291263179012532, -17.72551505431311 ] } },
{ "type": "Feature", "properties": { "id": 208479547, "tags.power": "substation", "Type": "Way", "Country": "BO", "Area": 610.0, "tags.substation": null, "tags.voltage": null }, "geometry": { "type": "Point", "coordinates": [ -65.837800629171426, -18.878753732299263 ] } },
{ "type": "Feature", "properties": { "id": 208550292, "tags.power": "substation", "Type": "Way", "Country": "BO", "Area": 20790.0, "tags.substation": "transmission", "tags.voltage": "115000;69000" }, "geometry": { "type": "Point", "coordinates": [ -65.800857747943468, -19.607622235491526 ] } },
{ "type": "Feature", "properties": { "id": 208559846, "tags.power": "substation", "Type": "Way", "Country": "BO", "Area": 970.0, "tags.substation": null, "tags.voltage": null }, "geometry": { "type": "Point", "coordinates": [ -65.744167350000197, -19.6318035 ] } },
{ "type": "Feature", "properties": { "id": 208565830, "tags.power": "substation", "Type": "Way", "Country": "BO", "Area": 15440.0, "tags.substation": null, "tags.voltage": null }, "geometry": { "type": "Point", "coordinates": [ -65.218713479542345, -19.001076218133839 ] } },
{ "type": "Feature", "properties": { "id": 208568864, "tags.power": "substation", "Type": "Way", "Country": "BO", "Area": 1500.0, "tags.substation": null, "tags.voltage": null }, "geometry": { "type": "Point", "coordinates": [ -66.015773356422187, -19.773736742499466 ] } },
{ "type": "Feature", "properties": { "id": 208602917, "tags.power": "substation", "Type": "Way", "Country": "BO", "Area": 18500.0, "tags.substation": null, "tags.voltage": null }, "geometry": { "type": "Point", "coordinates": [ -66.140987034753493, -20.051336995699884 ] } },
{ "type": "Feature", "properties": { "id": 208607082, "tags.power": "substation", "Type": "Way", "Country": "BO", "Area": 8700.0, "tags.substation": "industrial", "tags.voltage": "230000" }, "geometry": { "type": "Point", "coordinates": [ -67.210636282181966, -21.126990865248786 ] } },
{ "type": "Feature", "properties": { "id": 208616169, "tags.power": "substation", "Type": "Way", "Country": "BO", "Area": 5620.0, "tags.substation": null, "tags.voltage": null }, "geometry": { "type": "Point", "coordinates": [ -66.230873268621508, -20.932147324505646 ] } },
{ "type": "Feature", "properties": { "id": 208616516, "tags.power": "substation", "Type": "Way", "Country": "BO", "Area": 3750.0, "tags.substation": null, "tags.voltage": null }, "geometry": { "type": "Point", "coordinates": [ -66.224101857788966, -20.944146762025298 ] } },
{ "type": "Feature", "properties": { "id": 208629745, "tags.power": "substation", "Type": "Way", "Country": "BO", "Area": 13470.0, "tags.substation": null, "tags.voltage": null }, "geometry": { "type": "Point", "coordinates": [ -63.140150544125568, -17.753707252974234 ] } },
{ "type": "Feature", "properties": { "id": 208685452, "tags.power": "substation", "Type": "Way", "Country": "BO", "Area": 20820.0, "tags.substation": "transmission", "tags.voltage": "230000" }, "geometry": { "type": "Point", "coordinates": [ -63.629910901266058, -17.426741782042402 ] } },
{ "type": "Feature", "properties": { "id": 208687016, "tags.power": "substation", "Type": "Way", "Country": "BO", "Area": 41170.0, "tags.substation": "transmission", "tags.voltage": "230000;115000;69000" }, "geometry": { "type": "Point", "coordinates": [ -63.236491860929632, -17.742780786814535 ] } },
{ "type": "Feature", "properties": { "id": 216166587, "tags.power": "substation", "Type": "Way", "Country": "BO", "Area": 250.0, "tags.substation": null, "tags.voltage": null }, "geometry": { "type": "Point", "coordinates": [ -68.140261796059434, -16.192320351026972 ] } },
{ "type": "Feature", "properties": { "id": 216166589, "tags.power": "substation", "Type": "Way", "Country": "BO", "Area": 350.0, "tags.substation": null, "tags.voltage": null }, "geometry": { "type": "Point", "coordinates": [ -68.123379859669882, -16.207443693563739 ] } },
{ "type": "Feature", "properties": { "id": 216166592, "tags.power": "substation", "Type": "Way", "Country": "BO", "Area": 450.0, "tags.substation": null, "tags.voltage": null }, "geometry": { "type": "Point", "coordinates": [ -68.070903002381897, -16.107052881125863 ] } },
{ "type": "Feature", "properties": { "id": 216166593, "tags.power": "substation", "Type": "Way", "Country": "BO", "Area": 130.0, "tags.substation": null, "tags.voltage": null }, "geometry": { "type": "Point", "coordinates": [ -68.090251613998106, -16.12406085831525 ] } },
{ "type": "Feature", "properties": { "id": 216166594, "tags.power": "substation", "Type": "Way", "Country": "BO", "Area": 390.0, "tags.substation": null, "tags.voltage": null }, "geometry": { "type": "Point", "coordinates": [ -68.044261902086362, -16.089031543488918 ] } },
{ "type": "Feature", "properties": { "id": 216166595, "tags.power": "substation", "Type": "Way", "Country": "BO", "Area": 3910.0, "tags.substation": "generation", "tags.voltage": null }, "geometry": { "type": "Point", "coordinates": [ -68.139145663030163, -16.184982145487414 ] } },
{ "type": "Feature", "properties": { "id": 216166682, "tags.power": "substation", "Type": "Way", "Country": "BO", "Area": 280.0, "tags.substation": "generation", "tags.voltage": null }, "geometry": { "type": "Point", "coordinates": [ -68.109942293925798, -16.13196392786562 ] } },
{ "type": "Feature", "properties": { "id": 216166683, "tags.power": "substation", "Type": "Way", "Country": "BO", "Area": 280.0, "tags.substation": null, "tags.voltage": null }, "geometry": { "type": "Point", "coordinates": [ -68.115924474819494, -16.142617910025642 ] } },
{ "type": "Feature", "properties": { "id": 216170930, "tags.power": "substation", "Type": "Way", "Country": "BO", "Area": 750.0, "tags.substation": null, "tags.voltage": null }, "geometry": { "type": "Point", "coordinates": [ -68.014637944637684, -16.056392104282647 ] } },
{ "type": "Feature", "properties": { "id": 216180125, "tags.power": "substation", "Type": "Way", "Country": "BO", "Area": 320.0, "tags.substation": null, "tags.voltage": null }, "geometry": { "type": "Point", "coordinates": [ -68.122579094116702, -16.27207337528921 ] } },
{ "type": "Feature", "properties": { "id": 216666348, "tags.power": "substation", "Type": "Way", "Country": "BO", "Area": 1620.0, "tags.substation": null, "tags.voltage": null }, "geometry": { "type": "Point", "coordinates": [ -67.28450170751519, -17.032842012877961 ] } },
{ "type": "Feature", "properties": { "id": 216865123, "tags.power": "substation", "Type": "Way", "Country": "BO", "Area": 960.0, "tags.substation": null, "tags.voltage": null }, "geometry": { "type": "Point", "coordinates": [ -67.335068136237552, -17.172692816876733 ] } },
{ "type": "Feature", "properties": { "id": 231406661, "tags.power": "substation", "Type": "Way", "Country": "BO", "Area": 2410.0, "tags.substation": null, "tags.voltage": null }, "geometry": { "type": "Point", "coordinates": [ -66.159865776723635, -17.361482286729107 ] } },
{ "type": "Feature", "properties": { "id": 254987872, "tags.power": "substation", "Type": "Way", "Country": "BO", "Area": 8710.0, "tags.substation": "distribution", "tags.voltage": "115000;24900" }, "geometry": { "type": "Point", "coordinates": [ -65.285699252684012, -17.627910527431691 ] } },
{ "type": "Feature", "properties": { "id": 258832077, "tags.power": "substation", "Type": "Way", "Country": "BO", "Area": 720.0, "tags.substation": null, "tags.voltage": null }, "geometry": { "type": "Point", "coordinates": [ -67.161277591698351, -17.649223075583606 ] } },
{ "type": "Feature", "properties": { "id": 260074648, "tags.power": "substation", "Type": "Way", "Country": "BO", "Area": 3330.0, "tags.substation": null, "tags.voltage": null }, "geometry": { "type": "Point", "coordinates": [ -67.80090372944268, -16.366592684866355 ] } },
{ "type": "Feature", "properties": { "id": 277946019, "tags.power": "substation", "Type": "Way", "Country": "BO", "Area": 1420.0, "tags.substation": null, "tags.voltage": null }, "geometry": { "type": "Point", "coordinates": [ -67.109657710951467, -17.983431363580245 ] } },
{ "type": "Feature", "properties": { "id": 316447122, "tags.power": "substation", "Type": "Way", "Country": "BO", "Area": 111890.0, "tags.substation": null, "tags.voltage": null }, "geometry": { "type": "Point", "coordinates": [ -64.525262793410576, -17.212207033687662 ] } },
{ "type": "Feature", "properties": { "id": 335148809, "tags.power": "substation", "Type": "Way", "Country": "BO", "Area": 1510.0, "tags.substation": null, "tags.voltage": null }, "geometry": { "type": "Point", "coordinates": [ -68.206988056107932, -16.486177775418785 ] } },
{ "type": "Feature", "properties": { "id": 370752875, "tags.power": "substation", "Type": "Way", "Country": "BO", "Area": 1260.0, "tags.substation": null, "tags.voltage": null }, "geometry": { "type": "Point", "coordinates": [ -65.822833732328576, -17.191779764178143 ] } },
{ "type": "Feature", "properties": { "id": 379884203, "tags.power": "substation", "Type": "Way", "Country": "BO", "Area": 101920.0, "tags.substation": null, "tags.voltage": null }, "geometry": { "type": "Point", "coordinates": [ -68.169416679767735, -16.691275266813374 ] } },
{ "type": "Feature", "properties": { "id": 392292266, "tags.power": "substation", "Type": "Way", "Country": "BO", "Area": 13550.0, "tags.substation": "transmission", "tags.voltage": "230000" }, "geometry": { "type": "Point", "coordinates": [ -66.219366632080892, -17.571903220951796 ] } },
{ "type": "Feature", "properties": { "id": 397574436, "tags.power": "substation", "Type": "Way", "Country": "BO", "Area": 4360.0, "tags.substation": "industrial", "tags.voltage": null }, "geometry": { "type": "Point", "coordinates": [ -66.117748934518687, -17.449111849908668 ] } },
{ "type": "Feature", "properties": { "id": 404396154, "tags.power": "substation", "Type": "Way", "Country": "BO", "Area": 820.0, "tags.substation": null, "tags.voltage": null }, "geometry": { "type": "Point", "coordinates": [ -63.180488799999928, -17.759397800000077 ] } },
{ "type": "Feature", "properties": { "id": 406780116, "tags.power": "substation", "Type": "Way", "Country": "BO", "Area": 14550.0, "tags.substation": null, "tags.voltage": null }, "geometry": { "type": "Point", "coordinates": [ -63.205367025113723, -17.784592962515756 ] } },
{ "type": "Feature", "properties": { "id": 407714873, "tags.power": "substation", "Type": "Way", "Country": "BO", "Area": 2090.0, "tags.substation": null, "tags.voltage": null }, "geometry": { "type": "Point", "coordinates": [ -63.157414524926878, -17.659689016073951 ] } },
{ "type": "Feature", "properties": { "id": 417910702, "tags.power": "substation", "Type": "Way", "Country": "BO", "Area": 5700.0, "tags.substation": null, "tags.voltage": null }, "geometry": { "type": "Point", "coordinates": [ -63.179804820108131, -17.812127624821173 ] } },
{ "type": "Feature", "properties": { "id": 423009950, "tags.power": "substation", "Type": "Way", "Country": "BO", "Area": 90.0, "tags.substation": null, "tags.voltage": null }, "geometry": { "type": "Point", "coordinates": [ -68.599350610404898, -16.28955117995239 ] } },
{ "type": "Feature", "properties": { "id": 423151853, "tags.power": "substation", "Type": "Way", "Country": "BO", "Area": 2070.0, "tags.substation": "yes", "tags.voltage": null }, "geometry": { "type": "Point", "coordinates": [ -68.116265826761776, -16.516507277496448 ] } },
{ "type": "Feature", "properties": { "id": 424873058, "tags.power": "substation", "Type": "Way", "Country": "BO", "Area": 920.0, "tags.substation": null, "tags.voltage": null }, "geometry": { "type": "Point", "coordinates": [ -68.106123203512325, -16.495870957311713 ] } },
{ "type": "Feature", "properties": { "id": 442227990, "tags.power": "substation", "Type": "Way", "Country": "BO", "Area": 1590.0, "tags.substation": null, "tags.voltage": null }, "geometry": { "type": "Point", "coordinates": [ -68.063977121013494, -16.540202973760117 ] } },
{ "type": "Feature", "properties": { "id": 460934346, "tags.power": "substation", "Type": "Way", "Country": "BO", "Area": 9280.0, "tags.substation": "distribution", "tags.voltage": null }, "geometry": { "type": "Point", "coordinates": [ -63.157980491852733, -17.728623330315102 ] } },
{ "type": "Feature", "properties": { "id": 461966459, "tags.power": "substation", "Type": "Way", "Country": "BO", "Area": 4390.0, "tags.substation": null, "tags.voltage": null }, "geometry": { "type": "Point", "coordinates": [ -66.291295065731703, -17.406801898367601 ] } },
{ "type": "Feature", "properties": { "id": 469542793, "tags.power": "substation", "Type": "Way", "Country": "BO", "Area": 30760.0, "tags.substation": "transmission", "tags.voltage": "230000;115000" }, "geometry": { "type": "Point", "coordinates": [ -64.727792751029838, -21.486319333188295 ] } },
{ "type": "Feature", "properties": { "id": 473926444, "tags.power": "substation", "Type": "Way", "Country": "BO", "Area": 4900.0, "tags.substation": "transmission", "tags.voltage": null }, "geometry": { "type": "Point", "coordinates": [ -66.117536114382332, -17.432703175385996 ] } },
{ "type": "Feature", "properties": { "id": 474212837, "tags.power": "substation", "Type": "Way", "Country": "BO", "Area": 3380.0, "tags.substation": null, "tags.voltage": null }, "geometry": { "type": "Point", "coordinates": [ -65.801591981251079, -19.484157496701023 ] } },
{ "type": "Feature", "properties": { "id": 497786539, "tags.power": "substation", "Type": "Way", "Country": "BO", "Area": 69750.0, "tags.substation": "yes", "tags.voltage": null }, "geometry": { "type": "Point", "coordinates": [ -63.560718676549591, -21.693165389555837 ] } },
{ "type": "Feature", "properties": { "id": 500093243, "tags.power": "substation", "Type": "Way", "Country": "BO", "Area": 45130.0, "tags.substation": "transmission", "tags.voltage": "230000" }, "geometry": { "type": "Point", "coordinates": [ -66.802948974137465, -20.56377826666666 ] } },
{ "type": "Feature", "properties": { "id": 500694792, "tags.power": "substation", "Type": "Way", "Country": "BO", "Area": 21620.0, "tags.substation": "distribution", "tags.voltage": null }, "geometry": { "type": "Point", "coordinates": [ -67.92298386640654, -16.573996819021563 ] } },
{ "type": "Feature", "properties": { "id": 500727594, "tags.power": "substation", "Type": "Way", "Country": "BO", "Area": 45910.0, "tags.substation": "transmission", "tags.voltage": "230000;115000" }, "geometry": { "type": "Point", "coordinates": [ -68.117997737537706, -16.399921703786639 ] } },
{ "type": "Feature", "properties": { "id": 504329583, "tags.power": "substation", "Type": "Way", "Country": "BO", "Area": 3620.0, "tags.substation": null, "tags.voltage": null }, "geometry": { "type": "Point", "coordinates": [ -66.165398096579921, -17.392809445372908 ] } },
{ "type": "Feature", "properties": { "id": 505671894, "tags.power": "substation", "Type": "Way", "Country": "BO", "Area": 25830.0, "tags.substation": null, "tags.voltage": null }, "geometry": { "type": "Point", "coordinates": [ -64.735150123550667, -21.55232901398595 ] } },
{ "type": "Feature", "properties": { "id": 521985273, "tags.power": "substation", "Type": "Way", "Country": "BO", "Area": 5450.0, "tags.substation": "yes", "tags.voltage": "115000" }, "geometry": { "type": "Point", "coordinates": [ -66.263026754049577, -17.31426171032982 ] } },
{ "type": "Feature", "properties": { "id": 526868216, "tags.power": "substation", "Type": "Way", "Country": "BO", "Area": 1020.0, "tags.substation": "distribution", "tags.voltage": null }, "geometry": { "type": "Point", "coordinates": [ -68.093843283845928, -16.525067294079442 ] } },
{ "type": "Feature", "properties": { "id": 527579633, "tags.power": "substation", "Type": "Way", "Country": "BO", "Area": 10030.0, "tags.substation": null, "tags.voltage": null }, "geometry": { "type": "Point", "coordinates": [ -63.228981416376676, -17.864788928351938 ] } },
{ "type": "Feature", "properties": { "id": 530945935, "tags.power": "substation", "Type": "Way", "Country": "BO", "Area": 110.0, "tags.substation": null, "tags.voltage": null }, "geometry": { "type": "Point", "coordinates": [ -66.829597869953218, -18.285413734467106 ] } },
{ "type": "Feature", "properties": { "id": 533503946, "tags.power": "substation", "Type": "Way", "Country": "BO", "Area": 15010.0, "tags.substation": "transmission", "tags.voltage": "115000" }, "geometry": { "type": "Point", "coordinates": [ -67.022604182804258, -15.142753203657479 ] } },
{ "type": "Feature", "properties": { "id": 539565695, "tags.power": "substation", "Type": "Way", "Country": "BO", "Area": 1890.0, "tags.substation": null, "tags.voltage": null }, "geometry": { "type": "Point", "coordinates": [ -68.166105688076485, -16.524984992703043 ] } },
{ "type": "Feature", "properties": { "id": 541081227, "tags.power": "substation", "Type": "Way", "Country": "BO", "Area": 6200.0, "tags.substation": null, "tags.voltage": null }, "geometry": { "type": "Point", "coordinates": [ -65.630592063345588, -15.000586906688595 ] } },
{ "type": "Feature", "properties": { "id": 541081229, "tags.power": "substation", "Type": "Way", "Country": "BO", "Area": 13310.0, "tags.substation": "transmission", "tags.voltage": "115000" }, "geometry": { "type": "Point", "coordinates": [ -66.770591343423689, -14.905238648128462 ] } },
{ "type": "Feature", "properties": { "id": 563672922, "tags.power": "substation", "Type": "Way", "Country": "BO", "Area": 7640.0, "tags.substation": "distribution", "tags.voltage": null }, "geometry": { "type": "Point", "coordinates": [ -62.51940135293048, -16.657081612138743 ] } },
{ "type": "Feature", "properties": { "id": 581302133, "tags.power": "substation", "Type": "Way", "Country": "BO", "Area": 12560.0, "tags.substation": null, "tags.voltage": null }, "geometry": { "type": "Point", "coordinates": [ -66.229748118224222, -17.407699744377393 ] } },
{ "type": "Feature", "properties": { "id": 583564410, "tags.power": "substation", "Type": "Way", "Country": "BO", "Area": 14970.0, "tags.substation": null, "tags.voltage": null }, "geometry": { "type": "Point", "coordinates": [ -65.750832072882687, -17.178033256309121 ] } },
{ "type": "Feature", "properties": { "id": 585101734, "tags.power": "substation", "Type": "Way", "Country": "BO", "Area": 12160.0, "tags.substation": null, "tags.voltage": null }, "geometry": { "type": "Point", "coordinates": [ -65.210758799326982, -21.157942444263039 ] } },
{ "type": "Feature", "properties": { "id": 585101737, "tags.power": "substation", "Type": "Way", "Country": "BO", "Area": 12470.0, "tags.substation": null, "tags.voltage": null }, "geometry": { "type": "Point", "coordinates": [ -66.139577519976186, -20.05034712906409 ] } },
{ "type": "Feature", "properties": { "id": 603346485, "tags.power": "substation", "Type": "Way", "Country": "BO", "Area": 13540.0, "tags.substation": "CRE", "tags.voltage": null }, "geometry": { "type": "Point", "coordinates": [ -63.117679029407967, -17.796766943076928 ] } },
{ "type": "Feature", "properties": { "id": 604310236, "tags.power": "substation", "Type": "Way", "Country": "BO", "Area": 9340.0, "tags.substation": "industrial", "tags.voltage": null }, "geometry": { "type": "Point", "coordinates": [ -67.614753542943504, -14.340004356693045 ] } },
{ "type": "Feature", "properties": { "id": 631132295, "tags.power": "substation", "Type": "Way", "Country": "BO", "Area": 4540.0, "tags.substation": null, "tags.voltage": null }, "geometry": { "type": "Point", "coordinates": [ -65.850747693466346, -17.507745110053481 ] } },
{ "type": "Feature", "properties": { "id": 634416701, "tags.power": "substation", "Type": "Way", "Country": "BO", "Area": 240.0, "tags.substation": null, "tags.voltage": null }, "geometry": { "type": "Point", "coordinates": [ -66.698483219062766, -20.387916123077794 ] } },
{ "type": "Feature", "properties": { "id": 635062021, "tags.power": "substation", "Type": "Way", "Country": "BO", "Area": 240.0, "tags.substation": null, "tags.voltage": null }, "geometry": { "type": "Point", "coordinates": [ -66.694988599998908, -20.388982550000023 ] } },
{ "type": "Feature", "properties": { "id": 637910520, "tags.power": "substation", "Type": "Way", "Country": "BO", "Area": 11910.0, "tags.substation": "transmission", "tags.voltage": "115000" }, "geometry": { "type": "Point", "coordinates": [ -64.305719799752239, -19.321206009947904 ] } },
{ "type": "Feature", "properties": { "id": 653639512, "tags.power": "substation", "Type": "Way", "Country": "BO", "Area": 52420.0, "tags.substation": null, "tags.voltage": null }, "geometry": { "type": "Point", "coordinates": [ -66.220518160333711, -17.573289903911402 ] } },
{ "type": "Feature", "properties": { "id": 662968776, "tags.power": "substation", "Type": "Way", "Country": "BO", "Area": 80600.0, "tags.substation": "transmission", "tags.voltage": "230000;115000" }, "geometry": { "type": "Point", "coordinates": [ -65.755044029873559, -21.426199059307468 ] } },
{ "type": "Feature", "properties": { "id": 675203569, "tags.power": "substation", "Type": "Way", "Country": "BO", "Area": 3540.0, "tags.substation": null, "tags.voltage": null }, "geometry": { "type": "Point", "coordinates": [ -67.560631155868066, -15.844540221087273 ] } },
{ "type": "Feature", "properties": { "id": 689666772, "tags.power": "substation", "Type": "Way", "Country": "BO", "Area": 3810.0, "tags.substation": "distribution", "tags.voltage": null }, "geometry": { "type": "Point", "coordinates": [ -65.980724759998793, -17.384464241194241 ] } },
{ "type": "Feature", "properties": { "id": 697039037, "tags.power": "substation", "Type": "Way", "Country": "BO", "Area": 39140.0, "tags.substation": "transmission", "tags.voltage": "115000" }, "geometry": { "type": "Point", "coordinates": [ -67.035766757109897, -17.714258987951482 ] } },
{ "type": "Feature", "properties": { "id": 709819086, "tags.power": "substation", "Type": "Way", "Country": "BO", "Area": 9590.0, "tags.substation": null, "tags.voltage": null }, "geometry": { "type": "Point", "coordinates": [ -63.092548946567639, -17.753932142087915 ] } },
{ "type": "Feature", "properties": { "id": 722088234, "tags.power": "substation", "Type": "Way", "Country": "BO", "Area": 190.0, "tags.substation": null, "tags.voltage": null }, "geometry": { "type": "Point", "coordinates": [ -60.182186569721274, -18.046510704139259 ] } },
{ "type": "Feature", "properties": { "id": 732022028, "tags.power": "substation", "Type": "Way", "Country": "BO", "Area": 5620.0, "tags.substation": null, "tags.voltage": null }, "geometry": { "type": "Point", "coordinates": [ -65.721731125969029, -19.551986264316358 ] } },
{ "type": "Feature", "properties": { "id": 737721937, "tags.power": "substation", "Type": "Way", "Country": "BO", "Area": 3580.0, "tags.substation": null, "tags.voltage": null }, "geometry": { "type": "Point", "coordinates": [ -68.152424161852295, -16.465418578430356 ] } },
{ "type": "Feature", "properties": { "id": 737721941, "tags.power": "substation", "Type": "Way", "Country": "BO", "Area": 17570.0, "tags.substation": null, "tags.voltage": null }, "geometry": { "type": "Point", "coordinates": [ -68.181861768335054, -16.565918452597984 ] } },
{ "type": "Feature", "properties": { "id": 737723057, "tags.power": "substation", "Type": "Way", "Country": "BO", "Area": 1600.0, "tags.substation": null, "tags.voltage": null }, "geometry": { "type": "Point", "coordinates": [ -68.106673719034433, -16.460660379508237 ] } },
{ "type": "Feature", "properties": { "id": 749915563, "tags.power": "substation", "Type": "Way", "Country": "BO", "Area": 55160.0, "tags.substation": null, "tags.voltage": null }, "geometry": { "type": "Point", "coordinates": [ -65.442506629406438, -17.009655799851188 ] } },
{ "type": "Feature", "properties": { "id": 753467277, "tags.power": "substation", "Type": "Way", "Country": "BO", "Area": 19860.0, "tags.substation": null, "tags.voltage": null }, "geometry": { "type": "Point", "coordinates": [ -67.276641799635883, -17.396057254574384 ] } },
{ "type": "Feature", "properties": { "id": 753467304, "tags.power": "substation", "Type": "Way", "Country": "BO", "Area": 2510.0, "tags.substation": "industrial", "tags.voltage": null }, "geometry": { "type": "Point", "coordinates": [ -67.274121374999083, -17.399016395695703 ] } },
{ "type": "Feature", "properties": { "id": 777819673, "tags.power": "substation", "Type": "Way", "Country": "BO", "Area": 47030.0, "tags.substation": null, "tags.voltage": null }, "geometry": { "type": "Point", "coordinates": [ -65.773497068531327, -17.156986216667313 ] } },
{ "type": "Feature", "properties": { "id": 782861112, "tags.power": "substation", "Type": "Way", "Country": "BO", "Area": 88310.0, "tags.substation": "transmission", "tags.voltage": "230000;115000" }, "geometry": { "type": "Point", "coordinates": [ -67.156155272987235, -21.133702394384802 ] } },
{ "type": "Feature", "properties": { "id": 783814101, "tags.power": "substation", "Type": "Way", "Country": "BO", "Area": 10290.0, "tags.substation": null, "tags.voltage": null }, "geometry": { "type": "Point", "coordinates": [ -65.769275408652291, -19.594812271354009 ] } },
{ "type": "Feature", "properties": { "id": 784145128, "tags.power": "substation", "Type": "Way", "Country": "BO", "Area": 6150.0, "tags.substation": null, "tags.voltage": null }, "geometry": { "type": "Point", "coordinates": [ -62.716253134564731, -17.654005584466937 ] } },
{ "type": "Feature", "properties": { "id": 786364577, "tags.power": "substation", "Type": "Way", "Country": "BO", "Area": 2830.0, "tags.substation": null, "tags.voltage": null }, "geometry": { "type": "Point", "coordinates": [ -65.270593912905184, -19.053625985996138 ] } },
{ "type": "Feature", "properties": { "id": 807192051, "tags.power": "substation", "Type": "Way", "Country": "BO", "Area": 64870.0, "tags.substation": "transmission", "tags.voltage": "230000" }, "geometry": { "type": "Point", "coordinates": [ -68.360185675279666, -16.646102413249089 ] } },
{ "type": "Feature", "properties": { "id": 807195323, "tags.power": "substation", "Type": "Way", "Country": "BO", "Area": 90050.0, "tags.substation": "transmission", "tags.voltage": "115000" }, "geometry": { "type": "Point", "coordinates": [ -67.109237429572204, -17.811743213463178 ] } },
{ "type": "Feature", "properties": { "id": 807449508, "tags.power": "substation", "Type": "Way", "Country": "BO", "Area": 300.0, "tags.substation": "transmission", "tags.voltage": "115000" }, "geometry": { "type": "Point", "coordinates": [ -67.737867341254784, -16.387588349117742 ] } },
{ "type": "Feature", "properties": { "id": 807449509, "tags.power": "substation", "Type": "Way", "Country": "BO", "Area": 290.0, "tags.substation": "transmission", "tags.voltage": "115000" }, "geometry": { "type": "Point", "coordinates": [ -67.772255184336558, -16.412069878465392 ] } },
{ "type": "Feature", "properties": { "id": 807635600, "tags.power": "substation", "Type": "Way", "Country": "BO", "Area": 15830.0, "tags.substation": "transmission", "tags.voltage": "115000" }, "geometry": { "type": "Point", "coordinates": [ -65.686058702916526, -19.520412531268516 ] } },
{ "type": "Feature", "properties": { "id": 807732184, "tags.power": "substation", "Type": "Way", "Country": "BO", "Area": 9030.0, "tags.substation": "transmission", "tags.voltage": "115000" }, "geometry": { "type": "Point", "coordinates": [ -64.892909937422246, -14.853466221117124 ] } },
{ "type": "Feature", "properties": { "id": 807794956, "tags.power": "substation", "Type": "Way", "Country": "BO", "Area": 57920.0, "tags.substation": "transmission", "tags.voltage": "230000;115000" }, "geometry": { "type": "Point", "coordinates": [ -63.147069078150523, -17.534209323038947 ] } },
{ "type": "Feature", "properties": { "id": 807818001, "tags.power": "substation", "Type": "Way", "Country": "BO", "Area": 47360.0, "tags.substation": "transmission", "tags.voltage": "230000;115000" }, "geometry": { "type": "Point", "coordinates": [ -63.282530635502233, -17.575413444962681 ] } },
{ "type": "Feature", "properties": { "id": 807827304, "tags.power": "substation", "Type": "Way", "Country": "BO", "Area": 60350.0, "tags.substation": "transmission", "tags.voltage": "230000" }, "geometry": { "type": "Point", "coordinates": [ -62.853467145824148, -17.822566024232007 ] } },
{ "type": "Feature", "properties": { "id": 848800765, "tags.power": "substation", "Type": "Way", "Country": "BO", "Area": 229810.0, "tags.substation": null, "tags.voltage": null }, "geometry": { "type": "Point", "coordinates": [ -66.221096690544385, -17.578171997751241 ] } },
{ "type": "Feature", "properties": { "id": 885727345, "tags.power": "substation", "Type": "Way", "Country": "BO", "Area": 60.0, "tags.substation": "traction", "tags.voltage": "750" }, "geometry": { "type": "Point", "coordinates": [ -66.154510049999814, -17.409644949999876 ] } },
{ "type": "Feature", "properties": { "id": 892825628, "tags.power": "substation", "Type": "Way", "Country": "BO", "Area": 100.0, "tags.substation": null, "tags.voltage": null }, "geometry": { "type": "Point", "coordinates": [ -66.212780212660462, -17.387885930576413 ] } },
{ "type": "Feature", "properties": { "id": 907576541, "tags.power": "substation", "Type": "Way", "Country": "BO", "Area": 87870.0, "tags.substation": "transmission", "tags.voltage": "230000" }, "geometry": { "type": "Point", "coordinates": [ -63.218629539703407, -18.064732719340405 ] } },
{ "type": "Feature", "properties": { "id": 932747587, "tags.power": "substation", "Type": "Way", "Country": "BO", "Area": 220.0, "tags.substation": "industrial", "tags.voltage": null }, "geometry": { "type": "Point", "coordinates": [ -66.144004426809303, -17.394601465783616 ] } },
{ "type": "Feature", "properties": { "id": 949576952, "tags.power": "substation", "Type": "Way", "Country": "BO", "Area": 47350.0, "tags.substation": null, "tags.voltage": null }, "geometry": { "type": "Point", "coordinates": [ -63.893283326066609, -17.393866735287794 ] } },
{ "type": "Feature", "properties": { "id": 983741577, "tags.power": "substation", "Type": "Way", "Country": "BO", "Area": 6680.0, "tags.substation": null, "tags.voltage": null }, "geometry": { "type": "Point", "coordinates": [ -65.707284216931313, -19.483290307918836 ] } },
{ "type": "Feature", "properties": { "id": 986982623, "tags.power": "substation", "Type": "Way", "Country": "BO", "Area": 13200.0, "tags.substation": null, "tags.voltage": null }, "geometry": { "type": "Point", "coordinates": [ -63.75400183905802, -21.126785077053366 ] } },
{ "type": "Feature", "properties": { "id": 987818391, "tags.power": "substation", "Type": "Way", "Country": "BO", "Area": 28710.0, "tags.substation": "generation", "tags.voltage": null }, "geometry": { "type": "Point", "coordinates": [ -63.145216686812695, -18.383563802994381 ] } },
{ "type": "Feature", "properties": { "id": 1013067940, "tags.power": "substation", "Type": "Way", "Country": "BO", "Area": 2040.0, "tags.substation": "delapaz", "tags.voltage": null }, "geometry": { "type": "Point", "coordinates": [ -68.288910594016343, -16.641775096115285 ] } },
{ "type": "Feature", "properties": { "id": 1022423085, "tags.power": "substation", "Type": "Way", "Country": "BO", "Area": 370.0, "tags.substation": "distribution", "tags.voltage": null }, "geometry": { "type": "Point", "coordinates": [ -61.040949217434765, -13.478500952894784 ] } },
{ "type": "Feature", "properties": { "id": 1022423097, "tags.power": "substation", "Type": "Way", "Country": "BO", "Area": 990.0, "tags.substation": "distribution", "tags.voltage": null }, "geometry": { "type": "Point", "coordinates": [ -65.018987500000023, -11.884584650000036 ] } },
{ "type": "Feature", "properties": { "id": 1042565697, "tags.power": "substation", "Type": "Way", "Country": "BO", "Area": 2610.0, "tags.substation": "industrial", "tags.voltage": null }, "geometry": { "type": "Point", "coordinates": [ -67.364059009910079, -20.580728225206784 ] } },
{ "type": "Feature", "properties": { "id": 1067286518, "tags.power": "substation", "Type": "Way", "Country": "BO", "Area": 46020.0, "tags.substation": "transmission", "tags.voltage": "230000;115000" }, "geometry": { "type": "Point", "coordinates": [ -62.641125407195382, -17.06051526588049 ] } },
{ "type": "Feature", "properties": { "id": 1067609378, "tags.power": "substation", "Type": "Way", "Country": "BO", "Area": 6480.0, "tags.substation": null, "tags.voltage": null }, "geometry": { "type": "Point", "coordinates": [ -66.141587815340358, -20.050502596832136 ] } },
{ "type": "Feature", "properties": { "id": 1068376378, "tags.power": "substation", "Type": "Way", "Country": "BO", "Area": 150.0, "tags.substation": "traction", "tags.voltage": "750" }, "geometry": { "type": "Point", "coordinates": [ -66.167944491833339, -17.40765924338309 ] } },
{ "type": "Feature", "properties": { "id": 1096176919, "tags.power": "substation", "Type": "Way", "Country": "BO", "Area": 160.0, "tags.substation": "traction", "tags.voltage": "750" }, "geometry": { "type": "Point", "coordinates": [ -66.152719279015201, -17.42816667183628 ] } },
{ "type": "Feature", "properties": { "id": 1097857019, "tags.power": "substation", "Type": "Way", "Country": "BO", "Area": 150.0, "tags.substation": "traction", "tags.voltage": "750" }, "geometry": { "type": "Point", "coordinates": [ -66.186990125434647, -17.400389948353222 ] } },
{ "type": "Feature", "properties": { "id": 1102756099, "tags.power": "substation", "Type": "Way", "Country": "BO", "Area": 160.0, "tags.substation": "traction", "tags.voltage": "750" }, "geometry": { "type": "Point", "coordinates": [ -66.238484591329538, -17.399124774078697 ] } },
{ "type": "Feature", "properties": { "id": 1103032159, "tags.power": "substation", "Type": "Way", "Country": "BO", "Area": 190.0, "tags.substation": "traction", "tags.voltage": "750" }, "geometry": { "type": "Point", "coordinates": [ -66.253210039958731, -17.398527027630816 ] } },
{ "type": "Feature", "properties": { "id": 1105390203, "tags.power": "substation", "Type": "Way", "Country": "BO", "Area": 1550.0, "tags.substation": null, "tags.voltage": null }, "geometry": { "type": "Point", "coordinates": [ -67.678890800558392, -18.346275404492776 ] } },
{ "type": "Feature", "properties": { "id": 1119103428, "tags.power": "substation", "Type": "Way", "Country": "BO", "Area": 160.0, "tags.substation": "traction", "tags.voltage": "750" }, "geometry": { "type": "Point", "coordinates": [ -66.136193817329499, -17.446685107252371 ] } },
{ "type": "Feature", "properties": { "id": 1120013140, "tags.power": "substation", "Type": "Way", "Country": "BO", "Area": 170.0, "tags.substation": "traction", "tags.voltage": "750" }, "geometry": { "type": "Point", "coordinates": [ -66.154449149999891, -17.414692900000052 ] } },
{ "type": "Feature", "properties": { "id": 1126404199, "tags.power": "substation", "Type": "Way", "Country": "BO", "Area": 120.0, "tags.substation": "traction", "tags.voltage": "750" }, "geometry": { "type": "Point", "coordinates": [ -66.317565998001328, -17.39889772244987 ] } },
{ "type": "Feature", "properties": { "id": 1161613530, "tags.power": "substation", "Type": "Way", "Country": "BO", "Area": 60.0, "tags.substation": "yes", "tags.voltage": null }, "geometry": { "type": "Point", "coordinates": [ -66.193264579002673, -17.430390041100125 ] } },
{ "type": "Feature", "properties": { "id": 1179191077, "tags.power": "substation", "Type": "Way", "Country": "BO", "Area": 20.0, "tags.substation": null, "tags.voltage": null }, "geometry": { "type": "Point", "coordinates": [ -68.066234400519335, -16.53780409447786 ] } },
{ "type": "Feature", "properties": { "id": 1187505643, "tags.power": "substation", "Type": "Way", "Country": "BO", "Area": 190.0, "tags.substation": null, "tags.voltage": null }, "geometry": { "type": "Point", "coordinates": [ -68.062216015154746, -16.537923458433024 ] } },
{ "type": "Feature", "properties": { "id": 1199387557, "tags.power": "substation", "Type": "Way", "Country": "BO", "Area": 11630.0, "tags.substation": "generation", "tags.voltage": null }, "geometry": { "type": "Point", "coordinates": [ -67.437279602121151, -17.7729554295924 ] } },
{ "type": "Feature", "properties": { "id": 1228772965, "tags.power": "substation", "Type": "Way", "Country": "BO", "Area": 200.0, "tags.substation": "traction", "tags.voltage": "750" }, "geometry": { "type": "Point", "coordinates": [ -66.327814249999676, -17.431984300000039 ] } },
{ "type": "Feature", "properties": { "id": 1229001271, "tags.power": "substation", "Type": "Way", "Country": "BO", "Area": 170.0, "tags.substation": "traction", "tags.voltage": "750" }, "geometry": { "type": "Point", "coordinates": [ -66.328599539506968, -17.450045180545104 ] } },
{ "type": "Feature", "properties": { "id": 1232096070, "tags.power": "substation", "Type": "Way", "Country": "BO", "Area": 120.0, "tags.substation": "industrial", "tags.voltage": null }, "geometry": { "type": "Point", "coordinates": [ -67.375801976117586, -20.567687743534147 ] } }
]
}
