{
"type": "FeatureCollection",
"crs": { "type": "name", "properties": { "name": "urn:ogc:def:crs:OGC:1.3:CRS84" } },
"features": [
{ "type": "Feature", "properties": { "line_id": -753810532, "tag_type": "line", "country": "BO", "length": 235660.0, "voltage": 500000, "circuits": 3.0, "tag_frequency": 50.0, "bus0": null, "bus1": null, "underground": false, "under_construction": false, "dc": false }, "geometry": { "type": "LineString", "coordinates": [ [ -64.526253, -17.211946 ], [ -66.220564, -17.573273 ] ] } },
{ "type": "Feature", "properties": { "line_id": 1689922187, "tag_type": "line", "country": "BO", "length": 34570.0, "voltage": 230000, "circuits": 3.0, "tag_frequency": 50.0, "bus0": null, "bus1": null, "underground": false, "under_construction": false, "dc": false }, "geometry": { "type": "LineString", "coordinates": [ [ -63.282402, -17.575242 ], [ -63.152658, -17.786777 ] ] } },
{ "type": "Feature", "properties": { "line_id": 2035876983, "tag_type": "line", "country": "BO", "length": 98780.0, "voltage": 230000, "circuits": 3.0, "tag_frequency": 50.0, "bus0": null, "bus1": null, "underground": false, "under_construction": false, "dc": false }, "geometry": { "type": "LineString", "coordinates": [ [ -63.282402, -17.575242 ], [ -62.64138, -17.060676 ] ] } },
{ "type": "Feature", "properties": { "line_id": 1117936324, "tag_type": "line", "country": "BO", "length": 98780.0, "voltage": 230000, "circuits": 3.0, "tag_frequency": 50.0, "bus0": null, "bus1": null, "underground": false, "under_construction": false, "dc": false }, "geometry": { "type": "LineString", "coordinates": [ [ -63.282402, -17.575242 ], [ -62.64138, -17.060676 ] ] } },
{ "type": "Feature", "properties": { "line_id": 1635802992, "tag_type": "line", "country": "BO", "length": 51400.0, "voltage": 230000, "circuits": 6.0, "tag_frequency": 50.0, "bus0": null, "bus1": null, "underground": false, "under_construction": false, "dc": false }, "geometry": { "type": "LineString", "coordinates": [ [ -63.217863, -18.065164 ], [ -63.145217, -18.383435 ] ] } },
{ "type": "Feature", "properties": { "line_id": 1608386132, "tag_type": "line", "country": "BO", "length": 74750.0, "voltage": 230000, "circuits": 3.0, "tag_frequency": 50.0, "bus0": null, "bus1": null, "underground": false, "under_construction": false, "dc": false }, "geometry": { "type": "LineString", "coordinates": [ [ -64.526253, -17.211946 ], [ -63.893004, -17.394199 ] ] } },
{ "type": "Feature", "properties": { "line_id": -12578261, "tag_type": "line", "country": "BO", "length": 70780.0, "voltage": 230000, "circuits": 3.0, "tag_frequency": 50.0, "bus0": null, "bus1": null, "underground": false, "under_construction": false, "dc": false }, "geometry": { "type": "LineString", "coordinates": [ [ -63.893004, -17.394199 ], [ -63.282402, -17.575242 ] ] } },
{ "type": "Feature", "properties": { "line_id": -382422293, "tag_type": "line", "country": "BO", "length": 75330.0, "voltage": 230000, "circuits": 3.0, "tag_frequency": 50.0, "bus0": null, "bus1": null, "underground": false, "under_construction": false, "dc": false }, "geometry": { "type": "LineString", "coordinates": [ [ -64.526253, -17.211946 ], [ -65.161215, -16.999072 ] ] } },
{ "type": "Feature", "properties": { "line_id": -1578860216, "tag_type": "line", "country": "BO", "length": 225600.0, "voltage": 230000, "circuits": 3.0, "tag_frequency": 50.0, "bus0": null, "bus1": null, "underground": false, "under_construction": false, "dc": false }, "geometry": { "type": "LineString", "coordinates": [ [ -64.526253, -17.211946 ], [ -66.220564, -17.573273 ] ] } },
{ "type": "Feature", "properties": { "line_id": -1452859278, "tag_type": "line", "country": "BO", "length": 33620.0, "voltage": 230000, "circuits": 3.0, "tag_frequency": 50.0, "bus0": null, "bus1": null, "underground": false, "under_construction": false, "dc": false }, "geometry": { "type": "LineString", "coordinates": [ [ -65.161215, -16.999072 ], [ -65.442655, -17.009875 ] ] } },
{ "type": "Feature", "properties": { "line_id": 1089459438, "tag_type": "line", "country": "BO", "length": 1850.0, "voltage": 230000, "circuits": 3.0, "tag_frequency": 50.0, "bus0": null, "bus1": null, "underground": false, "under_construction": false, "dc": false }, "geometry": { "type": "LineString", "coordinates": [ [ -64.516392, -17.197433 ], [ -64.526253, -17.211946 ] ] } },
{ "type": "Feature", "properties": { "line_id": -1025814263, "tag_type": "line", "country": "BO", "length": 1360.0, "voltage": 230000, "circuits": 3.0, "tag_frequency": 50.0, "bus0": null, "bus1": null, "underground": false, "under_construction": false, "dc": false }, "geometry": { "type": "LineString", "coordinates": [ [ -64.516392, -17.197433 ], [ -64.526253, -17.211946 ] ] } },
{ "type": "Feature", "properties": { "line_id": -2037512606, "tag_type": "line", "country": "BO", "length": 230550.0, "voltage": 230000, "circuits": 3.0, "tag_frequency": 50.0, "bus0": null, "bus1": null, "underground": false, "under_construction": false, "dc": false }, "geometry": { "type": "LineString", "coordinates": [ [ -63.18877, -15.945274 ], [ -64.796088, -14.836302 ] ] } },
{ "type": "Feature", "properties": { "line_id": -1234324271, "tag_type": "line", "country": "BO", "length": 230550.0, "voltage": 230000, "circuits": 3.0, "tag_frequency": 50.0, "bus0": null, "bus1": null, "underground": false, "under_construction": false, "dc": false }, "geometry": { "type": "LineString", "coordinates": [ [ -63.18877, -15.945274 ], [ -64.796088, -14.836302 ] ] } },
{ "type": "Feature", "properties": { "line_id": -1464549976, "tag_type": "line", "country": "BO", "length": 82900.0, "voltage": 230000, "circuits": 3.0, "tag_frequency": 50.0, "bus0": null, "bus1": null, "underground": false, "under_construction": false, "dc": false }, "geometry": { "type": "LineString", "coordinates": [ [ -65.210247, -21.159084 ], [ -64.727985, -21.486837 ] ] } },
{ "type": "Feature", "properties": { "line_id": 1384506802, "tag_type": "line", "country": "BO", "length": 82000.0, "voltage": 230000, "circuits": 3.0, "tag_frequency": 50.0, "bus0": null, "bus1": null, "underground": false, "under_construction": false, "dc": false }, "geometry": { "type": "LineString", "coordinates": [ [ -65.210247, -21.159084 ], [ -65.755479, -21.42692 ] ] } },
{ "type": "Feature", "properties": { "line_id": 1342391373, "tag_type": "line", "country": "BO", "length": 193570.0, "voltage": 230000, "circuits": 3.0, "tag_frequency": 50.0, "bus0": null, "bus1": null, "underground": false, "under_construction": false, "dc": false }, "geometry": { "type": "LineString", "coordinates": [ [ -68.169479, -16.691566 ], [ -67.044731, -17.96955 ] ] } },
{ "type": "Feature", "properties": { "line_id": 837974539, "tag_type": "line", "country": "BO", "length": 79010.0, "voltage": 230000, "circuits": 3.0, "tag_frequency": 50.0, "bus0": null, "bus1": null, "underground": false, "under_construction": false, "dc": false }, "geometry": { "type": "LineString", "coordinates": [ [ -65.773168, -17.156959 ], [ -66.220564, -17.573273 ] ] } },
{ "type": "Feature", "properties": { "line_id": -1389783646, "tag_type": "line", "country": "BO", "length": 79010.0, "voltage": 230000, "circuits": 3.0, "tag_frequency": 50.0, "bus0": null, "bus1": null, "underground": false, "under_construction": false, "dc": false }, "geometry": { "type": "LineString", "coordinates": [ [ -65.773168, -17.156959 ], [ -66.220564, -17.573273 ] ] } },
{ "type": "Feature", "properties": { "line_id": -657715146, "tag_type": "line", "country": "BO", "length": 36000.0, "voltage": 230000, "circuits": 6.0, "tag_frequency": 50.0, "bus0": null, "bus1": null, "underground": false, "under_construction": false, "dc": false }, "geometry": { "type": "LineString", "coordinates": [ [ -67.923726, -16.574612 ], [ -68.169479, -16.691566 ] ] } },
{ "type": "Feature", "properties": { "line_id": -1516111715, "tag_type": "line", "country": "BO", "length": 59570.0, "voltage": 230000, "circuits": 3.0, "tag_frequency": 50.0, "bus0": null, "bus1": null, "underground": false, "under_construction": false, "dc": false }, "geometry": { "type": "LineString", "coordinates": [ [ -65.750613, -17.178102 ], [ -66.11722, -17.428451 ] ] } },
{ "type": "Feature", "properties": { "line_id": 1995198495, "tag_type": "line", "country": "BO", "length": 3360.0, "voltage": 230000, "circuits": 3.0, "tag_frequency": 50.0, "bus0": null, "bus1": null, "underground": false, "under_construction": false, "dc": false }, "geometry": { "type": "LineString", "coordinates": [ [ -65.750613, -17.178102 ], [ -65.773168, -17.156959 ] ] } },
{ "type": "Feature", "properties": { "line_id": -1282014296, "tag_type": "line", "country": "BO", "length": 64400.0, "voltage": 230000, "circuits": 3.0, "tag_frequency": 50.0, "bus0": null, "bus1": null, "underground": false, "under_construction": false, "dc": false }, "geometry": { "type": "LineString", "coordinates": [ [ -62.85447, -17.822856 ], [ -63.217863, -18.065164 ] ] } },
{ "type": "Feature", "properties": { "line_id": 1725610665, "tag_type": "line", "country": "BO", "length": 64400.0, "voltage": 230000, "circuits": 3.0, "tag_frequency": 50.0, "bus0": null, "bus1": null, "underground": false, "under_construction": false, "dc": false }, "geometry": { "type": "LineString", "coordinates": [ [ -62.85447, -17.822856 ], [ -63.217863, -18.065164 ] ] } },
{ "type": "Feature", "properties": { "line_id": 2000149022, "tag_type": "line", "country": "BO", "length": 115040.0, "voltage": 230000, "circuits": 3.0, "tag_frequency": 50.0, "bus0": null, "bus1": null, "underground": false, "under_construction": false, "dc": false }, "geometry": { "type": "LineString", "coordinates": [ [ -66.220564, -17.573273 ], [ -67.109151, -17.811603 ] ] } },
{ "type": "Feature", "properties": { "line_id": 483659582, "tag_type": "line", "country": "BO", "length": 24790.0, "voltage": 230000, "circuits": 3.0, "tag_frequency": 50.0, "bus0": null, "bus1": null, "underground": false, "under_construction": false, "dc": false }, "geometry": { "type": "LineString", "coordinates": [ [ -67.109151, -17.811603 ], [ -67.044731, -17.96955 ] ] } },
{ "type": "Feature", "properties": { "line_id": -646530031, "tag_type": "line", "country": "BO", "length": 157100.0, "voltage": 230000, "circuits": 3.0, "tag_frequency": 50.0, "bus0": null, "bus1": null, "underground": false, "under_construction": false, "dc": false }, "geometry": { "type": "LineString", "coordinates": [ [ -65.755479, -21.42692 ], [ -67.156044, -21.133749 ] ] } },
{ "type": "Feature", "properties": { "line_id": 1907994245, "tag_type": "line", "country": "BO", "length": 22650.0, "voltage": 230000, "circuits": 3.0, "tag_frequency": 50.0, "bus0": null, "bus1": null, "underground": false, "under_construction": false, "dc": false }, "geometry": { "type": "LineString", "coordinates": [ [ -66.11722, -17.428451 ], [ -66.220564, -17.573273 ] ] } },
{ "type": "Feature", "properties": { "line_id": -1382799058, "tag_type": "line", "country": "BO", "length": 45830.0, "voltage": 230000, "circuits": 3.0, "tag_frequency": 50.0, "bus0": null, "bus1": null, "underground": false, "under_construction": false, "dc": false }, "geometry": { "type": "LineString", "coordinates": [ [ -65.442684, -17.009819 ], [ -65.750613, -17.178102 ] ] } },
{ "type": "Feature", "properties": { "line_id": -1359706950, "tag_type": "line", "country": "BO", "length": 16540.0, "voltage": 230000, "circuits": 3.0, "tag_frequency": 50.0, "bus0": null, "bus1": null, "underground": false, "under_construction": false, "dc": false }, "geometry": { "type": "LineString", "coordinates": [ [ -63.145837, -17.533684 ], [ -63.282402, -17.575242 ] ] } },
{ "type": "Feature", "properties": { "line_id": 1487666159, "tag_type": "line", "country": "BO", "length": 16540.0, "voltage": 230000, "circuits": 3.0, "tag_frequency": 50.0, "bus0": null, "bus1": null, "underground": false, "under_construction": false, "dc": false }, "geometry": { "type": "LineString", "coordinates": [ [ -63.145837, -17.533684 ], [ -63.282402, -17.575242 ] ] } },
{ "type": "Feature", "properties": { "line_id": 531108144, "tag_type": "line", "country": "BO", "length": 54200.0, "voltage": 230000, "circuits": 3.0, "tag_frequency": 50.0, "bus0": null, "bus1": null, "underground": false, "under_construction": false, "dc": false }, "geometry": { "type": "LineString", "coordinates": [ [ -63.145837, -17.533684 ], [ -62.85447, -17.822856 ] ] } },
{ "type": "Feature", "properties": { "line_id": 1680295840, "tag_type": "line", "country": "BO", "length": 54200.0, "voltage": 230000, "circuits": 3.0, "tag_frequency": 50.0, "bus0": null, "bus1": null, "underground": false, "under_construction": false, "dc": false }, "geometry": { "type": "LineString", "coordinates": [ [ -63.145837, -17.533684 ], [ -62.85447, -17.822856 ] ] } },
{ "type": "Feature", "properties": { "line_id": -818481380, "tag_type": "line", "country": "BO", "length": 39400.0, "voltage": 230000, "circuits": 3.0, "tag_frequency": 50.0, "bus0": null, "bus1": null, "underground": false, "under_construction": false, "dc": false }, "geometry": { "type": "LineString", "coordinates": [ [ -63.145837, -17.533684 ], [ -63.236644, -17.742589 ] ] } },
{ "type": "Feature", "properties": { "line_id": -1617796573, "tag_type": "line", "country": "BO", "length": 74240.0, "voltage": 230000, "circuits": 3.0, "tag_frequency": 50.0, "bus0": null, "bus1": null, "underground": false, "under_construction": false, "dc": false }, "geometry": { "type": "LineString", "coordinates": [ [ -65.210247, -21.159084 ], [ -64.727985, -21.486837 ] ] } },
{ "type": "Feature", "properties": { "line_id": 2099635059, "tag_type": "line", "country": "BO", "length": 31000.0, "voltage": 230000, "circuits": 3.0, "tag_frequency": 50.0, "bus0": null, "bus1": null, "underground": false, "under_construction": false, "dc": false }, "geometry": { "type": "LineString", "coordinates": [ [ -67.923726, -16.574612 ], [ -68.118223, -16.400539 ] ] } },
{ "type": "Feature", "properties": { "line_id": -1953944760, "tag_type": "line", "country": "BO", "length": 181130.0, "voltage": 230000, "circuits": 3.0, "tag_frequency": 50.0, "bus0": null, "bus1": null, "underground": false, "under_construction": false, "dc": false }, "geometry": { "type": "LineString", "coordinates": [ [ -66.14098, -20.051275 ], [ -65.210247, -21.159084 ] ] } },
{ "type": "Feature", "properties": { "line_id": 1007144354, "tag_type": "line", "country": "BO", "length": 244000.0, "voltage": 230000, "circuits": 3.0, "tag_frequency": 50.0, "bus0": null, "bus1": null, "underground": false, "under_construction": false, "dc": false }, "geometry": { "type": "LineString", "coordinates": [ [ -66.220564, -17.573273 ], [ -67.923726, -16.574612 ] ] } },
{ "type": "Feature", "properties": { "line_id": 2009226556, "tag_type": "line", "country": "BO", "length": 244000.0, "voltage": 230000, "circuits": 3.0, "tag_frequency": 50.0, "bus0": null, "bus1": null, "underground": false, "under_construction": false, "dc": false }, "geometry": { "type": "LineString", "coordinates": [ [ -66.220564, -17.573273 ], [ -67.923726, -16.574612 ] ] } },
{ "type": "Feature", "properties": { "line_id": -1958783896, "tag_type": "line", "country": "BO", "length": 650.0, "voltage": 230000, "circuits": 3.0, "tag_frequency": 50.0, "bus0": null, "bus1": null, "underground": false, "under_construction": false, "dc": false }, "geometry": { "type": "LineString", "coordinates": [ [ -66.220564, -17.573273 ], [ -66.219254, -17.573273 ] ] } },
{ "type": "Feature", "properties": { "line_id": 1872965241, "tag_type": "line", "country": "BO", "length": 300.0, "voltage": 230000, "circuits": 3.0, "tag_frequency": 50.0, "bus0": null, "bus1": null, "underground": false, "under_construction": false, "dc": false }, "geometry": { "type": "LineString", "coordinates": [ [ -66.220564, -17.573273 ], [ -66.219254, -17.573273 ] ] } },
{ "type": "Feature", "properties": { "line_id": -1581250990, "tag_type": "line", "country": "BO", "length": 138000.0, "voltage": 230000, "circuits": 3.0, "tag_frequency": 50.0, "bus0": null, "bus1": null, "underground": false, "under_construction": false, "dc": false }, "geometry": { "type": "LineString", "coordinates": [ [ -64.727985, -21.486837 ], [ -63.561404, -21.693206 ] ] } },
{ "type": "Feature", "properties": { "line_id": 94044364, "tag_type": "line", "country": "BO", "length": 138000.0, "voltage": 230000, "circuits": 3.0, "tag_frequency": 50.0, "bus0": null, "bus1": null, "underground": false, "under_construction": false, "dc": false }, "geometry": { "type": "LineString", "coordinates": [ [ -64.727985, -21.486837 ], [ -63.561404, -21.693206 ] ] } },
{ "type": "Feature", "properties": { "line_id": 346179098, "tag_type": "line", "country": "BO", "length": 141610.0, "voltage": 230000, "circuits": 3.0, "tag_frequency": 50.0, "bus0": null, "bus1": null, "underground": false, "under_construction": false, "dc": false }, "geometry": { "type": "LineString", "coordinates": [ [ -62.64138, -17.060676 ], [ -63.18877, -15.945274 ] ] } },
{ "type": "Feature", "properties": { "line_id": 1118471612, "tag_type": "line", "country": "BO", "length": 141610.0, "voltage": 230000, "circuits": 3.0, "tag_frequency": 50.0, "bus0": null, "bus1": null, "underground": false, "under_construction": false, "dc": false }, "geometry": { "type": "LineString", "coordinates": [ [ -62.64138, -17.060676 ], [ -63.18877, -15.945274 ] ] } },
{ "type": "Feature", "properties": { "line_id": -267795115, "tag_type": "line", "country": "BO", "length": 4600.0, "voltage": 230000, "circuits": 3.0, "tag_frequency": 50.0, "bus0": null, "bus1": null, "underground": false, "under_construction": false, "dc": false }, "geometry": { "type": "LineString", "coordinates": [ [ -66.803164, -20.564192 ], [ -66.766688, -20.570946 ] ] } },
{ "type": "Feature", "properties": { "line_id": -964455789, "tag_type": "line", "country": "BO", "length": 62000.0, "voltage": 230000, "circuits": 3.0, "tag_frequency": 50.0, "bus0": null, "bus1": null, "underground": false, "under_construction": false, "dc": false }, "geometry": { "type": "LineString", "coordinates": [ [ -63.629968, -17.426749 ], [ -63.236644, -17.742589 ] ] } },
{ "type": "Feature", "properties": { "line_id": -1852926576, "tag_type": "line", "country": "BO", "length": 102000.0, "voltage": 230000, "circuits": 3.0, "tag_frequency": 50.0, "bus0": null, "bus1": null, "underground": false, "under_construction": false, "dc": false }, "geometry": { "type": "LineString", "coordinates": [ [ -64.526253, -17.211946 ], [ -63.629968, -17.426749 ] ] } },
{ "type": "Feature", "properties": { "line_id": 1309316397, "tag_type": "line", "country": "BO", "length": 246000.0, "voltage": 230000, "circuits": 3.0, "tag_frequency": 50.0, "bus0": null, "bus1": null, "underground": false, "under_construction": false, "dc": false }, "geometry": { "type": "LineString", "coordinates": [ [ -66.220564, -17.573273 ], [ -65.218687, -19.001312 ] ] } },
{ "type": "Feature", "properties": { "line_id": -925448157, "tag_type": "line", "country": "BO", "length": 177000.0, "voltage": 230000, "circuits": 3.0, "tag_frequency": 50.0, "bus0": null, "bus1": null, "underground": false, "under_construction": false, "dc": false }, "geometry": { "type": "LineString", "coordinates": [ [ -65.218687, -19.001312 ], [ -66.14098, -20.051275 ] ] } },
{ "type": "Feature", "properties": { "line_id": 1302371731, "tag_type": "line", "country": "BO", "length": 91740.0, "voltage": 230000, "circuits": 3.0, "tag_frequency": 50.0, "bus0": null, "bus1": null, "underground": false, "under_construction": false, "dc": false }, "geometry": { "type": "LineString", "coordinates": [ [ -66.14098, -20.051275 ], [ -66.803164, -20.564192 ] ] } },
{ "type": "Feature", "properties": { "line_id": 1351757781, "tag_type": "line", "country": "BO", "length": 75540.0, "voltage": 230000, "circuits": 3.0, "tag_frequency": 50.0, "bus0": null, "bus1": null, "underground": false, "under_construction": false, "dc": false }, "geometry": { "type": "LineString", "coordinates": [ [ -66.803164, -20.564192 ], [ -67.156044, -21.133749 ] ] } },
{ "type": "Feature", "properties": { "line_id": -1786957592, "tag_type": "line", "country": "BO", "length": 5390.0, "voltage": 115000, "circuits": 3.0, "tag_frequency": 50.0, "bus0": null, "bus1": null, "underground": false, "under_construction": false, "dc": false }, "geometry": { "type": "LineString", "coordinates": [ [ -66.114585, -17.380501 ], [ -66.116327, -17.427939 ] ] } },
{ "type": "Feature", "properties": { "line_id": -1704959333, "tag_type": "line", "country": "BO", "length": 5390.0, "voltage": 115000, "circuits": 3.0, "tag_frequency": 50.0, "bus0": null, "bus1": null, "underground": false, "under_construction": false, "dc": false }, "geometry": { "type": "LineString", "coordinates": [ [ -66.114585, -17.380501 ], [ -66.116327, -17.427939 ] ] } },
{ "type": "Feature", "properties": { "line_id": -444590878, "tag_type": "line", "country": "BO", "length": 63890.0, "voltage": 115000, "circuits": 3.0, "tag_frequency": 50.0, "bus0": null, "bus1": null, "underground": false, "under_construction": false, "dc": false }, "geometry": { "type": "LineString", "coordinates": [ [ -67.560632, -15.844503 ], [ -67.834986, -16.28604 ] ] } },
{ "type": "Feature", "properties": { "line_id": -885807357, "tag_type": "line", "country": "BO", "length": 45590.0, "voltage": 115000, "circuits": 3.0, "tag_frequency": 50.0, "bus0": null, "bus1": null, "underground": false, "under_construction": false, "dc": false }, "geometry": { "type": "LineString", "coordinates": [ [ -67.036498, -17.713892 ], [ -67.276237, -17.396421 ] ] } },
{ "type": "Feature", "properties": { "line_id": 1686888444, "tag_type": "line", "country": "BO", "length": 29580.0, "voltage": 115000, "circuits": 3.0, "tag_frequency": 50.0, "bus0": null, "bus1": null, "underground": false, "under_construction": false, "dc": false }, "geometry": { "type": "LineString", "coordinates": [ [ -67.036498, -17.713892 ], [ -67.044731, -17.96955 ] ] } },
{ "type": "Feature", "properties": { "line_id": -1559876706, "tag_type": "line", "country": "BO", "length": 97810.0, "voltage": 115000, "circuits": 3.0, "tag_frequency": 50.0, "bus0": null, "bus1": null, "underground": false, "under_construction": false, "dc": false }, "geometry": { "type": "LineString", "coordinates": [ [ -66.575829, -18.410663 ], [ -65.837719, -18.878811 ] ] } },
{ "type": "Feature", "properties": { "line_id": -1610587687, "tag_type": "line", "country": "BO", "length": 43380.0, "voltage": 115000, "circuits": 3.0, "tag_frequency": 50.0, "bus0": null, "bus1": null, "underground": false, "under_construction": false, "dc": false }, "geometry": { "type": "LineString", "coordinates": [ [ -66.575829, -18.410663 ], [ -66.389803, -18.068259 ] ] } },
{ "type": "Feature", "properties": { "line_id": 1064099230, "tag_type": "line", "country": "BO", "length": 33500.0, "voltage": 115000, "circuits": 3.0, "tag_frequency": 50.0, "bus0": null, "bus1": null, "underground": false, "under_construction": false, "dc": false }, "geometry": { "type": "LineString", "coordinates": [ [ -66.818309, -18.278069 ], [ -66.575829, -18.410663 ] ] } },
{ "type": "Feature", "properties": { "line_id": 1622358979, "tag_type": "line", "country": "BO", "length": 45030.0, "voltage": 115000, "circuits": 3.0, "tag_frequency": 50.0, "bus0": null, "bus1": null, "underground": false, "under_construction": false, "dc": false }, "geometry": { "type": "LineString", "coordinates": [ [ -67.834986, -16.28604 ], [ -68.118223, -16.400539 ] ] } },
{ "type": "Feature", "properties": { "line_id": 95418176, "tag_type": "line", "country": "BO", "length": 38110.0, "voltage": 115000, "circuits": 3.0, "tag_frequency": 50.0, "bus0": null, "bus1": null, "underground": false, "under_construction": false, "dc": false }, "geometry": { "type": "LineString", "coordinates": [ [ -65.948465, -17.205929 ], [ -66.114585, -17.380501 ] ] } },
{ "type": "Feature", "properties": { "line_id": -1658871680, "tag_type": "line", "country": "BO", "length": 6390.0, "voltage": 115000, "circuits": 3.0, "tag_frequency": 50.0, "bus0": null, "bus1": null, "underground": false, "under_construction": false, "dc": false }, "geometry": { "type": "LineString", "coordinates": [ [ -65.948465, -17.205929 ], [ -65.822969, -17.191868 ] ] } },
{ "type": "Feature", "properties": { "line_id": -1016478854, "tag_type": "line", "country": "BO", "length": 19620.0, "voltage": 115000, "circuits": 3.0, "tag_frequency": 50.0, "bus0": null, "bus1": null, "underground": false, "under_construction": false, "dc": false }, "geometry": { "type": "LineString", "coordinates": [ [ -65.707404, -19.483256 ], [ -65.800775, -19.607625 ] ] } },
{ "type": "Feature", "properties": { "line_id": -1495835241, "tag_type": "line", "country": "BO", "length": 74450.0, "voltage": 115000, "circuits": 3.0, "tag_frequency": 50.0, "bus0": null, "bus1": null, "underground": false, "under_construction": false, "dc": false }, "geometry": { "type": "LineString", "coordinates": [ [ -67.977121, -16.041461 ], [ -67.560632, -15.844503 ] ] } },
{ "type": "Feature", "properties": { "line_id": -2011192660, "tag_type": "line", "country": "BO", "length": 6280.0, "voltage": 115000, "circuits": 3.0, "tag_frequency": 50.0, "bus0": null, "bus1": null, "underground": false, "under_construction": false, "dc": false }, "geometry": { "type": "LineString", "coordinates": [ [ -68.18184, -16.565951 ], [ -68.188169, -16.576377 ] ] } },
{ "type": "Feature", "properties": { "line_id": -1705350592, "tag_type": "line", "country": "BO", "length": 7950.0, "voltage": 115000, "circuits": 3.0, "tag_frequency": 50.0, "bus0": null, "bus1": null, "underground": false, "under_construction": false, "dc": false }, "geometry": { "type": "LineString", "coordinates": [ [ -68.18184, -16.565951 ], [ -68.188169, -16.576377 ] ] } },
{ "type": "Feature", "properties": { "line_id": 1631160969, "tag_type": "line", "country": "BO", "length": 84360.0, "voltage": 115000, "circuits": 3.0, "tag_frequency": 50.0, "bus0": null, "bus1": null, "underground": false, "under_construction": false, "dc": false }, "geometry": { "type": "LineString", "coordinates": [ [ -65.837719, -18.878811 ], [ -65.800775, -19.607625 ] ] } },
{ "type": "Feature", "properties": { "line_id": -393847358, "tag_type": "line", "country": "BO", "length": 73210.0, "voltage": 115000, "circuits": 3.0, "tag_frequency": 50.0, "bus0": null, "bus1": null, "underground": false, "under_construction": false, "dc": false }, "geometry": { "type": "LineString", "coordinates": [ [ -65.800775, -19.607625 ], [ -66.14098, -20.051275 ] ] } },
{ "type": "Feature", "properties": { "line_id": -885192936, "tag_type": "line", "country": "BO", "length": 67690.0, "voltage": 115000, "circuits": 3.0, "tag_frequency": 50.0, "bus0": null, "bus1": null, "underground": false, "under_construction": false, "dc": false }, "geometry": { "type": "LineString", "coordinates": [ [ -65.85752, -17.515665 ], [ -65.285781, -17.627887 ] ] } },
{ "type": "Feature", "properties": { "line_id": 2048231543, "tag_type": "line", "country": "BO", "length": 40920.0, "voltage": 115000, "circuits": 3.0, "tag_frequency": 50.0, "bus0": null, "bus1": null, "underground": false, "under_construction": false, "dc": false }, "geometry": { "type": "LineString", "coordinates": [ [ -67.109151, -17.811603 ], [ -67.437159, -17.462282 ] ] } },
{ "type": "Feature", "properties": { "line_id": 321953905, "tag_type": "line", "country": "BO", "length": 40920.0, "voltage": 115000, "circuits": 3.0, "tag_frequency": 50.0, "bus0": null, "bus1": null, "underground": false, "under_construction": false, "dc": false }, "geometry": { "type": "LineString", "coordinates": [ [ -67.109151, -17.811603 ], [ -67.437159, -17.462282 ] ] } },
{ "type": "Feature", "properties": { "line_id": -546895751, "tag_type": "line", "country": "BO", "length": 11140.0, "voltage": 115000, "circuits": 3.0, "tag_frequency": 50.0, "bus0": null, "bus1": null, "underground": false, "under_construction": false, "dc": false }, "geometry": { "type": "LineString", "coordinates": [ [ -64.796088, -14.836302 ], [ -64.892929, -14.853496 ] ] } },
{ "type": "Feature", "properties": { "line_id": 733428179, "tag_type": "line", "country": "BO", "length": 11140.0, "voltage": 115000, "circuits": 3.0, "tag_frequency": 50.0, "bus0": null, "bus1": null, "underground": false, "under_construction": false, "dc": false }, "geometry": { "type": "LineString", "coordinates": [ [ -64.796088, -14.836302 ], [ -64.892929, -14.853496 ] ] } },
{ "type": "Feature", "properties": { "line_id": -2004087020, "tag_type": "line", "country": "BO", "length": 7240.0, "voltage": 115000, "circuits": 3.0, "tag_frequency": 50.0, "bus0": null, "bus1": null, "underground": false, "under_construction": false, "dc": false }, "geometry": { "type": "LineString", "coordinates": [ [ -65.685776, -19.520262 ], [ -65.707404, -19.483256 ] ] } },
{ "type": "Feature", "properties": { "line_id": -1964503845, "tag_type": "line", "country": "BO", "length": 81390.0, "voltage": 115000, "circuits": 3.0, "tag_frequency": 50.0, "bus0": null, "bus1": null, "underground": false, "under_construction": false, "dc": false }, "geometry": { "type": "LineString", "coordinates": [ [ -67.156044, -21.133749 ], [ -67.273941, -20.73013 ] ] } },
{ "type": "Feature", "properties": { "line_id": -413285834, "tag_type": "line", "country": "BO", "length": 104420.0, "voltage": 115000, "circuits": 3.0, "tag_frequency": 50.0, "bus0": null, "bus1": null, "underground": false, "under_construction": false, "dc": false }, "geometry": { "type": "LineString", "coordinates": [ [ -66.14098, -20.051275 ], [ -66.230868, -20.55558 ] ] } },
{ "type": "Feature", "properties": { "line_id": 1594273463, "tag_type": "line", "country": "BO", "length": 14940.0, "voltage": 115000, "circuits": 3.0, "tag_frequency": 50.0, "bus0": null, "bus1": null, "underground": false, "under_construction": false, "dc": false }, "geometry": { "type": "LineString", "coordinates": [ [ -65.980758, -17.384384 ], [ -66.114585, -17.380501 ] ] } },
{ "type": "Feature", "properties": { "line_id": 1208445144, "tag_type": "line", "country": "BO", "length": 24110.0, "voltage": 115000, "circuits": 3.0, "tag_frequency": 50.0, "bus0": null, "bus1": null, "underground": false, "under_construction": false, "dc": false }, "geometry": { "type": "LineString", "coordinates": [ [ -65.980758, -17.384384 ], [ -65.85752, -17.515665 ] ] } },
{ "type": "Feature", "properties": { "line_id": 1872975398, "tag_type": "line", "country": "BO", "length": 31370.0, "voltage": 115000, "circuits": 3.0, "tag_frequency": 50.0, "bus0": null, "bus1": null, "underground": false, "under_construction": false, "dc": false }, "geometry": { "type": "LineString", "coordinates": [ [ -65.822969, -17.191868 ], [ -65.980758, -17.384384 ] ] } },
{ "type": "Feature", "properties": { "line_id": -1083446465, "tag_type": "line", "country": "BO", "length": 8930.0, "voltage": 115000, "circuits": 3.0, "tag_frequency": 50.0, "bus0": null, "bus1": null, "underground": false, "under_construction": false, "dc": false }, "geometry": { "type": "LineString", "coordinates": [ [ -65.822969, -17.191868 ], [ -65.750613, -17.178102 ] ] } },
{ "type": "Feature", "properties": { "line_id": 976170643, "tag_type": "line", "country": "BO", "length": 7760.0, "voltage": 115000, "circuits": 3.0, "tag_frequency": 50.0, "bus0": null, "bus1": null, "underground": false, "under_construction": false, "dc": false }, "geometry": { "type": "LineString", "coordinates": [ [ -68.188169, -16.576377 ], [ -68.169479, -16.691566 ] ] } },
{ "type": "Feature", "properties": { "line_id": -929792848, "tag_type": "line", "country": "BO", "length": 88180.0, "voltage": 115000, "circuits": 3.0, "tag_frequency": 50.0, "bus0": null, "bus1": null, "underground": false, "under_construction": false, "dc": false }, "geometry": { "type": "LineString", "coordinates": [ [ -65.218687, -19.001312 ], [ -65.685776, -19.520262 ] ] } },
{ "type": "Feature", "properties": { "line_id": 1286796265, "tag_type": "line", "country": "BO", "length": 43230.0, "voltage": 115000, "circuits": 3.0, "tag_frequency": 50.0, "bus0": null, "bus1": null, "underground": false, "under_construction": false, "dc": false }, "geometry": { "type": "LineString", "coordinates": [ [ -66.293289, -17.731794 ], [ -66.389803, -18.068259 ] ] } },
{ "type": "Feature", "properties": { "line_id": 1333044421, "tag_type": "line", "country": "BO", "length": 46470.0, "voltage": 115000, "circuits": 3.0, "tag_frequency": 50.0, "bus0": null, "bus1": null, "underground": false, "under_construction": false, "dc": false }, "geometry": { "type": "LineString", "coordinates": [ [ -66.116327, -17.427939 ], [ -66.293289, -17.731794 ] ] } },
{ "type": "Feature", "properties": { "line_id": 1244424213, "tag_type": "line", "country": "BO", "length": 120120.0, "voltage": 115000, "circuits": 3.0, "tag_frequency": 50.0, "bus0": null, "bus1": null, "underground": false, "under_construction": false, "dc": false }, "geometry": { "type": "LineString", "coordinates": [ [ -66.116327, -17.427939 ], [ -67.036498, -17.713892 ] ] } },
{ "type": "Feature", "properties": { "line_id": -251780797, "tag_type": "line", "country": "BO", "length": 43270.0, "voltage": 115000, "circuits": 3.0, "tag_frequency": 50.0, "bus0": null, "bus1": null, "underground": false, "under_construction": false, "dc": false }, "geometry": { "type": "LineString", "coordinates": [ [ -67.044731, -17.96955 ], [ -66.818309, -18.278069 ] ] } },
{ "type": "Feature", "properties": { "line_id": -694231642, "tag_type": "line", "country": "BO", "length": 104500.0, "voltage": 115000, "circuits": 3.0, "tag_frequency": 50.0, "bus0": null, "bus1": null, "underground": false, "under_construction": false, "dc": false }, "geometry": { "type": "LineString", "coordinates": [ [ -67.560632, -15.844503 ], [ -67.022302, -15.143031 ] ] } },
{ "type": "Feature", "properties": { "line_id": 1342245003, "tag_type": "line", "country": "BO", "length": 4850.0, "voltage": 115000, "circuits": 3.0, "tag_frequency": 50.0, "bus0": null, "bus1": null, "underground": false, "under_construction": false, "dc": false }, "geometry": { "type": "LineString", "coordinates": [ [ -66.818309, -18.278069 ], [ -66.836341, -18.281865 ] ] } },
{ "type": "Feature", "properties": { "line_id": -450422875, "tag_type": "line", "country": "BO", "length": 138500.0, "voltage": 115000, "circuits": 3.0, "tag_frequency": 50.0, "bus0": null, "bus1": null, "underground": false, "under_construction": false, "dc": false }, "geometry": { "type": "LineString", "coordinates": [ [ -66.770673, -14.905303 ], [ -65.630407, -15.000701 ] ] } },
{ "type": "Feature", "properties": { "line_id": 2140782312, "tag_type": "line", "country": "BO", "length": 84800.0, "voltage": 115000, "circuits": 3.0, "tag_frequency": 50.0, "bus0": null, "bus1": null, "underground": false, "under_construction": false, "dc": false }, "geometry": { "type": "LineString", "coordinates": [ [ -65.630407, -15.000701 ], [ -64.892929, -14.853496 ] ] } },
{ "type": "Feature", "properties": { "line_id": -947615685, "tag_type": "line", "country": "BO", "length": 40400.0, "voltage": 115000, "circuits": 3.0, "tag_frequency": 50.0, "bus0": null, "bus1": null, "underground": false, "under_construction": false, "dc": false }, "geometry": { "type": "LineString", "coordinates": [ [ -67.022302, -15.143031 ], [ -66.770673, -14.905303 ] ] } },
{ "type": "Feature", "properties": { "line_id": -1008369492, "tag_type": "line", "country": "BO", "length": 118000.0, "voltage": 115000, "circuits": 3.0, "tag_frequency": 50.0, "bus0": null, "bus1": null, "underground": false, "under_construction": false, "dc": false }, "geometry": { "type": "LineString", "coordinates": [ [ -67.022302, -15.143031 ], [ -67.586717, -14.458522 ] ] } },
{ "type": "Feature", "properties": { "line_id": -724931943, "tag_type": "line", "country": "BO", "length": 42850.0, "voltage": 69000, "circuits": 3.0, "tag_frequency": 50.0, "bus0": null, "bus1": null, "underground": false, "under_construction": false, "dc": false }, "geometry": { "type": "LineString", "coordinates": [ [ -65.268434, -19.044647 ], [ -65.473905, -19.346342 ] ] } },
{ "type": "Feature", "properties": { "line_id": -1003233322, "tag_type": "line", "country": "BO", "length": 12010.0, "voltage": 69000, "circuits": 3.0, "tag_frequency": 50.0, "bus0": null, "bus1": null, "underground": false, "under_construction": false, "dc": false }, "geometry": { "type": "LineString", "coordinates": [ [ -65.268434, -19.044647 ], [ -65.218687, -19.001312 ] ] } },
{ "type": "Feature", "properties": { "line_id": -1698692648, "tag_type": "line", "country": "BO", "length": 1570.0, "voltage": 69000, "circuits": 3.0, "tag_frequency": 50.0, "bus0": null, "bus1": null, "underground": false, "under_construction": false, "dc": false }, "geometry": { "type": "LineString", "coordinates": [ [ -66.230868, -20.55558 ], [ -66.224161, -20.944125 ] ] } },
{ "type": "Feature", "properties": { "line_id": -1788193310, "tag_type": "line", "country": "BO", "length": 15990.0, "voltage": 69000, "circuits": 3.0, "tag_frequency": 50.0, "bus0": null, "bus1": null, "underground": false, "under_construction": false, "dc": false }, "geometry": { "type": "LineString", "coordinates": [ [ -65.590107, -19.525471 ], [ -65.721973, -19.551862 ] ] } },
{ "type": "Feature", "properties": { "line_id": 950706355, "tag_type": "line", "country": "BO", "length": 31240.0, "voltage": 69000, "circuits": 3.0, "tag_frequency": 50.0, "bus0": null, "bus1": null, "underground": false, "under_construction": false, "dc": false }, "geometry": { "type": "LineString", "coordinates": [ [ -65.590107, -19.525471 ], [ -65.473905, -19.346342 ] ] } },
{ "type": "Feature", "properties": { "line_id": -1827864536, "tag_type": "line", "country": "BO", "length": 10020.0, "voltage": 69000, "circuits": 3.0, "tag_frequency": 50.0, "bus0": null, "bus1": null, "underground": false, "under_construction": false, "dc": false }, "geometry": { "type": "LineString", "coordinates": [ [ -65.721973, -19.551862 ], [ -65.800775, -19.607625 ] ] } },
{ "type": "Feature", "properties": { "line_id": 793200187, "tag_type": "line", "country": "BO", "length": 7000.0, "voltage": 69000, "circuits": 3.0, "tag_frequency": 50.0, "bus0": null, "bus1": null, "underground": false, "under_construction": false, "dc": false }, "geometry": { "type": "LineString", "coordinates": [ [ -65.685776, -19.520262 ], [ -65.721973, -19.551862 ] ] } },
{ "type": "Feature", "properties": { "line_id": -1326778859, "tag_type": "line", "country": "BO", "length": 27480.0, "voltage": 69000, "circuits": 3.0, "tag_frequency": 50.0, "bus0": null, "bus1": null, "underground": false, "under_construction": false, "dc": false }, "geometry": { "type": "LineString", "coordinates": [ [ -66.224161, -20.944125 ], [ -66.174044, -21.162236 ] ] } },
{ "type": "Feature", "properties": { "line_id": -890252095, "tag_type": "line", "country": "BO", "length": 29490.0, "voltage": 69000, "circuits": 3.0, "tag_frequency": 50.0, "bus0": null, "bus1": null, "underground": false, "under_construction": false, "dc": false }, "geometry": { "type": "LineString", "coordinates": [ [ -66.174044, -21.162236 ], [ -66.101534, -21.408919 ] ] } },
{ "type": "Feature", "properties": { "line_id": 1385764829, "tag_type": "line", "country": "BO", "length": 36560.0, "voltage": 69000, "circuits": 3.0, "tag_frequency": 50.0, "bus0": null, "bus1": null, "underground": false, "under_construction": false, "dc": false }, "geometry": { "type": "LineString", "coordinates": [ [ -65.755479, -21.42692 ], [ -66.101534, -21.408919 ] ] } },
{ "type": "Feature", "properties": { "line_id": 211471178, "tag_type": "line", "country": "BO", "length": 5300.0, "voltage": 69000, "circuits": 3.0, "tag_frequency": 50.0, "bus0": null, "bus1": null, "underground": false, "under_construction": false, "dc": false }, "geometry": { "type": "LineString", "coordinates": [ [ -65.755479, -21.42692 ], [ -65.726282, -21.437582 ] ] } },
{ "type": "Feature", "properties": { "line_id": 52149683, "tag_type": "line", "country": "BO", "length": 77500.0, "voltage": 69000, "circuits": 3.0, "tag_frequency": 50.0, "bus0": null, "bus1": null, "underground": false, "under_construction": false, "dc": false }, "geometry": { "type": "LineString", "coordinates": [ [ -65.726282, -21.437582 ], [ -65.597838, -22.071102 ] ] } },
{ "type": "Feature", "properties": { "line_id": 591181987, "tag_type": "line", "country": "BO", "length": 11000.0, "voltage": 115000, "circuits": 3.0, "tag_frequency": 50.0, "bus0": null, "bus1": null, "underground": false, "under_construction": false, "dc": false }, "geometry": { "type": "LineString", "coordinates": [ [ -67.834986, -16.28604 ], [ -67.764009, -16.400788 ] ] } },
{ "type": "Feature", "properties": { "line_id": 935740859, "tag_type": "line", "country": "BO", "length": 52900.0, "voltage": 115000, "circuits": 3.0, "tag_frequency": 50.0, "bus0": null, "bus1": null, "underground": false, "under_construction": false, "dc": false }, "geometry": { "type": "LineString", "coordinates": [ [ -67.560632, -15.844503 ], [ -67.880091, -15.504007 ] ] } },
{ "type": "Feature", "properties": { "line_id": 604673162, "tag_type": "line", "country": "BO", "length": 138000.0, "voltage": 115000, "circuits": 3.0, "tag_frequency": 50.0, "bus0": null, "bus1": null, "underground": false, "under_construction": false, "dc": false }, "geometry": { "type": "LineString", "coordinates": [ [ -64.610915, -21.717739 ], [ -64.309656, -22.707758 ] ] } },
{ "type": "Feature", "properties": { "line_id": 1187560986, "tag_type": "line", "country": "BO", "length": 44200.0, "voltage": 115000, "circuits": 3.0, "tag_frequency": 50.0, "bus0": null, "bus1": null, "underground": false, "under_construction": false, "dc": false }, "geometry": { "type": "LineString", "coordinates": [ [ -64.728019, -21.486855 ], [ -64.610915, -21.717739 ] ] } },
{ "type": "Feature", "properties": { "line_id": 71312658, "tag_type": "line", "country": "BO", "length": 13200.0, "voltage": 230000, "circuits": 3.0, "tag_frequency": 50.0, "bus0": null, "bus1": null, "underground": false, "under_construction": false, "dc": false }, "geometry": { "type": "LineString", "coordinates": [ [ -63.629968, -17.426749 ], [ -63.541716, -17.389583 ] ] } },
{ "type": "Feature", "properties": { "line_id": 1183053792, "tag_type": "line", "country": "BO", "length": 22900.0, "voltage": 230000, "circuits": 3.0, "tag_frequency": 50.0, "bus0": null, "bus1": null, "underground": false, "under_construction": false, "dc": false }, "geometry": { "type": "LineString", "coordinates": [ [ -68.169479, -16.691566 ], [ -68.359805, -16.646057 ] ] } },
{ "type": "Feature", "properties": { "line_id": 868669670, "tag_type": "line", "country": "BO", "length": 22900.0, "voltage": 230000, "circuits": 3.0, "tag_frequency": 50.0, "bus0": null, "bus1": null, "underground": false, "under_construction": false, "dc": false }, "geometry": { "type": "LineString", "coordinates": [ [ -68.169479, -16.691566 ], [ -68.359805, -16.646057 ] ] } },
{ "type": "Feature", "properties": { "line_id": 433304102, "tag_type": "line", "country": "BO", "length": 120600.0, "voltage": 115000, "circuits": 3.0, "tag_frequency": 50.0, "bus0": null, "bus1": null, "underground": false, "under_construction": false, "dc": false }, "geometry": { "type": "LineString", "coordinates": [ [ -65.218687, -19.001312 ], [ -64.305884, -19.320941 ] ] } },
{ "type": "Feature", "properties": { "line_id": 869106671, "tag_type": "line", "country": "BO", "length": 69200.0, "voltage": 115000, "circuits": 3.0, "tag_frequency": 50.0, "bus0": null, "bus1": null, "underground": false, "under_construction": false, "dc": false }, "geometry": { "type": "LineString", "coordinates": [ [ -64.305884, -19.320941 ], [ -63.941685, -19.791017 ] ] } },
{ "type": "Feature", "properties": { "line_id": 104355897, "tag_type": "line", "country": "BO", "length": 52800.0, "voltage": 115000, "circuits": 3.0, "tag_frequency": 50.0, "bus0": null, "bus1": null, "underground": false, "under_construction": false, "dc": false }, "geometry": { "type": "LineString", "coordinates": [ [ -63.941685, -19.791017 ], [ -63.519685, -19.978729 ] ] } },
{ "type": "Feature", "properties": { "line_id": 1053115078, "tag_type": "line", "country": "BO", "length": 7900.0, "voltage": 230000, "circuits": 3.0, "tag_frequency": 50.0, "bus0": null, "bus1": null, "underground": false, "under_construction": false, "dc": false }, "geometry": { "type": "LineString", "coordinates": [ [ -67.156044, -21.133749 ], [ -67.210676, -21.127015 ] ] } }
]
}
