{
"type": "FeatureCollection",
"crs": { "type": "name", "properties": { "name": "urn:ogc:def:crs:OGC:1.3:CRS84" } },
"features": [
{ "type": "Feature", "properties": { "bus_id": 1, "symbol": "substation", "country": "BO", "tag_area": null, "tag_substation": "transmission", "voltage": 230000, "lon": -68.169479, "lat": -16.691566, "dc": false, "under_construction": false, "station_id": null }, "geometry": { "type": "Point", "coordinates": [ -68.169479, -16.691566 ] } },
{ "type": "Feature", "properties": { "bus_id": 2, "symbol": "substation", "country": "BO", "tag_area": null, "tag_substation": "transmission", "voltage": 115000, "lon": -68.169479, "lat": -16.691566, "dc": false, "under_construction": false, "station_id": null }, "geometry": { "type": "Point", "coordinates": [ -68.169479, -16.691566 ] } },
{ "type": "Feature", "properties": { "bus_id": 3, "symbol": "substation", "country": "BO", "tag_area": null, "tag_substation": "transmission", "voltage": 230000, "lon": -65.750613, "lat": -17.178102, "dc": false, "under_construction": false, "station_id": null }, "geometry": { "type": "Point", "coordinates": [ -65.750613, -17.178102 ] } },
{ "type": "Feature", "properties": { "bus_id": 4, "symbol": "substation", "country": "BO", "tag_area": null, "tag_substation": "transmission", "voltage": 115000, "lon": -65.750613, "lat": -17.178102, "dc": false, "under_construction": false, "station_id": null }, "geometry": { "type": "Point", "coordinates": [ -65.750613, -17.178102 ] } },
{ "type": "Feature", "properties": { "bus_id": 5, "symbol": "substation", "country": "BO", "tag_area": null, "tag_substation": "transmission", "voltage": 500000, "lon": -66.220564, "lat": -17.573273, "dc": false, "under_construction": false, "station_id": null }, "geometry": { "type": "Point", "coordinates": [ -66.220564, -17.573273 ] } },
{ "type": "Feature", "properties": { "bus_id": 6, "symbol": "substation", "country": "BO", "tag_area": null, "tag_substation": "transmission", "voltage": 230000, "lon": -66.220564, "lat": -17.573273, "dc": false, "under_construction": false, "station_id": null }, "geometry": { "type": "Point", "coordinates": [ -66.220564, -17.573273 ] } },
{ "type": "Feature", "properties": { "bus_id": 7, "symbol": "substation", "country": "BO", "tag_area": null, "tag_substation": "transmission", "voltage": 230000, "lon": -67.109151, "lat": -17.811603, "dc": false, "under_construction": false, "station_id": null }, "geometry": { "type": "Point", "coordinates": [ -67.109151, -17.811603 ] } },
{ "type": "Feature", "properties": { "bus_id": 8, "symbol": "substation", "country": "BO", "tag_area": null, "tag_substation": "transmission", "voltage": 115000, "lon": -67.109151, "lat": -17.811603, "dc": false, "under_construction": false, "station_id": null }, "geometry": { "type": "Point", "coordinates": [ -67.109151, -17.811603 ] } },
{ "type": "Feature", "properties": { "bus_id": 9, "symbol": "substation", "country": "BO", "tag_area": null, "tag_substation": "transmission", "voltage": 230000, "lon": -65.755479, "lat": -21.42692, "dc": false, "under_construction": false, "station_id": null }, "geometry": { "type": "Point", "coordinates": [ -65.755479, -21.42692 ] } },
{ "type": "Feature", "properties": { "bus_id": 10, "symbol": "substation", "country": "BO", "tag_area": null, "tag_substation": "transmission", "voltage": 69000, "lon": -65.755479, "lat": -21.42692, "dc": false, "under_construction": false, "station_id": null }, "geometry": { "type": "Point", "coordinates": [ -65.755479, -21.42692 ] } },
{ "type": "Feature", "properties": { "bus_id": 11, "symbol": "substation", "country": "BO", "tag_area": null, "tag_substation": "transmission", "voltage": 230000, "lon": -66.11722, "lat": -17.428451, "dc": false, "under_construction": false, "station_id": null }, "geometry": { "type": "Point", "coordinates": [ -66.11722, -17.428451 ] } },
{ "type": "Feature", "properties": { "bus_id": 12, "symbol": "substation", "country": "BO", "tag_area": null, "tag_substation": "transmission", "voltage": 115000, "lon": -66.11722, "lat": -17.428451, "dc": false, "under_construction": false, "station_id": null }, "geometry": { "type": "Point", "coordinates": [ -66.11722, -17.428451 ] } },
{ "type": "Feature", "properties": { "bus_id": 13, "symbol": "substation", "country": "BO", "tag_area": null, "tag_substation": "transmission", "voltage": 230000, "lon": -66.14098, "lat": -20.051275, "dc": false, "under_construction": false, "station_id": null }, "geometry": { "type": "Point", "coordinates": [ -66.14098, -20.051275 ] } },
{ "type": "Feature", "properties": { "bus_id": 14, "symbol": "substation", "country": "BO", "tag_area": null, "tag_substation": "transmission", "voltage": 115000, "lon": -66.14098, "lat": -20.051275, "dc": false, "under_construction": false, "station_id": null }, "geometry": { "type": "Point", "coordinates": [ -66.14098, -20.051275 ] } },
{ "type": "Feature", "properties": { "bus_id": 15, "symbol": "substation", "country": "BO", "tag_area": null, "tag_substation": "transmission", "voltage": 230000, "lon": -65.218687, "lat": -19.001312, "dc": false, "under_construction": false, "station_id": null }, "geometry": { "type": "Point", "coordinates": [ -65.218687, -19.001312 ] } },
{ "type": "Feature", "properties": { "bus_id": 16, "symbol": "substation", "country": "BO", "tag_area": null, "tag_substation": "transmission", "voltage": 115000, "lon": -65.218687, "lat": -19.001312, "dc": false, "under_construction": false, "station_id": null }, "geometry": { "type": "Point", "coordinates": [ -65.218687, -19.001312 ] } },
{ "type": "Feature", "properties": { "bus_id": 17, "symbol": "substation", "country": "BO", "tag_area": null, "tag_substation": "transmission", "voltage": 69000, "lon": -65.218687, "lat": -19.001312, "dc": false, "under_construction": false, "station_id": null }, "geometry": { "type": "Point", "coordinates": [ -65.218687, -19.001312 ] } },
{ "type": "Feature", "properties": { "bus_id": 18, "symbol": "substation", "country": "BO", "tag_area": null, "tag_substation": "transmission", "voltage": 115000, "lon": -65.800775, "lat": -19.607625, "dc": false, "under_construction": false, "station_id": null }, "geometry": { "type": "Point", "coordinates": [ -65.800775, -19.607625 ] } },
{ "type": "Feature", "properties": { "bus_id": 19, "symbol": "substation", "country": "BO", "tag_area": null, "tag_substation": "transmission", "voltage": 69000, "lon": -65.800775, "lat": -19.607625, "dc": false, "under_construction": false, "station_id": null }, "geometry": { "type": "Point", "coordinates": [ -65.800775, -19.607625 ] } },
{ "type": "Feature", "properties": { "bus_id": 20, "symbol": "substation", "country": "BO", "tag_area": null, "tag_substation": "transmission", "voltage": 230000, "lon": -64.796088, "lat": -14.836302, "dc": false, "under_construction": false, "station_id": null }, "geometry": { "type": "Point", "coordinates": [ -64.796088, -14.836302 ] } },
{ "type": "Feature", "properties": { "bus_id": 21, "symbol": "substation", "country": "BO", "tag_area": null, "tag_substation": "transmission", "voltage": 115000, "lon": -64.796088, "lat": -14.836302, "dc": false, "under_construction": false, "station_id": null }, "geometry": { "type": "Point", "coordinates": [ -64.796088, -14.836302 ] } },
{ "type": "Feature", "properties": { "bus_id": 22, "symbol": "substation", "country": "BO", "tag_area": null, "tag_substation": "transmission", "voltage": 115000, "lon": -65.685776, "lat": -19.520262, "dc": false, "under_construction": false, "station_id": null }, "geometry": { "type": "Point", "coordinates": [ -65.685776, -19.520262 ] } },
{ "type": "Feature", "properties": { "bus_id": 23, "symbol": "substation", "country": "BO", "tag_area": null, "tag_substation": "transmission", "voltage": 69000, "lon": -65.685776, "lat": -19.520262, "dc": false, "under_construction": false, "station_id": null }, "geometry": { "type": "Point", "coordinates": [ -65.685776, -19.520262 ] } },
{ "type": "Feature", "properties": { "bus_id": 24, "symbol": "substation", "country": "BO", "tag_area": null, "tag_substation": "transmission", "voltage": 230000, "lon": -67.156044, "lat": -21.133749, "dc": false, "under_construction": false, "station_id": null }, "geometry": { "type": "Point", "coordinates": [ -67.156044, -21.133749 ] } },
{ "type": "Feature", "properties": { "bus_id": 25, "symbol": "substation", "country": "BO", "tag_area": null, "tag_substation": "transmission", "voltage": 115000, "lon": -67.156044, "lat": -21.133749, "dc": false, "under_construction": false, "station_id": null }, "geometry": { "type": "Point", "coordinates": [ -67.156044, -21.133749 ] } },
{ "type": "Feature", "properties": { "bus_id": 26, "symbol": "substation", "country": "BO", "tag_area": null, "tag_substation": "transmission", "voltage": 230000, "lon": -67.044731, "lat": -17.96955, "dc": false, "under_construction": false, "station_id": null }, "geometry": { "type": "Point", "coordinates": [ -67.044731, -17.96955 ] } },
{ "type": "Feature", "properties": { "bus_id": 27, "symbol": "substation", "country": "BO", "tag_area": null, "tag_substation": "transmission", "voltage": 115000, "lon": -67.044731, "lat": -17.96955, "dc": false, "under_construction": false, "station_id": null }, "geometry": { "type": "Point", "coordinates": [ -67.044731, -17.96955 ] } },
{ "type": "Feature", "properties": { "bus_id": 28, "symbol": "substation", "country": "BO", "tag_area": null, "tag_substation": "transmission", "voltage": 115000, "lon": -66.230868, "lat": -20.55558, "dc": false, "under_construction": false, "station_id": null }, "geometry": { "type": "Point", "coordinates": [ -66.230868, -20.55558 ] } },
{ "type": "Feature", "properties": { "bus_id": 29, "symbol": "substation", "country": "BO", "tag_area": null, "tag_substation": "transmission", "voltage": 69000, "lon": -66.230868, "lat": -20.55558, "dc": false, "under_construction": false, "station_id": null }, "geometry": { "type": "Point", "coordinates": [ -66.230868, -20.55558 ] } },
{ "type": "Feature", "properties": { "bus_id": 30, "symbol": "substation", "country": "BO", "tag_area": null, "tag_substation": "transmission", "voltage": 230000, "lon": -68.118223, "lat": -16.400539, "dc": false, "under_construction": false, "station_id": null }, "geometry": { "type": "Point", "coordinates": [ -68.118223, -16.400539 ] } },
{ "type": "Feature", "properties": { "bus_id": 31, "symbol": "substation", "country": "BO", "tag_area": null, "tag_substation": "transmission", "voltage": 115000, "lon": -68.118223, "lat": -16.400539, "dc": false, "under_construction": false, "station_id": null }, "geometry": { "type": "Point", "coordinates": [ -68.118223, -16.400539 ] } },
{ "type": "Feature", "properties": { "bus_id": 32, "symbol": "substation", "country": "BO", "tag_area": 0.0, "tag_substation": "transmission", "voltage": 500000, "lon": -64.526253, "lat": -17.211946, "dc": false, "under_construction": false, "station_id": null }, "geometry": { "type": "Point", "coordinates": [ -64.526253, -17.211946 ] } },
{ "type": "Feature", "properties": { "bus_id": 33, "symbol": "substation", "country": "BO", "tag_area": 0.0, "tag_substation": "transmission", "voltage": 230000, "lon": -63.282402, "lat": -17.575242, "dc": false, "under_construction": false, "station_id": null }, "geometry": { "type": "Point", "coordinates": [ -63.282402, -17.575242 ] } },
{ "type": "Feature", "properties": { "bus_id": 34, "symbol": "substation", "country": "BO", "tag_area": 0.0, "tag_substation": "transmission", "voltage": 230000, "lon": -63.282402, "lat": -17.575242, "dc": false, "under_construction": false, "station_id": null }, "geometry": { "type": "Point", "coordinates": [ -63.282402, -17.575242 ] } },
{ "type": "Feature", "properties": { "bus_id": 35, "symbol": "substation", "country": "BO", "tag_area": 0.0, "tag_substation": "transmission", "voltage": 230000, "lon": -63.282402, "lat": -17.575242, "dc": false, "under_construction": false, "station_id": null }, "geometry": { "type": "Point", "coordinates": [ -63.282402, -17.575242 ] } },
{ "type": "Feature", "properties": { "bus_id": 36, "symbol": "substation", "country": "BO", "tag_area": 0.0, "tag_substation": "transmission", "voltage": 230000, "lon": -63.217863, "lat": -18.065164, "dc": false, "under_construction": false, "station_id": null }, "geometry": { "type": "Point", "coordinates": [ -63.217863, -18.065164 ] } },
{ "type": "Feature", "properties": { "bus_id": 37, "symbol": "substation", "country": "BO", "tag_area": 0.0, "tag_substation": "transmission", "voltage": 230000, "lon": -64.526253, "lat": -17.211946, "dc": false, "under_construction": false, "station_id": null }, "geometry": { "type": "Point", "coordinates": [ -64.526253, -17.211946 ] } },
{ "type": "Feature", "properties": { "bus_id": 38, "symbol": "substation", "country": "BO", "tag_area": 0.0, "tag_substation": "transmission", "voltage": 230000, "lon": -63.893004, "lat": -17.394199, "dc": false, "under_construction": false, "station_id": null }, "geometry": { "type": "Point", "coordinates": [ -63.893004, -17.394199 ] } },
{ "type": "Feature", "properties": { "bus_id": 39, "symbol": "substation", "country": "BO", "tag_area": 0.0, "tag_substation": "transmission", "voltage": 230000, "lon": -64.526253, "lat": -17.211946, "dc": false, "under_construction": false, "station_id": null }, "geometry": { "type": "Point", "coordinates": [ -64.526253, -17.211946 ] } },
{ "type": "Feature", "properties": { "bus_id": 40, "symbol": "substation", "country": "BO", "tag_area": 0.0, "tag_substation": "transmission", "voltage": 230000, "lon": -64.526253, "lat": -17.211946, "dc": false, "under_construction": false, "station_id": null }, "geometry": { "type": "Point", "coordinates": [ -64.526253, -17.211946 ] } },
{ "type": "Feature", "properties": { "bus_id": 41, "symbol": "substation", "country": "BO", "tag_area": 0.0, "tag_substation": "transmission", "voltage": 230000, "lon": -65.161215, "lat": -16.999072, "dc": false, "under_construction": false, "station_id": null }, "geometry": { "type": "Point", "coordinates": [ -65.161215, -16.999072 ] } },
{ "type": "Feature", "properties": { "bus_id": 42, "symbol": "substation", "country": "BO", "tag_area": 0.0, "tag_substation": "transmission", "voltage": 230000, "lon": -64.516392, "lat": -17.197433, "dc": false, "under_construction": false, "station_id": null }, "geometry": { "type": "Point", "coordinates": [ -64.516392, -17.197433 ] } },
{ "type": "Feature", "properties": { "bus_id": 43, "symbol": "substation", "country": "BO", "tag_area": 0.0, "tag_substation": "transmission", "voltage": 230000, "lon": -64.516392, "lat": -17.197433, "dc": false, "under_construction": false, "station_id": null }, "geometry": { "type": "Point", "coordinates": [ -64.516392, -17.197433 ] } },
{ "type": "Feature", "properties": { "bus_id": 44, "symbol": "substation", "country": "BO", "tag_area": 0.0, "tag_substation": "transmission", "voltage": 230000, "lon": -63.18877, "lat": -15.945274, "dc": false, "under_construction": false, "station_id": null }, "geometry": { "type": "Point", "coordinates": [ -63.18877, -15.945274 ] } },
{ "type": "Feature", "properties": { "bus_id": 45, "symbol": "substation", "country": "BO", "tag_area": 0.0, "tag_substation": "transmission", "voltage": 230000, "lon": -63.18877, "lat": -15.945274, "dc": false, "under_construction": false, "station_id": null }, "geometry": { "type": "Point", "coordinates": [ -63.18877, -15.945274 ] } },
{ "type": "Feature", "properties": { "bus_id": 46, "symbol": "substation", "country": "BO", "tag_area": 0.0, "tag_substation": "transmission", "voltage": 230000, "lon": -65.210247, "lat": -21.159084, "dc": false, "under_construction": false, "station_id": null }, "geometry": { "type": "Point", "coordinates": [ -65.210247, -21.159084 ] } },
{ "type": "Feature", "properties": { "bus_id": 47, "symbol": "substation", "country": "BO", "tag_area": 0.0, "tag_substation": "transmission", "voltage": 230000, "lon": -65.210247, "lat": -21.159084, "dc": false, "under_construction": false, "station_id": null }, "geometry": { "type": "Point", "coordinates": [ -65.210247, -21.159084 ] } },
{ "type": "Feature", "properties": { "bus_id": 48, "symbol": "substation", "country": "BO", "tag_area": 0.0, "tag_substation": "transmission", "voltage": 230000, "lon": -68.169479, "lat": -16.691566, "dc": false, "under_construction": false, "station_id": null }, "geometry": { "type": "Point", "coordinates": [ -68.169479, -16.691566 ] } },
{ "type": "Feature", "properties": { "bus_id": 49, "symbol": "substation", "country": "BO", "tag_area": 0.0, "tag_substation": "transmission", "voltage": 230000, "lon": -65.773168, "lat": -17.156959, "dc": false, "under_construction": false, "station_id": null }, "geometry": { "type": "Point", "coordinates": [ -65.773168, -17.156959 ] } },
{ "type": "Feature", "properties": { "bus_id": 50, "symbol": "substation", "country": "BO", "tag_area": 0.0, "tag_substation": "transmission", "voltage": 230000, "lon": -65.773168, "lat": -17.156959, "dc": false, "under_construction": false, "station_id": null }, "geometry": { "type": "Point", "coordinates": [ -65.773168, -17.156959 ] } },
{ "type": "Feature", "properties": { "bus_id": 51, "symbol": "substation", "country": "BO", "tag_area": 0.0, "tag_substation": "transmission", "voltage": 230000, "lon": -67.923726, "lat": -16.574612, "dc": false, "under_construction": false, "station_id": null }, "geometry": { "type": "Point", "coordinates": [ -67.923726, -16.574612 ] } },
{ "type": "Feature", "properties": { "bus_id": 52, "symbol": "substation", "country": "BO", "tag_area": 0.0, "tag_substation": "transmission", "voltage": 230000, "lon": -65.750613, "lat": -17.178102, "dc": false, "under_construction": false, "station_id": null }, "geometry": { "type": "Point", "coordinates": [ -65.750613, -17.178102 ] } },
{ "type": "Feature", "properties": { "bus_id": 53, "symbol": "substation", "country": "BO", "tag_area": 0.0, "tag_substation": "transmission", "voltage": 230000, "lon": -65.750613, "lat": -17.178102, "dc": false, "under_construction": false, "station_id": null }, "geometry": { "type": "Point", "coordinates": [ -65.750613, -17.178102 ] } },
{ "type": "Feature", "properties": { "bus_id": 54, "symbol": "substation", "country": "BO", "tag_area": 0.0, "tag_substation": "transmission", "voltage": 230000, "lon": -62.85447, "lat": -17.822856, "dc": false, "under_construction": false, "station_id": null }, "geometry": { "type": "Point", "coordinates": [ -62.85447, -17.822856 ] } },
{ "type": "Feature", "properties": { "bus_id": 55, "symbol": "substation", "country": "BO", "tag_area": 0.0, "tag_substation": "transmission", "voltage": 230000, "lon": -62.85447, "lat": -17.822856, "dc": false, "under_construction": false, "station_id": null }, "geometry": { "type": "Point", "coordinates": [ -62.85447, -17.822856 ] } },
{ "type": "Feature", "properties": { "bus_id": 56, "symbol": "substation", "country": "BO", "tag_area": 0.0, "tag_substation": "transmission", "voltage": 230000, "lon": -66.220564, "lat": -17.573273, "dc": false, "under_construction": false, "station_id": null }, "geometry": { "type": "Point", "coordinates": [ -66.220564, -17.573273 ] } },
{ "type": "Feature", "properties": { "bus_id": 57, "symbol": "substation", "country": "BO", "tag_area": 0.0, "tag_substation": "transmission", "voltage": 230000, "lon": -67.109151, "lat": -17.811603, "dc": false, "under_construction": false, "station_id": null }, "geometry": { "type": "Point", "coordinates": [ -67.109151, -17.811603 ] } },
{ "type": "Feature", "properties": { "bus_id": 58, "symbol": "substation", "country": "BO", "tag_area": 0.0, "tag_substation": "transmission", "voltage": 230000, "lon": -65.755479, "lat": -21.42692, "dc": false, "under_construction": false, "station_id": null }, "geometry": { "type": "Point", "coordinates": [ -65.755479, -21.42692 ] } },
{ "type": "Feature", "properties": { "bus_id": 59, "symbol": "substation", "country": "BO", "tag_area": 0.0, "tag_substation": "transmission", "voltage": 230000, "lon": -66.11722, "lat": -17.428451, "dc": false, "under_construction": false, "station_id": null }, "geometry": { "type": "Point", "coordinates": [ -66.11722, -17.428451 ] } },
{ "type": "Feature", "properties": { "bus_id": 60, "symbol": "substation", "country": "BO", "tag_area": 0.0, "tag_substation": "transmission", "voltage": 230000, "lon": -65.442684, "lat": -17.009819, "dc": false, "under_construction": false, "station_id": null }, "geometry": { "type": "Point", "coordinates": [ -65.442684, -17.009819 ] } },
{ "type": "Feature", "properties": { "bus_id": 61, "symbol": "substation", "country": "BO", "tag_area": 0.0, "tag_substation": "transmission", "voltage": 230000, "lon": -63.145837, "lat": -17.533684, "dc": false, "under_construction": false, "station_id": null }, "geometry": { "type": "Point", "coordinates": [ -63.145837, -17.533684 ] } },
{ "type": "Feature", "properties": { "bus_id": 62, "symbol": "substation", "country": "BO", "tag_area": 0.0, "tag_substation": "transmission", "voltage": 230000, "lon": -63.145837, "lat": -17.533684, "dc": false, "under_construction": false, "station_id": null }, "geometry": { "type": "Point", "coordinates": [ -63.145837, -17.533684 ] } },
{ "type": "Feature", "properties": { "bus_id": 63, "symbol": "substation", "country": "BO", "tag_area": 0.0, "tag_substation": "transmission", "voltage": 230000, "lon": -63.145837, "lat": -17.533684, "dc": false, "under_construction": false, "station_id": null }, "geometry": { "type": "Point", "coordinates": [ -63.145837, -17.533684 ] } },
{ "type": "Feature", "properties": { "bus_id": 64, "symbol": "substation", "country": "BO", "tag_area": 0.0, "tag_substation": "transmission", "voltage": 230000, "lon": -63.145837, "lat": -17.533684, "dc": false, "under_construction": false, "station_id": null }, "geometry": { "type": "Point", "coordinates": [ -63.145837, -17.533684 ] } },
{ "type": "Feature", "properties": { "bus_id": 65, "symbol": "substation", "country": "BO", "tag_area": 0.0, "tag_substation": "transmission", "voltage": 230000, "lon": -63.145837, "lat": -17.533684, "dc": false, "under_construction": false, "station_id": null }, "geometry": { "type": "Point", "coordinates": [ -63.145837, -17.533684 ] } },
{ "type": "Feature", "properties": { "bus_id": 66, "symbol": "substation", "country": "BO", "tag_area": 0.0, "tag_substation": "transmission", "voltage": 230000, "lon": -65.210247, "lat": -21.159084, "dc": false, "under_construction": false, "station_id": null }, "geometry": { "type": "Point", "coordinates": [ -65.210247, -21.159084 ] } },
{ "type": "Feature", "properties": { "bus_id": 67, "symbol": "substation", "country": "BO", "tag_area": 0.0, "tag_substation": "transmission", "voltage": 230000, "lon": -67.923726, "lat": -16.574612, "dc": false, "under_construction": false, "station_id": null }, "geometry": { "type": "Point", "coordinates": [ -67.923726, -16.574612 ] } },
{ "type": "Feature", "properties": { "bus_id": 68, "symbol": "substation", "country": "BO", "tag_area": 0.0, "tag_substation": "transmission", "voltage": 230000, "lon": -66.14098, "lat": -20.051275, "dc": false, "under_construction": false, "station_id": null }, "geometry": { "type": "Point", "coordinates": [ -66.14098, -20.051275 ] } },
{ "type": "Feature", "properties": { "bus_id": 69, "symbol": "substation", "country": "BO", "tag_area": 0.0, "tag_substation": "transmission", "voltage": 230000, "lon": -66.220564, "lat": -17.573273, "dc": false, "under_construction": false, "station_id": null }, "geometry": { "type": "Point", "coordinates": [ -66.220564, -17.573273 ] } },
{ "type": "Feature", "properties": { "bus_id": 70, "symbol": "substation", "country": "BO", "tag_area": 0.0, "tag_substation": "transmission", "voltage": 230000, "lon": -66.220564, "lat": -17.573273, "dc": false, "under_construction": false, "station_id": null }, "geometry": { "type": "Point", "coordinates": [ -66.220564, -17.573273 ] } },
{ "type": "Feature", "properties": { "bus_id": 71, "symbol": "substation", "country": "BO", "tag_area": 0.0, "tag_substation": "transmission", "voltage": 230000, "lon": -66.220564, "lat": -17.573273, "dc": false, "under_construction": false, "station_id": null }, "geometry": { "type": "Point", "coordinates": [ -66.220564, -17.573273 ] } },
{ "type": "Feature", "properties": { "bus_id": 72, "symbol": "substation", "country": "BO", "tag_area": 0.0, "tag_substation": "transmission", "voltage": 230000, "lon": -66.220564, "lat": -17.573273, "dc": false, "under_construction": false, "station_id": null }, "geometry": { "type": "Point", "coordinates": [ -66.220564, -17.573273 ] } },
{ "type": "Feature", "properties": { "bus_id": 73, "symbol": "substation", "country": "BO", "tag_area": 0.0, "tag_substation": "transmission", "voltage": 230000, "lon": -64.727985, "lat": -21.486837, "dc": false, "under_construction": false, "station_id": null }, "geometry": { "type": "Point", "coordinates": [ -64.727985, -21.486837 ] } },
{ "type": "Feature", "properties": { "bus_id": 74, "symbol": "substation", "country": "BO", "tag_area": 0.0, "tag_substation": "transmission", "voltage": 230000, "lon": -64.727985, "lat": -21.486837, "dc": false, "under_construction": false, "station_id": null }, "geometry": { "type": "Point", "coordinates": [ -64.727985, -21.486837 ] } },
{ "type": "Feature", "properties": { "bus_id": 75, "symbol": "substation", "country": "BO", "tag_area": 0.0, "tag_substation": "transmission", "voltage": 230000, "lon": -62.64138, "lat": -17.060676, "dc": false, "under_construction": false, "station_id": null }, "geometry": { "type": "Point", "coordinates": [ -62.64138, -17.060676 ] } },
{ "type": "Feature", "properties": { "bus_id": 76, "symbol": "substation", "country": "BO", "tag_area": 0.0, "tag_substation": "transmission", "voltage": 230000, "lon": -62.64138, "lat": -17.060676, "dc": false, "under_construction": false, "station_id": null }, "geometry": { "type": "Point", "coordinates": [ -62.64138, -17.060676 ] } },
{ "type": "Feature", "properties": { "bus_id": 77, "symbol": "substation", "country": "BO", "tag_area": 0.0, "tag_substation": "transmission", "voltage": 230000, "lon": -66.803164, "lat": -20.564192, "dc": false, "under_construction": false, "station_id": null }, "geometry": { "type": "Point", "coordinates": [ -66.803164, -20.564192 ] } },
{ "type": "Feature", "properties": { "bus_id": 78, "symbol": "substation", "country": "BO", "tag_area": 0.0, "tag_substation": "transmission", "voltage": 230000, "lon": -63.629968, "lat": -17.426749, "dc": false, "under_construction": false, "station_id": null }, "geometry": { "type": "Point", "coordinates": [ -63.629968, -17.426749 ] } },
{ "type": "Feature", "properties": { "bus_id": 79, "symbol": "substation", "country": "BO", "tag_area": 0.0, "tag_substation": "transmission", "voltage": 230000, "lon": -64.526253, "lat": -17.211946, "dc": false, "under_construction": false, "station_id": null }, "geometry": { "type": "Point", "coordinates": [ -64.526253, -17.211946 ] } },
{ "type": "Feature", "properties": { "bus_id": 80, "symbol": "substation", "country": "BO", "tag_area": 0.0, "tag_substation": "transmission", "voltage": 230000, "lon": -66.220564, "lat": -17.573273, "dc": false, "under_construction": false, "station_id": null }, "geometry": { "type": "Point", "coordinates": [ -66.220564, -17.573273 ] } },
{ "type": "Feature", "properties": { "bus_id": 81, "symbol": "substation", "country": "BO", "tag_area": 0.0, "tag_substation": "transmission", "voltage": 230000, "lon": -65.218687, "lat": -19.001312, "dc": false, "under_construction": false, "station_id": null }, "geometry": { "type": "Point", "coordinates": [ -65.218687, -19.001312 ] } },
{ "type": "Feature", "properties": { "bus_id": 82, "symbol": "substation", "country": "BO", "tag_area": 0.0, "tag_substation": "transmission", "voltage": 230000, "lon": -66.14098, "lat": -20.051275, "dc": false, "under_construction": false, "station_id": null }, "geometry": { "type": "Point", "coordinates": [ -66.14098, -20.051275 ] } },
{ "type": "Feature", "properties": { "bus_id": 83, "symbol": "substation", "country": "BO", "tag_area": 0.0, "tag_substation": "transmission", "voltage": 230000, "lon": -66.803164, "lat": -20.564192, "dc": false, "under_construction": false, "station_id": null }, "geometry": { "type": "Point", "coordinates": [ -66.803164, -20.564192 ] } },
{ "type": "Feature", "properties": { "bus_id": 84, "symbol": "substation", "country": "BO", "tag_area": 0.0, "tag_substation": "transmission", "voltage": 115000, "lon": -66.114585, "lat": -17.380501, "dc": false, "under_construction": false, "station_id": null }, "geometry": { "type": "Point", "coordinates": [ -66.114585, -17.380501 ] } },
{ "type": "Feature", "properties": { "bus_id": 85, "symbol": "substation", "country": "BO", "tag_area": 0.0, "tag_substation": "transmission", "voltage": 115000, "lon": -66.114585, "lat": -17.380501, "dc": false, "under_construction": false, "station_id": null }, "geometry": { "type": "Point", "coordinates": [ -66.114585, -17.380501 ] } },
{ "type": "Feature", "properties": { "bus_id": 86, "symbol": "substation", "country": "BO", "tag_area": 0.0, "tag_substation": "transmission", "voltage": 115000, "lon": -67.560632, "lat": -15.844503, "dc": false, "under_construction": false, "station_id": null }, "geometry": { "type": "Point", "coordinates": [ -67.560632, -15.844503 ] } },
{ "type": "Feature", "properties": { "bus_id": 87, "symbol": "substation", "country": "BO", "tag_area": 0.0, "tag_substation": "transmission", "voltage": 115000, "lon": -67.036498, "lat": -17.713892, "dc": false, "under_construction": false, "station_id": null }, "geometry": { "type": "Point", "coordinates": [ -67.036498, -17.713892 ] } },
{ "type": "Feature", "properties": { "bus_id": 88, "symbol": "substation", "country": "BO", "tag_area": 0.0, "tag_substation": "transmission", "voltage": 115000, "lon": -67.036498, "lat": -17.713892, "dc": false, "under_construction": false, "station_id": null }, "geometry": { "type": "Point", "coordinates": [ -67.036498, -17.713892 ] } },
{ "type": "Feature", "properties": { "bus_id": 89, "symbol": "substation", "country": "BO", "tag_area": 0.0, "tag_substation": "transmission", "voltage": 115000, "lon": -66.575829, "lat": -18.410663, "dc": false, "under_construction": false, "station_id": null }, "geometry": { "type": "Point", "coordinates": [ -66.575829, -18.410663 ] } },
{ "type": "Feature", "properties": { "bus_id": 90, "symbol": "substation", "country": "BO", "tag_area": 0.0, "tag_substation": "transmission", "voltage": 115000, "lon": -66.575829, "lat": -18.410663, "dc": false, "under_construction": false, "station_id": null }, "geometry": { "type": "Point", "coordinates": [ -66.575829, -18.410663 ] } },
{ "type": "Feature", "properties": { "bus_id": 91, "symbol": "substation", "country": "BO", "tag_area": 0.0, "tag_substation": "transmission", "voltage": 115000, "lon": -66.818309, "lat": -18.278069, "dc": false, "under_construction": false, "station_id": null }, "geometry": { "type": "Point", "coordinates": [ -66.818309, -18.278069 ] } },
{ "type": "Feature", "properties": { "bus_id": 92, "symbol": "substation", "country": "BO", "tag_area": 0.0, "tag_substation": "transmission", "voltage": 115000, "lon": -67.834986, "lat": -16.28604, "dc": false, "under_construction": false, "station_id": null }, "geometry": { "type": "Point", "coordinates": [ -67.834986, -16.28604 ] } },
{ "type": "Feature", "properties": { "bus_id": 93, "symbol": "substation", "country": "BO", "tag_area": 0.0, "tag_substation": "transmission", "voltage": 115000, "lon": -65.948465, "lat": -17.205929, "dc": false, "under_construction": false, "station_id": null }, "geometry": { "type": "Point", "coordinates": [ -65.948465, -17.205929 ] } },
{ "type": "Feature", "properties": { "bus_id": 94, "symbol": "substation", "country": "BO", "tag_area": 0.0, "tag_substation": "transmission", "voltage": 115000, "lon": -65.948465, "lat": -17.205929, "dc": false, "under_construction": false, "station_id": null }, "geometry": { "type": "Point", "coordinates": [ -65.948465, -17.205929 ] } },
{ "type": "Feature", "properties": { "bus_id": 95, "symbol": "substation", "country": "BO", "tag_area": 0.0, "tag_substation": "transmission", "voltage": 115000, "lon": -65.707404, "lat": -19.483256, "dc": false, "under_construction": false, "station_id": null }, "geometry": { "type": "Point", "coordinates": [ -65.707404, -19.483256 ] } },
{ "type": "Feature", "properties": { "bus_id": 96, "symbol": "substation", "country": "BO", "tag_area": 0.0, "tag_substation": "transmission", "voltage": 115000, "lon": -67.977121, "lat": -16.041461, "dc": false, "under_construction": false, "station_id": null }, "geometry": { "type": "Point", "coordinates": [ -67.977121, -16.041461 ] } },
{ "type": "Feature", "properties": { "bus_id": 97, "symbol": "substation", "country": "BO", "tag_area": 0.0, "tag_substation": "transmission", "voltage": 115000, "lon": -68.18184, "lat": -16.565951, "dc": false, "under_construction": false, "station_id": null }, "geometry": { "type": "Point", "coordinates": [ -68.18184, -16.565951 ] } },
{ "type": "Feature", "properties": { "bus_id": 98, "symbol": "substation", "country": "BO", "tag_area": 0.0, "tag_substation": "transmission", "voltage": 115000, "lon": -68.18184, "lat": -16.565951, "dc": false, "under_construction": false, "station_id": null }, "geometry": { "type": "Point", "coordinates": [ -68.18184, -16.565951 ] } },
{ "type": "Feature", "properties": { "bus_id": 99, "symbol": "substation", "country": "BO", "tag_area": 0.0, "tag_substation": "transmission", "voltage": 115000, "lon": -65.837719, "lat": -18.878811, "dc": false, "under_construction": false, "station_id": null }, "geometry": { "type": "Point", "coordinates": [ -65.837719, -18.878811 ] } },
{ "type": "Feature", "properties": { "bus_id": 100, "symbol": "substation", "country": "BO", "tag_area": 0.0, "tag_substation": "transmission", "voltage": 115000, "lon": -65.800775, "lat": -19.607625, "dc": false, "under_construction": false, "station_id": null }, "geometry": { "type": "Point", "coordinates": [ -65.800775, -19.607625 ] } },
{ "type": "Feature", "properties": { "bus_id": 101, "symbol": "substation", "country": "BO", "tag_area": 0.0, "tag_substation": "transmission", "voltage": 115000, "lon": -65.85752, "lat": -17.515665, "dc": false, "under_construction": false, "station_id": null }, "geometry": { "type": "Point", "coordinates": [ -65.85752, -17.515665 ] } },
{ "type": "Feature", "properties": { "bus_id": 102, "symbol": "substation", "country": "BO", "tag_area": 0.0, "tag_substation": "transmission", "voltage": 115000, "lon": -67.109151, "lat": -17.811603, "dc": false, "under_construction": false, "station_id": null }, "geometry": { "type": "Point", "coordinates": [ -67.109151, -17.811603 ] } },
{ "type": "Feature", "properties": { "bus_id": 103, "symbol": "substation", "country": "BO", "tag_area": 0.0, "tag_substation": "transmission", "voltage": 115000, "lon": -67.109151, "lat": -17.811603, "dc": false, "under_construction": false, "station_id": null }, "geometry": { "type": "Point", "coordinates": [ -67.109151, -17.811603 ] } },
{ "type": "Feature", "properties": { "bus_id": 104, "symbol": "substation", "country": "BO", "tag_area": 0.0, "tag_substation": "transmission", "voltage": 115000, "lon": -64.796088, "lat": -14.836302, "dc": false, "under_construction": false, "station_id": null }, "geometry": { "type": "Point", "coordinates": [ -64.796088, -14.836302 ] } },
{ "type": "Feature", "properties": { "bus_id": 105, "symbol": "substation", "country": "BO", "tag_area": 0.0, "tag_substation": "transmission", "voltage": 115000, "lon": -64.796088, "lat": -14.836302, "dc": false, "under_construction": false, "station_id": null }, "geometry": { "type": "Point", "coordinates": [ -64.796088, -14.836302 ] } },
{ "type": "Feature", "properties": { "bus_id": 106, "symbol": "substation", "country": "BO", "tag_area": 0.0, "tag_substation": "transmission", "voltage": 115000, "lon": -65.685776, "lat": -19.520262, "dc": false, "under_construction": false, "station_id": null }, "geometry": { "type": "Point", "coordinates": [ -65.685776, -19.520262 ] } },
{ "type": "Feature", "properties": { "bus_id": 107, "symbol": "substation", "country": "BO", "tag_area": 0.0, "tag_substation": "transmission", "voltage": 115000, "lon": -67.156044, "lat": -21.133749, "dc": false, "under_construction": false, "station_id": null }, "geometry": { "type": "Point", "coordinates": [ -67.156044, -21.133749 ] } },
{ "type": "Feature", "properties": { "bus_id": 108, "symbol": "substation", "country": "BO", "tag_area": 0.0, "tag_substation": "transmission", "voltage": 115000, "lon": -66.14098, "lat": -20.051275, "dc": false, "under_construction": false, "station_id": null }, "geometry": { "type": "Point", "coordinates": [ -66.14098, -20.051275 ] } },
{ "type": "Feature", "properties": { "bus_id": 109, "symbol": "substation", "country": "BO", "tag_area": 0.0, "tag_substation": "transmission", "voltage": 115000, "lon": -65.980758, "lat": -17.384384, "dc": false, "under_construction": false, "station_id": null }, "geometry": { "type": "Point", "coordinates": [ -65.980758, -17.384384 ] } },
{ "type": "Feature", "properties": { "bus_id": 110, "symbol": "substation", "country": "BO", "tag_area": 0.0, "tag_substation": "transmission", "voltage": 115000, "lon": -65.980758, "lat": -17.384384, "dc": false, "under_construction": false, "station_id": null }, "geometry": { "type": "Point", "coordinates": [ -65.980758, -17.384384 ] } },
{ "type": "Feature", "properties": { "bus_id": 111, "symbol": "substation", "country": "BO", "tag_area": 0.0, "tag_substation": "transmission", "voltage": 115000, "lon": -65.822969, "lat": -17.191868, "dc": false, "under_construction": false, "station_id": null }, "geometry": { "type": "Point", "coordinates": [ -65.822969, -17.191868 ] } },
{ "type": "Feature", "properties": { "bus_id": 112, "symbol": "substation", "country": "BO", "tag_area": 0.0, "tag_substation": "transmission", "voltage": 115000, "lon": -65.822969, "lat": -17.191868, "dc": false, "under_construction": false, "station_id": null }, "geometry": { "type": "Point", "coordinates": [ -65.822969, -17.191868 ] } },
{ "type": "Feature", "properties": { "bus_id": 113, "symbol": "substation", "country": "BO", "tag_area": 0.0, "tag_substation": "transmission", "voltage": 115000, "lon": -68.188169, "lat": -16.576377, "dc": false, "under_construction": false, "station_id": null }, "geometry": { "type": "Point", "coordinates": [ -68.188169, -16.576377 ] } },
{ "type": "Feature", "properties": { "bus_id": 114, "symbol": "substation", "country": "BO", "tag_area": 0.0, "tag_substation": "transmission", "voltage": 115000, "lon": -65.218687, "lat": -19.001312, "dc": false, "under_construction": false, "station_id": null }, "geometry": { "type": "Point", "coordinates": [ -65.218687, -19.001312 ] } },
{ "type": "Feature", "properties": { "bus_id": 115, "symbol": "substation", "country": "BO", "tag_area": 0.0, "tag_substation": "transmission", "voltage": 115000, "lon": -66.293289, "lat": -17.731794, "dc": false, "under_construction": false, "station_id": null }, "geometry": { "type": "Point", "coordinates": [ -66.293289, -17.731794 ] } },
{ "type": "Feature", "properties": { "bus_id": 116, "symbol": "substation", "country": "BO", "tag_area": 0.0, "tag_substation": "transmission", "voltage": 115000, "lon": -66.116327, "lat": -17.427939, "dc": false, "under_construction": false, "station_id": null }, "geometry": { "type": "Point", "coordinates": [ -66.116327, -17.427939 ] } },
{ "type": "Feature", "properties": { "bus_id": 117, "symbol": "substation", "country": "BO", "tag_area": 0.0, "tag_substation": "transmission", "voltage": 115000, "lon": -66.116327, "lat": -17.427939, "dc": false, "under_construction": false, "station_id": null }, "geometry": { "type": "Point", "coordinates": [ -66.116327, -17.427939 ] } },
{ "type": "Feature", "properties": { "bus_id": 118, "symbol": "substation", "country": "BO", "tag_area": 0.0, "tag_substation": "transmission", "voltage": 115000, "lon": -67.044731, "lat": -17.96955, "dc": false, "under_construction": false, "station_id": null }, "geometry": { "type": "Point", "coordinates": [ -67.044731, -17.96955 ] } },
{ "type": "Feature", "properties": { "bus_id": 119, "symbol": "substation", "country": "BO", "tag_area": 0.0, "tag_substation": "transmission", "voltage": 115000, "lon": -67.560632, "lat": -15.844503, "dc": false, "under_construction": false, "station_id": null }, "geometry": { "type": "Point", "coordinates": [ -67.560632, -15.844503 ] } },
{ "type": "Feature", "properties": { "bus_id": 120, "symbol": "substation", "country": "BO", "tag_area": 0.0, "tag_substation": "transmission", "voltage": 115000, "lon": -66.818309, "lat": -18.278069, "dc": false, "under_construction": false, "station_id": null }, "geometry": { "type": "Point", "coordinates": [ -66.818309, -18.278069 ] } },
{ "type": "Feature", "properties": { "bus_id": 121, "symbol": "substation", "country": "BO", "tag_area": 0.0, "tag_substation": "transmission", "voltage": 115000, "lon": -66.770673, "lat": -14.905303, "dc": false, "under_construction": false, "station_id": null }, "geometry": { "type": "Point", "coordinates": [ -66.770673, -14.905303 ] } },
{ "type": "Feature", "properties": { "bus_id": 122, "symbol": "substation", "country": "BO", "tag_area": 0.0, "tag_substation": "transmission", "voltage": 115000, "lon": -65.630407, "lat": -15.000701, "dc": false, "under_construction": false, "station_id": null }, "geometry": { "type": "Point", "coordinates": [ -65.630407, -15.000701 ] } },
{ "type": "Feature", "properties": { "bus_id": 123, "symbol": "substation", "country": "BO", "tag_area": 0.0, "tag_substation": "transmission", "voltage": 115000, "lon": -67.022302, "lat": -15.143031, "dc": false, "under_construction": false, "station_id": null }, "geometry": { "type": "Point", "coordinates": [ -67.022302, -15.143031 ] } },
{ "type": "Feature", "properties": { "bus_id": 124, "symbol": "substation", "country": "BO", "tag_area": 0.0, "tag_substation": "transmission", "voltage": 115000, "lon": -67.022302, "lat": -15.143031, "dc": false, "under_construction": false, "station_id": null }, "geometry": { "type": "Point", "coordinates": [ -67.022302, -15.143031 ] } },
{ "type": "Feature", "properties": { "bus_id": 125, "symbol": "substation", "country": "BO", "tag_area": 0.0, "tag_substation": "transmission", "voltage": 69000, "lon": -65.268434, "lat": -19.044647, "dc": false, "under_construction": false, "station_id": null }, "geometry": { "type": "Point", "coordinates": [ -65.268434, -19.044647 ] } },
{ "type": "Feature", "properties": { "bus_id": 126, "symbol": "substation", "country": "BO", "tag_area": 0.0, "tag_substation": "transmission", "voltage": 69000, "lon": -65.268434, "lat": -19.044647, "dc": false, "under_construction": false, "station_id": null }, "geometry": { "type": "Point", "coordinates": [ -65.268434, -19.044647 ] } },
{ "type": "Feature", "properties": { "bus_id": 127, "symbol": "substation", "country": "BO", "tag_area": 0.0, "tag_substation": "transmission", "voltage": 69000, "lon": -66.230868, "lat": -20.55558, "dc": false, "under_construction": false, "station_id": null }, "geometry": { "type": "Point", "coordinates": [ -66.230868, -20.55558 ] } },
{ "type": "Feature", "properties": { "bus_id": 128, "symbol": "substation", "country": "BO", "tag_area": 0.0, "tag_substation": "transmission", "voltage": 69000, "lon": -65.590107, "lat": -19.525471, "dc": false, "under_construction": false, "station_id": null }, "geometry": { "type": "Point", "coordinates": [ -65.590107, -19.525471 ] } },
{ "type": "Feature", "properties": { "bus_id": 129, "symbol": "substation", "country": "BO", "tag_area": 0.0, "tag_substation": "transmission", "voltage": 69000, "lon": -65.590107, "lat": -19.525471, "dc": false, "under_construction": false, "station_id": null }, "geometry": { "type": "Point", "coordinates": [ -65.590107, -19.525471 ] } },
{ "type": "Feature", "properties": { "bus_id": 130, "symbol": "substation", "country": "BO", "tag_area": 0.0, "tag_substation": "transmission", "voltage": 69000, "lon": -65.721973, "lat": -19.551862, "dc": false, "under_construction": false, "station_id": null }, "geometry": { "type": "Point", "coordinates": [ -65.721973, -19.551862 ] } },
{ "type": "Feature", "properties": { "bus_id": 131, "symbol": "substation", "country": "BO", "tag_area": 0.0, "tag_substation": "transmission", "voltage": 69000, "lon": -65.685776, "lat": -19.520262, "dc": false, "under_construction": false, "station_id": null }, "geometry": { "type": "Point", "coordinates": [ -65.685776, -19.520262 ] } },
{ "type": "Feature", "properties": { "bus_id": 132, "symbol": "substation", "country": "BO", "tag_area": 0.0, "tag_substation": "transmission", "voltage": 69000, "lon": -66.224161, "lat": -20.944125, "dc": false, "under_construction": false, "station_id": null }, "geometry": { "type": "Point", "coordinates": [ -66.224161, -20.944125 ] } },
{ "type": "Feature", "properties": { "bus_id": 133, "symbol": "substation", "country": "BO", "tag_area": 0.0, "tag_substation": "transmission", "voltage": 69000, "lon": -66.174044, "lat": -21.162236, "dc": false, "under_construction": false, "station_id": null }, "geometry": { "type": "Point", "coordinates": [ -66.174044, -21.162236 ] } },
{ "type": "Feature", "properties": { "bus_id": 134, "symbol": "substation", "country": "BO", "tag_area": 0.0, "tag_substation": "transmission", "voltage": 69000, "lon": -65.755479, "lat": -21.42692, "dc": false, "under_construction": false, "station_id": null }, "geometry": { "type": "Point", "coordinates": [ -65.755479, -21.42692 ] } },
{ "type": "Feature", "properties": { "bus_id": 135, "symbol": "substation", "country": "BO", "tag_area": 0.0, "tag_substation": "transmission", "voltage": 69000, "lon": -65.755479, "lat": -21.42692, "dc": false, "under_construction": false, "station_id": null }, "geometry": { "type": "Point", "coordinates": [ -65.755479, -21.42692 ] } },
{ "type": "Feature", "properties": { "bus_id": 136, "symbol": "substation", "country": "BO", "tag_area": 0.0, "tag_substation": "transmission", "voltage": 69000, "lon": -65.726282, "lat": -21.437582, "dc": false, "under_construction": false, "station_id": null }, "geometry": { "type": "Point", "coordinates": [ -65.726282, -21.437582 ] } },
{ "type": "Feature", "properties": { "bus_id": 137, "symbol": "substation", "country": "BO", "tag_area": 0.0, "tag_substation": "transmission", "voltage": 115000, "lon": -67.834986, "lat": -16.28604, "dc": false, "under_construction": false, "station_id": null }, "geometry": { "type": "Point", "coordinates": [ -67.834986, -16.28604 ] } },
{ "type": "Feature", "properties": { "bus_id": 138, "symbol": "substation", "country": "BO", "tag_area": 0.0, "tag_substation": "transmission", "voltage": 115000, "lon": -67.560632, "lat": -15.844503, "dc": false, "under_construction": false, "station_id": null }, "geometry": { "type": "Point", "coordinates": [ -67.560632, -15.844503 ] } },
{ "type": "Feature", "properties": { "bus_id": 139, "symbol": "substation", "country": "BO", "tag_area": 0.0, "tag_substation": "transmission", "voltage": 115000, "lon": -64.610915, "lat": -21.717739, "dc": false, "under_construction": false, "station_id": null }, "geometry": { "type": "Point", "coordinates": [ -64.610915, -21.717739 ] } },
{ "type": "Feature", "properties": { "bus_id": 140, "symbol": "substation", "country": "BO", "tag_area": 0.0, "tag_substation": "transmission", "voltage": 115000, "lon": -64.728019, "lat": -21.486855, "dc": false, "under_construction": false, "station_id": null }, "geometry": { "type": "Point", "coordinates": [ -64.728019, -21.486855 ] } },
{ "type": "Feature", "properties": { "bus_id": 141, "symbol": "substation", "country": "BO", "tag_area": 0.0, "tag_substation": "transmission", "voltage": 230000, "lon": -63.629968, "lat": -17.426749, "dc": false, "under_construction": false, "station_id": null }, "geometry": { "type": "Point", "coordinates": [ -63.629968, -17.426749 ] } },
{ "type": "Feature", "properties": { "bus_id": 142, "symbol": "substation", "country": "BO", "tag_area": 0.0, "tag_substation": "transmission", "voltage": 230000, "lon": -68.169479, "lat": -16.691566, "dc": false, "under_construction": false, "station_id": null }, "geometry": { "type": "Point", "coordinates": [ -68.169479, -16.691566 ] } },
{ "type": "Feature", "properties": { "bus_id": 143, "symbol": "substation", "country": "BO", "tag_area": 0.0, "tag_substation": "transmission", "voltage": 230000, "lon": -68.169479, "lat": -16.691566, "dc": false, "under_construction": false, "station_id": null }, "geometry": { "type": "Point", "coordinates": [ -68.169479, -16.691566 ] } },
{ "type": "Feature", "properties": { "bus_id": 144, "symbol": "substation", "country": "BO", "tag_area": 0.0, "tag_substation": "transmission", "voltage": 115000, "lon": -65.218687, "lat": -19.001312, "dc": false, "under_construction": false, "station_id": null }, "geometry": { "type": "Point", "coordinates": [ -65.218687, -19.001312 ] } },
{ "type": "Feature", "properties": { "bus_id": 145, "symbol": "substation", "country": "BO", "tag_area": 0.0, "tag_substation": "transmission", "voltage": 115000, "lon": -64.305884, "lat": -19.320941, "dc": false, "under_construction": false, "station_id": null }, "geometry": { "type": "Point", "coordinates": [ -64.305884, -19.320941 ] } },
{ "type": "Feature", "properties": { "bus_id": 146, "symbol": "substation", "country": "BO", "tag_area": 0.0, "tag_substation": "transmission", "voltage": 115000, "lon": -63.941685, "lat": -19.791017, "dc": false, "under_construction": false, "station_id": null }, "geometry": { "type": "Point", "coordinates": [ -63.941685, -19.791017 ] } },
{ "type": "Feature", "properties": { "bus_id": 147, "symbol": "substation", "country": "BO", "tag_area": 0.0, "tag_substation": "transmission", "voltage": 230000, "lon": -67.156044, "lat": -21.133749, "dc": false, "under_construction": false, "station_id": null }, "geometry": { "type": "Point", "coordinates": [ -67.156044, -21.133749 ] } },
{ "type": "Feature", "properties": { "bus_id": 148, "symbol": "substation", "country": "BO", "tag_area": 0.0, "tag_substation": "transmission", "voltage": 500000, "lon": -66.220564, "lat": -17.573273, "dc": false, "under_construction": false, "station_id": null }, "geometry": { "type": "Point", "coordinates": [ -66.220564, -17.573273 ] } },
{ "type": "Feature", "properties": { "bus_id": 149, "symbol": "substation", "country": "BO", "tag_area": 0.0, "tag_substation": "transmission", "voltage": 230000, "lon": -63.152658, "lat": -17.786777, "dc": false, "under_construction": false, "station_id": null }, "geometry": { "type": "Point", "coordinates": [ -63.152658, -17.786777 ] } },
{ "type": "Feature", "properties": { "bus_id": 150, "symbol": "substation", "country": "BO", "tag_area": 0.0, "tag_substation": "transmission", "voltage": 230000, "lon": -62.64138, "lat": -17.060676, "dc": false, "under_construction": false, "station_id": null }, "geometry": { "type": "Point", "coordinates": [ -62.64138, -17.060676 ] } },
{ "type": "Feature", "properties": { "bus_id": 151, "symbol": "substation", "country": "BO", "tag_area": 0.0, "tag_substation": "transmission", "voltage": 230000, "lon": -62.64138, "lat": -17.060676, "dc": false, "under_construction": false, "station_id": null }, "geometry": { "type": "Point", "coordinates": [ -62.64138, -17.060676 ] } },
{ "type": "Feature", "properties": { "bus_id": 152, "symbol": "substation", "country": "BO", "tag_area": 0.0, "tag_substation": "transmission", "voltage": 230000, "lon": -63.145217, "lat": -18.383435, "dc": false, "under_construction": false, "station_id": null }, "geometry": { "type": "Point", "coordinates": [ -63.145217, -18.383435 ] } },
{ "type": "Feature", "properties": { "bus_id": 153, "symbol": "substation", "country": "BO", "tag_area": 0.0, "tag_substation": "transmission", "voltage": 230000, "lon": -63.893004, "lat": -17.394199, "dc": false, "under_construction": false, "station_id": null }, "geometry": { "type": "Point", "coordinates": [ -63.893004, -17.394199 ] } },
{ "type": "Feature", "properties": { "bus_id": 154, "symbol": "substation", "country": "BO", "tag_area": 0.0, "tag_substation": "transmission", "voltage": 230000, "lon": -63.282402, "lat": -17.575242, "dc": false, "under_construction": false, "station_id": null }, "geometry": { "type": "Point", "coordinates": [ -63.282402, -17.575242 ] } },
{ "type": "Feature", "properties": { "bus_id": 155, "symbol": "substation", "country": "BO", "tag_area": 0.0, "tag_substation": "transmission", "voltage": 230000, "lon": -65.161215, "lat": -16.999072, "dc": false, "under_construction": false, "station_id": null }, "geometry": { "type": "Point", "coordinates": [ -65.161215, -16.999072 ] } },
{ "type": "Feature", "properties": { "bus_id": 156, "symbol": "substation", "country": "BO", "tag_area": 0.0, "tag_substation": "transmission", "voltage": 230000, "lon": -66.220564, "lat": -17.573273, "dc": false, "under_construction": false, "station_id": null }, "geometry": { "type": "Point", "coordinates": [ -66.220564, -17.573273 ] } },
{ "type": "Feature", "properties": { "bus_id": 157, "symbol": "substation", "country": "BO", "tag_area": 0.0, "tag_substation": "transmission", "voltage": 230000, "lon": -65.442655, "lat": -17.009875, "dc": false, "under_construction": false, "station_id": null }, "geometry": { "type": "Point", "coordinates": [ -65.442655, -17.009875 ] } },
{ "type": "Feature", "properties": { "bus_id": 158, "symbol": "substation", "country": "BO", "tag_area": 0.0, "tag_substation": "transmission", "voltage": 230000, "lon": -64.526253, "lat": -17.211946, "dc": false, "under_construction": false, "station_id": null }, "geometry": { "type": "Point", "coordinates": [ -64.526253, -17.211946 ] } },
{ "type": "Feature", "properties": { "bus_id": 159, "symbol": "substation", "country": "BO", "tag_area": 0.0, "tag_substation": "transmission", "voltage": 230000, "lon": -64.526253, "lat": -17.211946, "dc": false, "under_construction": false, "station_id": null }, "geometry": { "type": "Point", "coordinates": [ -64.526253, -17.211946 ] } },
{ "type": "Feature", "properties": { "bus_id": 160, "symbol": "substation", "country": "BO", "tag_area": 0.0, "tag_substation": "transmission", "voltage": 230000, "lon": -64.796088, "lat": -14.836302, "dc": false, "under_construction": false, "station_id": null }, "geometry": { "type": "Point", "coordinates": [ -64.796088, -14.836302 ] } },
{ "type": "Feature", "properties": { "bus_id": 161, "symbol": "substation", "country": "BO", "tag_area": 0.0, "tag_substation": "transmission", "voltage": 230000, "lon": -64.796088, "lat": -14.836302, "dc": false, "under_construction": false, "station_id": null }, "geometry": { "type": "Point", "coordinates": [ -64.796088, -14.836302 ] } },
{ "type": "Feature", "properties": { "bus_id": 162, "symbol": "substation", "country": "BO", "tag_area": 0.0, "tag_substation": "transmission", "voltage": 230000, "lon": -64.727985, "lat": -21.486837, "dc": false, "under_construction": false, "station_id": null }, "geometry": { "type": "Point", "coordinates": [ -64.727985, -21.486837 ] } },
{ "type": "Feature", "properties": { "bus_id": 163, "symbol": "substation", "country": "BO", "tag_area": 0.0, "tag_substation": "transmission", "voltage": 230000, "lon": -65.755479, "lat": -21.42692, "dc": false, "under_construction": false, "station_id": null }, "geometry": { "type": "Point", "coordinates": [ -65.755479, -21.42692 ] } },
{ "type": "Feature", "properties": { "bus_id": 164, "symbol": "substation", "country": "BO", "tag_area": 0.0, "tag_substation": "transmission", "voltage": 230000, "lon": -67.044731, "lat": -17.96955, "dc": false, "under_construction": false, "station_id": null }, "geometry": { "type": "Point", "coordinates": [ -67.044731, -17.96955 ] } },
{ "type": "Feature", "properties": { "bus_id": 165, "symbol": "substation", "country": "BO", "tag_area": 0.0, "tag_substation": "transmission", "voltage": 230000, "lon": -66.220564, "lat": -17.573273, "dc": false, "under_construction": false, "station_id": null }, "geometry": { "type": "Point", "coordinates": [ -66.220564, -17.573273 ] } },
{ "type": "Feature", "properties": { "bus_id": 166, "symbol": "substation", "country": "BO", "tag_area": 0.0, "tag_substation": "transmission", "voltage": 230000, "lon": -66.220564, "lat": -17.573273, "dc": false, "under_construction": false, "station_id": null }, "geometry": { "type": "Point", "coordinates": [ -66.220564, -17.573273 ] } },
{ "type": "Feature", "properties": { "bus_id": 167, "symbol": "substation", "country": "BO", "tag_area": 0.0, "tag_substation": "transmission", "voltage": 230000, "lon": -68.169479, "lat": -16.691566, "dc": false, "under_construction": false, "station_id": null }, "geometry": { "type": "Point", "coordinates": [ -68.169479, -16.691566 ] } },
{ "type": "Feature", "properties": { "bus_id": 168, "symbol": "substation", "country": "BO", "tag_area": 0.0, "tag_substation": "transmission", "voltage": 230000, "lon": -66.11722, "lat": -17.428451, "dc": false, "under_construction": false, "station_id": null }, "geometry": { "type": "Point", "coordinates": [ -66.11722, -17.428451 ] } },
{ "type": "Feature", "properties": { "bus_id": 169, "symbol": "substation", "country": "BO", "tag_area": 0.0, "tag_substation": "transmission", "voltage": 230000, "lon": -65.773168, "lat": -17.156959, "dc": false, "under_construction": false, "station_id": null }, "geometry": { "type": "Point", "coordinates": [ -65.773168, -17.156959 ] } },
{ "type": "Feature", "properties": { "bus_id": 170, "symbol": "substation", "country": "BO", "tag_area": 0.0, "tag_substation": "transmission", "voltage": 230000, "lon": -63.217863, "lat": -18.065164, "dc": false, "under_construction": false, "station_id": null }, "geometry": { "type": "Point", "coordinates": [ -63.217863, -18.065164 ] } },
{ "type": "Feature", "properties": { "bus_id": 171, "symbol": "substation", "country": "BO", "tag_area": 0.0, "tag_substation": "transmission", "voltage": 230000, "lon": -63.217863, "lat": -18.065164, "dc": false, "under_construction": false, "station_id": null }, "geometry": { "type": "Point", "coordinates": [ -63.217863, -18.065164 ] } },
{ "type": "Feature", "properties": { "bus_id": 172, "symbol": "substation", "country": "BO", "tag_area": 0.0, "tag_substation": "transmission", "voltage": 230000, "lon": -67.109151, "lat": -17.811603, "dc": false, "under_construction": false, "station_id": null }, "geometry": { "type": "Point", "coordinates": [ -67.109151, -17.811603 ] } },
{ "type": "Feature", "properties": { "bus_id": 173, "symbol": "substation", "country": "BO", "tag_area": 0.0, "tag_substation": "transmission", "voltage": 230000, "lon": -67.044731, "lat": -17.96955, "dc": false, "under_construction": false, "station_id": null }, "geometry": { "type": "Point", "coordinates": [ -67.044731, -17.96955 ] } },
{ "type": "Feature", "properties": { "bus_id": 174, "symbol": "substation", "country": "BO", "tag_area": 0.0, "tag_substation": "transmission", "voltage": 230000, "lon": -67.156044, "lat": -21.133749, "dc": false, "under_construction": false, "station_id": null }, "geometry": { "type": "Point", "coordinates": [ -67.156044, -21.133749 ] } },
{ "type": "Feature", "properties": { "bus_id": 175, "symbol": "substation", "country": "BO", "tag_area": 0.0, "tag_substation": "transmission", "voltage": 230000, "lon": -66.220564, "lat": -17.573273, "dc": false, "under_construction": false, "station_id": null }, "geometry": { "type": "Point", "coordinates": [ -66.220564, -17.573273 ] } },
{ "type": "Feature", "properties": { "bus_id": 176, "symbol": "substation", "country": "BO", "tag_area": 0.0, "tag_substation": "transmission", "voltage": 230000, "lon": -65.750613, "lat": -17.178102, "dc": false, "under_construction": false, "station_id": null }, "geometry": { "type": "Point", "coordinates": [ -65.750613, -17.178102 ] } },
{ "type": "Feature", "properties": { "bus_id": 177, "symbol": "substation", "country": "BO", "tag_area": 0.0, "tag_substation": "transmission", "voltage": 230000, "lon": -63.282402, "lat": -17.575242, "dc": false, "under_construction": false, "station_id": null }, "geometry": { "type": "Point", "coordinates": [ -63.282402, -17.575242 ] } },
{ "type": "Feature", "properties": { "bus_id": 178, "symbol": "substation", "country": "BO", "tag_area": 0.0, "tag_substation": "transmission", "voltage": 230000, "lon": -63.282402, "lat": -17.575242, "dc": false, "under_construction": false, "station_id": null }, "geometry": { "type": "Point", "coordinates": [ -63.282402, -17.575242 ] } },
{ "type": "Feature", "properties": { "bus_id": 179, "symbol": "substation", "country": "BO", "tag_area": 0.0, "tag_substation": "transmission", "voltage": 230000, "lon": -62.85447, "lat": -17.822856, "dc": false, "under_construction": false, "station_id": null }, "geometry": { "type": "Point", "coordinates": [ -62.85447, -17.822856 ] } },
{ "type": "Feature", "properties": { "bus_id": 180, "symbol": "substation", "country": "BO", "tag_area": 0.0, "tag_substation": "transmission", "voltage": 230000, "lon": -62.85447, "lat": -17.822856, "dc": false, "under_construction": false, "station_id": null }, "geometry": { "type": "Point", "coordinates": [ -62.85447, -17.822856 ] } },
{ "type": "Feature", "properties": { "bus_id": 181, "symbol": "substation", "country": "BO", "tag_area": 0.0, "tag_substation": "transmission", "voltage": 230000, "lon": -63.236644, "lat": -17.742589, "dc": false, "under_construction": false, "station_id": null }, "geometry": { "type": "Point", "coordinates": [ -63.236644, -17.742589 ] } },
{ "type": "Feature", "properties": { "bus_id": 182, "symbol": "substation", "country": "BO", "tag_area": 0.0, "tag_substation": "transmission", "voltage": 230000, "lon": -64.727985, "lat": -21.486837, "dc": false, "under_construction": false, "station_id": null }, "geometry": { "type": "Point", "coordinates": [ -64.727985, -21.486837 ] } },
{ "type": "Feature", "properties": { "bus_id": 183, "symbol": "substation", "country": "BO", "tag_area": 0.0, "tag_substation": "transmission", "voltage": 230000, "lon": -68.118223, "lat": -16.400539, "dc": false, "under_construction": false, "station_id": null }, "geometry": { "type": "Point", "coordinates": [ -68.118223, -16.400539 ] } },
{ "type": "Feature", "properties": { "bus_id": 184, "symbol": "substation", "country": "BO", "tag_area": 0.0, "tag_substation": "transmission", "voltage": 230000, "lon": -65.210247, "lat": -21.159084, "dc": false, "under_construction": false, "station_id": null }, "geometry": { "type": "Point", "coordinates": [ -65.210247, -21.159084 ] } },
{ "type": "Feature", "properties": { "bus_id": 185, "symbol": "substation", "country": "BO", "tag_area": 0.0, "tag_substation": "transmission", "voltage": 230000, "lon": -67.923726, "lat": -16.574612, "dc": false, "under_construction": false, "station_id": null }, "geometry": { "type": "Point", "coordinates": [ -67.923726, -16.574612 ] } },
{ "type": "Feature", "properties": { "bus_id": 186, "symbol": "substation", "country": "BO", "tag_area": 0.0, "tag_substation": "transmission", "voltage": 230000, "lon": -67.923726, "lat": -16.574612, "dc": false, "under_construction": false, "station_id": null }, "geometry": { "type": "Point", "coordinates": [ -67.923726, -16.574612 ] } },
{ "type": "Feature", "properties": { "bus_id": 187, "symbol": "substation", "country": "BO", "tag_area": 0.0, "tag_substation": "transmission", "voltage": 230000, "lon": -66.219254, "lat": -17.573273, "dc": false, "under_construction": false, "station_id": null }, "geometry": { "type": "Point", "coordinates": [ -66.219254, -17.573273 ] } },
{ "type": "Feature", "properties": { "bus_id": 188, "symbol": "substation", "country": "BO", "tag_area": 0.0, "tag_substation": "transmission", "voltage": 230000, "lon": -66.219254, "lat": -17.573273, "dc": false, "under_construction": false, "station_id": null }, "geometry": { "type": "Point", "coordinates": [ -66.219254, -17.573273 ] } },
{ "type": "Feature", "properties": { "bus_id": 189, "symbol": "substation", "country": "BO", "tag_area": 0.0, "tag_substation": "transmission", "voltage": 230000, "lon": -63.561404, "lat": -21.693206, "dc": false, "under_construction": false, "station_id": null }, "geometry": { "type": "Point", "coordinates": [ -63.561404, -21.693206 ] } },
{ "type": "Feature", "properties": { "bus_id": 190, "symbol": "substation", "country": "BO", "tag_area": 0.0, "tag_substation": "transmission", "voltage": 230000, "lon": -63.561404, "lat": -21.693206, "dc": false, "under_construction": false, "station_id": null }, "geometry": { "type": "Point", "coordinates": [ -63.561404, -21.693206 ] } },
{ "type": "Feature", "properties": { "bus_id": 191, "symbol": "substation", "country": "BO", "tag_area": 0.0, "tag_substation": "transmission", "voltage": 230000, "lon": -63.18877, "lat": -15.945274, "dc": false, "under_construction": false, "station_id": null }, "geometry": { "type": "Point", "coordinates": [ -63.18877, -15.945274 ] } },
{ "type": "Feature", "properties": { "bus_id": 192, "symbol": "substation", "country": "BO", "tag_area": 0.0, "tag_substation": "transmission", "voltage": 230000, "lon": -63.18877, "lat": -15.945274, "dc": false, "under_construction": false, "station_id": null }, "geometry": { "type": "Point", "coordinates": [ -63.18877, -15.945274 ] } },
{ "type": "Feature", "properties": { "bus_id": 193, "symbol": "substation", "country": "BO", "tag_area": 0.0, "tag_substation": "transmission", "voltage": 230000, "lon": -66.766688, "lat": -20.570946, "dc": false, "under_construction": false, "station_id": null }, "geometry": { "type": "Point", "coordinates": [ -66.766688, -20.570946 ] } },
{ "type": "Feature", "properties": { "bus_id": 194, "symbol": "substation", "country": "BO", "tag_area": 0.0, "tag_substation": "transmission", "voltage": 230000, "lon": -63.236644, "lat": -17.742589, "dc": false, "under_construction": false, "station_id": null }, "geometry": { "type": "Point", "coordinates": [ -63.236644, -17.742589 ] } },
{ "type": "Feature", "properties": { "bus_id": 195, "symbol": "substation", "country": "BO", "tag_area": 0.0, "tag_substation": "transmission", "voltage": 230000, "lon": -63.629968, "lat": -17.426749, "dc": false, "under_construction": false, "station_id": null }, "geometry": { "type": "Point", "coordinates": [ -63.629968, -17.426749 ] } },
{ "type": "Feature", "properties": { "bus_id": 196, "symbol": "substation", "country": "BO", "tag_area": 0.0, "tag_substation": "transmission", "voltage": 230000, "lon": -65.218687, "lat": -19.001312, "dc": false, "under_construction": false, "station_id": null }, "geometry": { "type": "Point", "coordinates": [ -65.218687, -19.001312 ] } },
{ "type": "Feature", "properties": { "bus_id": 197, "symbol": "substation", "country": "BO", "tag_area": 0.0, "tag_substation": "transmission", "voltage": 230000, "lon": -66.14098, "lat": -20.051275, "dc": false, "under_construction": false, "station_id": null }, "geometry": { "type": "Point", "coordinates": [ -66.14098, -20.051275 ] } },
{ "type": "Feature", "properties": { "bus_id": 198, "symbol": "substation", "country": "BO", "tag_area": 0.0, "tag_substation": "transmission", "voltage": 230000, "lon": -66.803164, "lat": -20.564192, "dc": false, "under_construction": false, "station_id": null }, "geometry": { "type": "Point", "coordinates": [ -66.803164, -20.564192 ] } },
{ "type": "Feature", "properties": { "bus_id": 199, "symbol": "substation", "country": "BO", "tag_area": 0.0, "tag_substation": "transmission", "voltage": 230000, "lon": -67.156044, "lat": -21.133749, "dc": false, "under_construction": false, "station_id": null }, "geometry": { "type": "Point", "coordinates": [ -67.156044, -21.133749 ] } },
{ "type": "Feature", "properties": { "bus_id": 200, "symbol": "substation", "country": "BO", "tag_area": 0.0, "tag_substation": "transmission", "voltage": 115000, "lon": -66.116327, "lat": -17.427939, "dc": false, "under_construction": false, "station_id": null }, "geometry": { "type": "Point", "coordinates": [ -66.116327, -17.427939 ] } },
{ "type": "Feature", "properties": { "bus_id": 201, "symbol": "substation", "country": "BO", "tag_area": 0.0, "tag_substation": "transmission", "voltage": 115000, "lon": -66.116327, "lat": -17.427939, "dc": false, "under_construction": false, "station_id": null }, "geometry": { "type": "Point", "coordinates": [ -66.116327, -17.427939 ] } },
{ "type": "Feature", "properties": { "bus_id": 202, "symbol": "substation", "country": "BO", "tag_area": 0.0, "tag_substation": "transmission", "voltage": 115000, "lon": -67.834986, "lat": -16.28604, "dc": false, "under_construction": false, "station_id": null }, "geometry": { "type": "Point", "coordinates": [ -67.834986, -16.28604 ] } },
{ "type": "Feature", "properties": { "bus_id": 203, "symbol": "substation", "country": "BO", "tag_area": 0.0, "tag_substation": "transmission", "voltage": 115000, "lon": -67.276237, "lat": -17.396421, "dc": false, "under_construction": false, "station_id": null }, "geometry": { "type": "Point", "coordinates": [ -67.276237, -17.396421 ] } },
{ "type": "Feature", "properties": { "bus_id": 204, "symbol": "substation", "country": "BO", "tag_area": 0.0, "tag_substation": "transmission", "voltage": 115000, "lon": -67.044731, "lat": -17.96955, "dc": false, "under_construction": false, "station_id": null }, "geometry": { "type": "Point", "coordinates": [ -67.044731, -17.96955 ] } },
{ "type": "Feature", "properties": { "bus_id": 205, "symbol": "substation", "country": "BO", "tag_area": 0.0, "tag_substation": "transmission", "voltage": 115000, "lon": -65.837719, "lat": -18.878811, "dc": false, "under_construction": false, "station_id": null }, "geometry": { "type": "Point", "coordinates": [ -65.837719, -18.878811 ] } },
{ "type": "Feature", "properties": { "bus_id": 206, "symbol": "substation", "country": "BO", "tag_area": 0.0, "tag_substation": "transmission", "voltage": 115000, "lon": -66.389803, "lat": -18.068259, "dc": false, "under_construction": false, "station_id": null }, "geometry": { "type": "Point", "coordinates": [ -66.389803, -18.068259 ] } },
{ "type": "Feature", "properties": { "bus_id": 207, "symbol": "substation", "country": "BO", "tag_area": 0.0, "tag_substation": "transmission", "voltage": 115000, "lon": -66.575829, "lat": -18.410663, "dc": false, "under_construction": false, "station_id": null }, "geometry": { "type": "Point", "coordinates": [ -66.575829, -18.410663 ] } },
{ "type": "Feature", "properties": { "bus_id": 208, "symbol": "substation", "country": "BO", "tag_area": 0.0, "tag_substation": "transmission", "voltage": 115000, "lon": -68.118223, "lat": -16.400539, "dc": false, "under_construction": false, "station_id": null }, "geometry": { "type": "Point", "coordinates": [ -68.118223, -16.400539 ] } },
{ "type": "Feature", "properties": { "bus_id": 209, "symbol": "substation", "country": "BO", "tag_area": 0.0, "tag_substation": "transmission", "voltage": 115000, "lon": -66.114585, "lat": -17.380501, "dc": false, "under_construction": false, "station_id": null }, "geometry": { "type": "Point", "coordinates": [ -66.114585, -17.380501 ] } },
{ "type": "Feature", "properties": { "bus_id": 210, "symbol": "substation", "country": "BO", "tag_area": 0.0, "tag_substation": "transmission", "voltage": 115000, "lon": -65.822969, "lat": -17.191868, "dc": false, "under_construction": false, "station_id": null }, "geometry": { "type": "Point", "coordinates": [ -65.822969, -17.191868 ] } },
{ "type": "Feature", "properties": { "bus_id": 211, "symbol": "substation", "country": "BO", "tag_area": 0.0, "tag_substation": "transmission", "voltage": 115000, "lon": -65.800775, "lat": -19.607625, "dc": false, "under_construction": false, "station_id": null }, "geometry": { "type": "Point", "coordinates": [ -65.800775, -19.607625 ] } },
{ "type": "Feature", "properties": { "bus_id": 212, "symbol": "substation", "country": "BO", "tag_area": 0.0, "tag_substation": "transmission", "voltage": 115000, "lon": -67.560632, "lat": -15.844503, "dc": false, "under_construction": false, "station_id": null }, "geometry": { "type": "Point", "coordinates": [ -67.560632, -15.844503 ] } },
{ "type": "Feature", "properties": { "bus_id": 213, "symbol": "substation", "country": "BO", "tag_area": 0.0, "tag_substation": "transmission", "voltage": 115000, "lon": -68.188169, "lat": -16.576377, "dc": false, "under_construction": false, "station_id": null }, "geometry": { "type": "Point", "coordinates": [ -68.188169, -16.576377 ] } },
{ "type": "Feature", "properties": { "bus_id": 214, "symbol": "substation", "country": "BO", "tag_area": 0.0, "tag_substation": "transmission", "voltage": 115000, "lon": -68.188169, "lat": -16.576377, "dc": false, "under_construction": false, "station_id": null }, "geometry": { "type": "Point", "coordinates": [ -68.188169, -16.576377 ] } },
{ "type": "Feature", "properties": { "bus_id": 215, "symbol": "substation", "country": "BO", "tag_area": 0.0, "tag_substation": "transmission", "voltage": 115000, "lon": -65.800775, "lat": -19.607625, "dc": false, "under_construction": false, "station_id": null }, "geometry": { "type": "Point", "coordinates": [ -65.800775, -19.607625 ] } },
{ "type": "Feature", "properties": { "bus_id": 216, "symbol": "substation", "country": "BO", "tag_area": 0.0, "tag_substation": "transmission", "voltage": 115000, "lon": -66.14098, "lat": -20.051275, "dc": false, "under_construction": false, "station_id": null }, "geometry": { "type": "Point", "coordinates": [ -66.14098, -20.051275 ] } },
{ "type": "Feature", "properties": { "bus_id": 217, "symbol": "substation", "country": "BO", "tag_area": 0.0, "tag_substation": "transmission", "voltage": 115000, "lon": -65.285781, "lat": -17.627887, "dc": false, "under_construction": false, "station_id": null }, "geometry": { "type": "Point", "coordinates": [ -65.285781, -17.627887 ] } },
{ "type": "Feature", "properties": { "bus_id": 218, "symbol": "substation", "country": "BO", "tag_area": 0.0, "tag_substation": "transmission", "voltage": 115000, "lon": -67.437159, "lat": -17.462282, "dc": false, "under_construction": false, "station_id": null }, "geometry": { "type": "Point", "coordinates": [ -67.437159, -17.462282 ] } },
{ "type": "Feature", "properties": { "bus_id": 219, "symbol": "substation", "country": "BO", "tag_area": 0.0, "tag_substation": "transmission", "voltage": 115000, "lon": -67.437159, "lat": -17.462282, "dc": false, "under_construction": false, "station_id": null }, "geometry": { "type": "Point", "coordinates": [ -67.437159, -17.462282 ] } },
{ "type": "Feature", "properties": { "bus_id": 220, "symbol": "substation", "country": "BO", "tag_area": 0.0, "tag_substation": "transmission", "voltage": 115000, "lon": -64.892929, "lat": -14.853496, "dc": false, "under_construction": false, "station_id": null }, "geometry": { "type": "Point", "coordinates": [ -64.892929, -14.853496 ] } },
{ "type": "Feature", "properties": { "bus_id": 221, "symbol": "substation", "country": "BO", "tag_area": 0.0, "tag_substation": "transmission", "voltage": 115000, "lon": -64.892929, "lat": -14.853496, "dc": false, "under_construction": false, "station_id": null }, "geometry": { "type": "Point", "coordinates": [ -64.892929, -14.853496 ] } },
{ "type": "Feature", "properties": { "bus_id": 222, "symbol": "substation", "country": "BO", "tag_area": 0.0, "tag_substation": "transmission", "voltage": 115000, "lon": -65.707404, "lat": -19.483256, "dc": false, "under_construction": false, "station_id": null }, "geometry": { "type": "Point", "coordinates": [ -65.707404, -19.483256 ] } },
{ "type": "Feature", "properties": { "bus_id": 223, "symbol": "substation", "country": "BO", "tag_area": 0.0, "tag_substation": "transmission", "voltage": 115000, "lon": -67.273941, "lat": -20.73013, "dc": false, "under_construction": false, "station_id": null }, "geometry": { "type": "Point", "coordinates": [ -67.273941, -20.73013 ] } },
{ "type": "Feature", "properties": { "bus_id": 224, "symbol": "substation", "country": "BO", "tag_area": 0.0, "tag_substation": "transmission", "voltage": 115000, "lon": -66.230868, "lat": -20.55558, "dc": false, "under_construction": false, "station_id": null }, "geometry": { "type": "Point", "coordinates": [ -66.230868, -20.55558 ] } },
{ "type": "Feature", "properties": { "bus_id": 225, "symbol": "substation", "country": "BO", "tag_area": 0.0, "tag_substation": "transmission", "voltage": 115000, "lon": -66.114585, "lat": -17.380501, "dc": false, "under_construction": false, "station_id": null }, "geometry": { "type": "Point", "coordinates": [ -66.114585, -17.380501 ] } },
{ "type": "Feature", "properties": { "bus_id": 226, "symbol": "substation", "country": "BO", "tag_area": 0.0, "tag_substation": "transmission", "voltage": 115000, "lon": -65.85752, "lat": -17.515665, "dc": false, "under_construction": false, "station_id": null }, "geometry": { "type": "Point", "coordinates": [ -65.85752, -17.515665 ] } },
{ "type": "Feature", "properties": { "bus_id": 227, "symbol": "substation", "country": "BO", "tag_area": 0.0, "tag_substation": "transmission", "voltage": 115000, "lon": -65.980758, "lat": -17.384384, "dc": false, "under_construction": false, "station_id": null }, "geometry": { "type": "Point", "coordinates": [ -65.980758, -17.384384 ] } },
{ "type": "Feature", "properties": { "bus_id": 228, "symbol": "substation", "country": "BO", "tag_area": 0.0, "tag_substation": "transmission", "voltage": 115000, "lon": -65.750613, "lat": -17.178102, "dc": false, "under_construction": false, "station_id": null }, "geometry": { "type": "Point", "coordinates": [ -65.750613, -17.178102 ] } },
{ "type": "Feature", "properties": { "bus_id": 229, "symbol": "substation", "country": "BO", "tag_area": 0.0, "tag_substation": "transmission", "voltage": 115000, "lon": -68.169479, "lat": -16.691566, "dc": false, "under_construction": false, "station_id": null }, "geometry": { "type": "Point", "coordinates": [ -68.169479, -16.691566 ] } },
{ "type": "Feature", "properties": { "bus_id": 230, "symbol": "substation", "country": "BO", "tag_area": 0.0, "tag_substation": "transmission", "voltage": 115000, "lon": -65.685776, "lat": -19.520262, "dc": false, "under_construction": false, "station_id": null }, "geometry": { "type": "Point", "coordinates": [ -65.685776, -19.520262 ] } },
{ "type": "Feature", "properties": { "bus_id": 231, "symbol": "substation", "country": "BO", "tag_area": 0.0, "tag_substation": "transmission", "voltage": 115000, "lon": -66.389803, "lat": -18.068259, "dc": false, "under_construction": false, "station_id": null }, "geometry": { "type": "Point", "coordinates": [ -66.389803, -18.068259 ] } },
{ "type": "Feature", "properties": { "bus_id": 232, "symbol": "substation", "country": "BO", "tag_area": 0.0, "tag_substation": "transmission", "voltage": 115000, "lon": -66.293289, "lat": -17.731794, "dc": false, "under_construction": false, "station_id": null }, "geometry": { "type": "Point", "coordinates": [ -66.293289, -17.731794 ] } },
{ "type": "Feature", "properties": { "bus_id": 233, "symbol": "substation", "country": "BO", "tag_area": 0.0, "tag_substation": "transmission", "voltage": 115000, "lon": -67.036498, "lat": -17.713892, "dc": false, "under_construction": false, "station_id": null }, "geometry": { "type": "Point", "coordinates": [ -67.036498, -17.713892 ] } },
{ "type": "Feature", "properties": { "bus_id": 234, "symbol": "substation", "country": "BO", "tag_area": 0.0, "tag_substation": "transmission", "voltage": 115000, "lon": -66.818309, "lat": -18.278069, "dc": false, "under_construction": false, "station_id": null }, "geometry": { "type": "Point", "coordinates": [ -66.818309, -18.278069 ] } },
{ "type": "Feature", "properties": { "bus_id": 235, "symbol": "substation", "country": "BO", "tag_area": 0.0, "tag_substation": "transmission", "voltage": 115000, "lon": -67.022302, "lat": -15.143031, "dc": false, "under_construction": false, "station_id": null }, "geometry": { "type": "Point", "coordinates": [ -67.022302, -15.143031 ] } },
{ "type": "Feature", "properties": { "bus_id": 236, "symbol": "substation", "country": "BO", "tag_area": 0.0, "tag_substation": "transmission", "voltage": 115000, "lon": -66.836341, "lat": -18.281865, "dc": false, "under_construction": false, "station_id": null }, "geometry": { "type": "Point", "coordinates": [ -66.836341, -18.281865 ] } },
{ "type": "Feature", "properties": { "bus_id": 237, "symbol": "substation", "country": "BO", "tag_area": 0.0, "tag_substation": "transmission", "voltage": 115000, "lon": -65.630407, "lat": -15.000701, "dc": false, "under_construction": false, "station_id": null }, "geometry": { "type": "Point", "coordinates": [ -65.630407, -15.000701 ] } },
{ "type": "Feature", "properties": { "bus_id": 238, "symbol": "substation", "country": "BO", "tag_area": 0.0, "tag_substation": "transmission", "voltage": 115000, "lon": -64.892929, "lat": -14.853496, "dc": false, "under_construction": false, "station_id": null }, "geometry": { "type": "Point", "coordinates": [ -64.892929, -14.853496 ] } },
{ "type": "Feature", "properties": { "bus_id": 239, "symbol": "substation", "country": "BO", "tag_area": 0.0, "tag_substation": "transmission", "voltage": 115000, "lon": -66.770673, "lat": -14.905303, "dc": false, "under_construction": false, "station_id": null }, "geometry": { "type": "Point", "coordinates": [ -66.770673, -14.905303 ] } },
{ "type": "Feature", "properties": { "bus_id": 240, "symbol": "substation", "country": "BO", "tag_area": 0.0, "tag_substation": "transmission", "voltage": 115000, "lon": -67.586717, "lat": -14.458522, "dc": false, "under_construction": false, "station_id": null }, "geometry": { "type": "Point", "coordinates": [ -67.586717, -14.458522 ] } },
{ "type": "Feature", "properties": { "bus_id": 241, "symbol": "substation", "country": "BO", "tag_area": 0.0, "tag_substation": "transmission", "voltage": 69000, "lon": -65.473905, "lat": -19.346342, "dc": false, "under_construction": false, "station_id": null }, "geometry": { "type": "Point", "coordinates": [ -65.473905, -19.346342 ] } },
{ "type": "Feature", "properties": { "bus_id": 242, "symbol": "substation", "country": "BO", "tag_area": 0.0, "tag_substation": "transmission", "voltage": 69000, "lon": -65.218687, "lat": -19.001312, "dc": false, "under_construction": false, "station_id": null }, "geometry": { "type": "Point", "coordinates": [ -65.218687, -19.001312 ] } },
{ "type": "Feature", "properties": { "bus_id": 243, "symbol": "substation", "country": "BO", "tag_area": 0.0, "tag_substation": "transmission", "voltage": 69000, "lon": -66.224161, "lat": -20.944125, "dc": false, "under_construction": false, "station_id": null }, "geometry": { "type": "Point", "coordinates": [ -66.224161, -20.944125 ] } },
{ "type": "Feature", "properties": { "bus_id": 244, "symbol": "substation", "country": "BO", "tag_area": 0.0, "tag_substation": "transmission", "voltage": 69000, "lon": -65.721973, "lat": -19.551862, "dc": false, "under_construction": false, "station_id": null }, "geometry": { "type": "Point", "coordinates": [ -65.721973, -19.551862 ] } },
{ "type": "Feature", "properties": { "bus_id": 245, "symbol": "substation", "country": "BO", "tag_area": 0.0, "tag_substation": "transmission", "voltage": 69000, "lon": -65.473905, "lat": -19.346342, "dc": false, "under_construction": false, "station_id": null }, "geometry": { "type": "Point", "coordinates": [ -65.473905, -19.346342 ] } },
{ "type": "Feature", "properties": { "bus_id": 246, "symbol": "substation", "country": "BO", "tag_area": 0.0, "tag_substation": "transmission", "voltage": 69000, "lon": -65.800775, "lat": -19.607625, "dc": false, "under_construction": false, "station_id": null }, "geometry": { "type": "Point", "coordinates": [ -65.800775, -19.607625 ] } },
{ "type": "Feature", "properties": { "bus_id": 247, "symbol": "substation", "country": "BO", "tag_area": 0.0, "tag_substation": "transmission", "voltage": 69000, "lon": -65.721973, "lat": -19.551862, "dc": false, "under_construction": false, "station_id": null }, "geometry": { "type": "Point", "coordinates": [ -65.721973, -19.551862 ] } },
{ "type": "Feature", "properties": { "bus_id": 248, "symbol": "substation", "country": "BO", "tag_area": 0.0, "tag_substation": "transmission", "voltage": 69000, "lon": -66.174044, "lat": -21.162236, "dc": false, "under_construction": false, "station_id": null }, "geometry": { "type": "Point", "coordinates": [ -66.174044, -21.162236 ] } },
{ "type": "Feature", "properties": { "bus_id": 249, "symbol": "substation", "country": "BO", "tag_area": 0.0, "tag_substation": "transmission", "voltage": 69000, "lon": -66.101534, "lat": -21.408919, "dc": false, "under_construction": false, "station_id": null }, "geometry": { "type": "Point", "coordinates": [ -66.101534, -21.408919 ] } },
{ "type": "Feature", "properties": { "bus_id": 250, "symbol": "substation", "country": "BO", "tag_area": 0.0, "tag_substation": "transmission", "voltage": 69000, "lon": -66.101534, "lat": -21.408919, "dc": false, "under_construction": false, "station_id": null }, "geometry": { "type": "Point", "coordinates": [ -66.101534, -21.408919 ] } },
{ "type": "Feature", "properties": { "bus_id": 251, "symbol": "substation", "country": "BO", "tag_area": 0.0, "tag_substation": "transmission", "voltage": 69000, "lon": -65.726282, "lat": -21.437582, "dc": false, "under_construction": false, "station_id": null }, "geometry": { "type": "Point", "coordinates": [ -65.726282, -21.437582 ] } },
{ "type": "Feature", "properties": { "bus_id": 252, "symbol": "substation", "country": "BO", "tag_area": 0.0, "tag_substation": "transmission", "voltage": 69000, "lon": -65.597838, "lat": -22.071102, "dc": false, "under_construction": false, "station_id": null }, "geometry": { "type": "Point", "coordinates": [ -65.597838, -22.071102 ] } },
{ "type": "Feature", "properties": { "bus_id": 253, "symbol": "substation", "country": "BO", "tag_area": 0.0, "tag_substation": "transmission", "voltage": 115000, "lon": -67.764009, "lat": -16.400788, "dc": false, "under_construction": false, "station_id": null }, "geometry": { "type": "Point", "coordinates": [ -67.764009, -16.400788 ] } },
{ "type": "Feature", "properties": { "bus_id": 254, "symbol": "substation", "country": "BO", "tag_area": 0.0, "tag_substation": "transmission", "voltage": 115000, "lon": -67.880091, "lat": -15.504007, "dc": false, "under_construction": false, "station_id": null }, "geometry": { "type": "Point", "coordinates": [ -67.880091, -15.504007 ] } },
{ "type": "Feature", "properties": { "bus_id": 255, "symbol": "substation", "country": "BO", "tag_area": 0.0, "tag_substation": "transmission", "voltage": 115000, "lon": -64.309656, "lat": -22.707758, "dc": false, "under_construction": false, "station_id": null }, "geometry": { "type": "Point", "coordinates": [ -64.309656, -22.707758 ] } },
{ "type": "Feature", "properties": { "bus_id": 256, "symbol": "substation", "country": "BO", "tag_area": 0.0, "tag_substation": "transmission", "voltage": 115000, "lon": -64.610915, "lat": -21.717739, "dc": false, "under_construction": false, "station_id": null }, "geometry": { "type": "Point", "coordinates": [ -64.610915, -21.717739 ] } },
{ "type": "Feature", "properties": { "bus_id": 257, "symbol": "substation", "country": "BO", "tag_area": 0.0, "tag_substation": "transmission", "voltage": 230000, "lon": -63.541716, "lat": -17.389583, "dc": false, "under_construction": false, "station_id": null }, "geometry": { "type": "Point", "coordinates": [ -63.541716, -17.389583 ] } },
{ "type": "Feature", "properties": { "bus_id": 258, "symbol": "substation", "country": "BO", "tag_area": 0.0, "tag_substation": "transmission", "voltage": 230000, "lon": -68.359805, "lat": -16.646057, "dc": false, "under_construction": false, "station_id": null }, "geometry": { "type": "Point", "coordinates": [ -68.359805, -16.646057 ] } },
{ "type": "Feature", "properties": { "bus_id": 259, "symbol": "substation", "country": "BO", "tag_area": 0.0, "tag_substation": "transmission", "voltage": 230000, "lon": -68.359805, "lat": -16.646057, "dc": false, "under_construction": false, "station_id": null }, "geometry": { "type": "Point", "coordinates": [ -68.359805, -16.646057 ] } },
{ "type": "Feature", "properties": { "bus_id": 260, "symbol": "substation", "country": "BO", "tag_area": 0.0, "tag_substation": "transmission", "voltage": 115000, "lon": -64.305884, "lat": -19.320941, "dc": false, "under_construction": false, "station_id": null }, "geometry": { "type": "Point", "coordinates": [ -64.305884, -19.320941 ] } },
{ "type": "Feature", "properties": { "bus_id": 261, "symbol": "substation", "country": "BO", "tag_area": 0.0, "tag_substation": "transmission", "voltage": 115000, "lon": -63.941685, "lat": -19.791017, "dc": false, "under_construction": false, "station_id": null }, "geometry": { "type": "Point", "coordinates": [ -63.941685, -19.791017 ] } },
{ "type": "Feature", "properties": { "bus_id": 262, "symbol": "substation", "country": "BO", "tag_area": 0.0, "tag_substation": "transmission", "voltage": 115000, "lon": -63.519685, "lat": -19.978729, "dc": false, "under_construction": false, "station_id": null }, "geometry": { "type": "Point", "coordinates": [ -63.519685, -19.978729 ] } },
{ "type": "Feature", "properties": { "bus_id": 263, "symbol": "substation", "country": "BO", "tag_area": 0.0, "tag_substation": "transmission", "voltage": 230000, "lon": -67.210676, "lat": -21.127015, "dc": false, "under_construction": false, "station_id": null }, "geometry": { "type": "Point", "coordinates": [ -67.210676, -21.127015 ] } }
]
}
