{
"type": "FeatureCollection",
"crs": { "type": "name", "properties": { "name": "urn:ogc:def:crs:OGC:1.3:CRS84" } },
"features": [
{ "type": "Feature", "properties": { "id": 2503270686, "tags.power": "generator", "Type": "Node", "Country": "BO", "Area": null, "name": null, "tags.generator:type": "horizontal_axis", "tags.generator:method": "wind_turbine", "tags.generator:source": "wind", "power_output_MW": 1.0 }, "geometry": { "type": "Point", "coordinates": [ -65.284599399999919, -17.628878400000083 ] } },
{ "type": "Feature", "properties": { "id": 2607448836, "tags.power": "generator", "Type": "Node", "Country": "BO", "Area": null, "name": null, "tags.generator:type": "horizontal_axis", "tags.generator:method": "wind_turbine", "tags.generator:source": "wind", "power_output_MW": 1.0 }, "geometry": { "type": "Point", "coordinates": [ -65.283500300000028, -17.6297865 ] } },
{ "type": "Feature", "properties": { "id": 5112046113, "tags.power": "generator", "Type": "Node", "Country": "BO", "Area": null, "name": null, "tags.generator:type": "horizontal_axis", "tags.generator:method": "wind_turbine", "tags.generator:source": "wind", "power_output_MW": 3.0 }, "geometry": { "type": "Point", "coordinates": [ -65.278620200000063, -17.63537320000005 ] } },
{ "type": "Feature", "properties": { "id": 5112046114, "tags.power": "generator", "Type": "Node", "Country": "BO", "Area": null, "name": null, "tags.generator:type": "horizontal_axis", "tags.generator:method": "wind_turbine", "tags.generator:source": "wind", "power_output_MW": 3.0 }, "geometry": { "type": "Point", "coordinates": [ -65.280361400000061, -17.63567570000005 ] } },
{ "type": "Feature", "properties": { "id": 5112046115, "tags.power": "generator", "Type": "Node", "Country": "BO", "Area": null, "name": null, "tags.generator:type": "horizontal_axis", "tags.generator:method": "wind_turbine", "tags.generator:source": "wind", "power_output_MW": 3.0 }, "geometry": { "type": "Point", "coordinates": [ -65.279333500000064, -17.631718 ] } },
{ "type": "Feature", "properties": { "id": 5112046116, "tags.power": "generator", "Type": "Node", "Country": "BO", "Area": null, "name": null, "tags.generator:type": "horizontal_axis", "tags.generator:method": "wind_turbine", "tags.generator:source": "wind", "power_output_MW": 3.0 }, "geometry": { "type": "Point", "coordinates": [ -65.276844500000067, -17.633746300000048 ] } },
{ "type": "Feature", "properties": { "id": 5112046117, "tags.power": "generator", "Type": "Node", "Country": "BO", "Area": null, "name": null, "tags.generator:type": "horizontal_axis", "tags.generator:method": "wind_turbine", "tags.generator:source": "wind", "power_output_MW": 3.0 }, "geometry": { "type": "Point", "coordinates": [ -65.274634100000071, -17.633465400000048 ] } },
{ "type": "Feature", "properties": { "id": 5112046118, "tags.power": "generator", "Type": "Node", "Country": "BO", "Area": null, "name": null, "tags.generator:type": "horizontal_axis", "tags.generator:method": "wind_turbine", "tags.generator:source": "wind", "power_output_MW": 3.0 }, "geometry": { "type": "Point", "coordinates": [ -65.274927500000075, -17.629775300000048 ] } },
{ "type": "Feature", "properties": { "id": 5123436490, "tags.power": "generator", "Type": "Node", "Country": "BO", "Area": null, "name": "VHE-08", "tags.generator:type": "combined_cycle", "tags.generator:method": "combustion", "tags.generator:source": "gas", "power_output_MW": 10.0 }, "geometry": { "type": "Point", "coordinates": [ -66.116686400000404, -17.430579100000092 ] } },
{ "type": "Feature", "properties": { "id": 5123436491, "tags.power": "generator", "Type": "Node", "Country": "BO", "Area": null, "name": "VHE-07", "tags.generator:type": "combined_cycle", "tags.generator:method": "combustion", "tags.generator:source": "gas", "power_output_MW": 10.0 }, "geometry": { "type": "Point", "coordinates": [ -66.116771800000407, -17.430613300000093 ] } },
{ "type": "Feature", "properties": { "id": 5123436492, "tags.power": "generator", "Type": "Node", "Country": "BO", "Area": null, "name": "VHE-06", "tags.generator:type": "combined_cycle", "tags.generator:method": "combustion", "tags.generator:source": "gas", "power_output_MW": 10.0 }, "geometry": { "type": "Point", "coordinates": [ -66.116857100000402, -17.430656700000092 ] } },
{ "type": "Feature", "properties": { "id": 5123436493, "tags.power": "generator", "Type": "Node", "Country": "BO", "Area": null, "name": "VHE-05", "tags.generator:type": "combined_cycle", "tags.generator:method": "combustion", "tags.generator:source": "gas", "power_output_MW": 10.0 }, "geometry": { "type": "Point", "coordinates": [ -66.116946600000404, -17.430691600000092 ] } },
{ "type": "Feature", "properties": { "id": 5123436494, "tags.power": "generator", "Type": "Node", "Country": "BO", "Area": null, "name": "VHE-01", "tags.generator:type": "combined_cycle", "tags.generator:method": "combustion", "tags.generator:source": "gas", "power_output_MW": 18.0 }, "geometry": { "type": "Point", "coordinates": [ -66.117052100000407, -17.430464500000092 ] } },
{ "type": "Feature", "properties": { "id": 5123436495, "tags.power": "generator", "Type": "Node", "Country": "BO", "Area": null, "name": "VHE-02", "tags.generator:type": "combined_cycle", "tags.generator:method": "combustion", "tags.generator:source": "gas", "power_output_MW": 18.0 }, "geometry": { "type": "Point", "coordinates": [ -66.117135400000407, -17.430301600000092 ] } },
{ "type": "Feature", "properties": { "id": 5123436496, "tags.power": "generator", "Type": "Node", "Country": "BO", "Area": null, "name": "VHE-03", "tags.generator:type": "combined_cycle", "tags.generator:method": "combustion", "tags.generator:source": "gas", "power_output_MW": 18.0 }, "geometry": { "type": "Point", "coordinates": [ -66.117212600000414, -17.430140600000094 ] } },
{ "type": "Feature", "properties": { "id": 5123436497, "tags.power": "generator", "Type": "Node", "Country": "BO", "Area": null, "name": "VHE-04", "tags.generator:type": "combined_cycle", "tags.generator:method": "combustion", "tags.generator:source": "gas", "power_output_MW": 18.0 }, "geometry": { "type": "Point", "coordinates": [ -66.117283800000408, -17.429964100000095 ] } },
{ "type": "Feature", "properties": { "id": 6659224640, "tags.power": "generator", "Type": "Node", "Country": "BO", "Area": null, "name": null, "tags.generator:type": "horizontal_axis", "tags.generator:method": "wind_turbine", "tags.generator:source": "wind", "power_output_MW": 3.0 }, "geometry": { "type": "Point", "coordinates": [ -65.272343599999815, -17.630853799999958 ] } },
{ "type": "Feature", "properties": { "id": 6659224641, "tags.power": "generator", "Type": "Node", "Country": "BO", "Area": null, "name": null, "tags.generator:type": "horizontal_axis", "tags.generator:method": "wind_turbine", "tags.generator:source": "wind", "power_output_MW": 3.0 }, "geometry": { "type": "Point", "coordinates": [ -65.270845999999821, -17.631606 ] } },
{ "type": "Feature", "properties": { "id": 6734018736, "tags.power": "generator", "Type": "Node", "Country": "BO", "Area": null, "name": null, "tags.generator:type": "combined_cycle", "tags.generator:method": "combustion", "tags.generator:source": "gas", "power_output_MW": 60.0 }, "geometry": { "type": "Point", "coordinates": [ -63.559057900000056, -21.6948719 ] } },
{ "type": "Feature", "properties": { "id": 6734018737, "tags.power": "generator", "Type": "Node", "Country": "BO", "Area": null, "name": null, "tags.generator:type": "combined_cycle", "tags.generator:method": "combustion", "tags.generator:source": "gas", "power_output_MW": 60.0 }, "geometry": { "type": "Point", "coordinates": [ -63.559351800000059, -21.6948253 ] } },
{ "type": "Feature", "properties": { "id": 6734018738, "tags.power": "generator", "Type": "Node", "Country": "BO", "Area": null, "name": null, "tags.generator:type": "combined_cycle", "tags.generator:method": "combustion", "tags.generator:source": "gas", "power_output_MW": 60.0 }, "geometry": { "type": "Point", "coordinates": [ -63.559929, -21.6947337 ] } },
{ "type": "Feature", "properties": { "id": 6734018741, "tags.power": "generator", "Type": "Node", "Country": "BO", "Area": null, "name": null, "tags.generator:type": "combined_cycle", "tags.generator:method": "combustion", "tags.generator:source": "gas", "power_output_MW": 60.0 }, "geometry": { "type": "Point", "coordinates": [ -63.560226800000059, -21.6946865 ] } },
{ "type": "Feature", "properties": { "id": 6734018749, "tags.power": "generator", "Type": "Node", "Country": "BO", "Area": null, "name": null, "tags.generator:type": "combined_cycle", "tags.generator:method": "combustion", "tags.generator:source": "gas", "power_output_MW": 60.0 }, "geometry": { "type": "Point", "coordinates": [ -63.561653800000059, -21.6944601 ] } },
{ "type": "Feature", "properties": { "id": 6734018750, "tags.power": "generator", "Type": "Node", "Country": "BO", "Area": null, "name": null, "tags.generator:type": "combined_cycle", "tags.generator:method": "combustion", "tags.generator:source": "gas", "power_output_MW": 60.0 }, "geometry": { "type": "Point", "coordinates": [ -63.561946200000058, -21.6944137 ] } },
{ "type": "Feature", "properties": { "id": 6734018751, "tags.power": "generator", "Type": "Node", "Country": "BO", "Area": null, "name": null, "tags.generator:type": "combined_cycle", "tags.generator:method": "combustion", "tags.generator:source": "gas", "power_output_MW": 60.0 }, "geometry": { "type": "Point", "coordinates": [ -63.562342400000055, -21.6943509 ] } },
{ "type": "Feature", "properties": { "id": 6734018752, "tags.power": "generator", "Type": "Node", "Country": "BO", "Area": null, "name": null, "tags.generator:type": "combined_cycle", "tags.generator:method": "combustion", "tags.generator:source": "gas", "power_output_MW": 60.0 }, "geometry": { "type": "Point", "coordinates": [ -63.562631700000054, -21.694305 ] } },
{ "type": "Feature", "properties": { "id": 6758215228, "tags.power": "generator", "Type": "Node", "Country": "BO", "Area": null, "name": null, "tags.generator:type": "gas_turbine", "tags.generator:method": "thermal", "tags.generator:source": "gas", "power_output_MW": 17.0 }, "geometry": { "type": "Point", "coordinates": [ -68.183349800000201, -16.565066500000043 ] } },
{ "type": "Feature", "properties": { "id": 6758215229, "tags.power": "generator", "Type": "Node", "Country": "BO", "Area": null, "name": null, "tags.generator:type": "gas_turbine", "tags.generator:method": "thermal", "tags.generator:source": "gas", "power_output_MW": 32.0 }, "geometry": { "type": "Point", "coordinates": [ -68.183224200000197, -16.565122600000041 ] } },
{ "type": "Feature", "properties": { "id": 9130444054, "tags.power": "generator", "Type": "Node", "Country": "BO", "Area": null, "name": "Planta Solar Fotovoltáica Yunchará", "tags.generator:type": "solar_photovoltaic_panel", "tags.generator:method": "photovoltaic", "tags.generator:source": "solar", "power_output_MW": 5.0 }, "geometry": { "type": "Point", "coordinates": [ -65.10043670000006, -21.837096499999941 ] } },
{ "type": "Feature", "properties": { "id": 9130609908, "tags.power": "generator", "Type": "Node", "Country": "BO", "Area": null, "name": null, "tags.generator:type": "wind_turbine", "tags.generator:method": "wind_turbine", "tags.generator:source": "wind", "power_output_MW": 3.0 }, "geometry": { "type": "Point", "coordinates": [ -63.1425557, -18.382616 ] } },
{ "type": "Feature", "properties": { "id": 9130609909, "tags.power": "generator", "Type": "Node", "Country": "BO", "Area": null, "name": null, "tags.generator:type": "wind_turbine", "tags.generator:method": "wind_turbine", "tags.generator:source": "wind", "power_output_MW": 3.0 }, "geometry": { "type": "Point", "coordinates": [ -63.1396239, -18.381673 ] } },
{ "type": "Feature", "properties": { "id": 9130609910, "tags.power": "generator", "Type": "Node", "Country": "BO", "Area": null, "name": null, "tags.generator:type": "wind_turbine", "tags.generator:method": "wind_turbine", "tags.generator:source": "wind", "power_output_MW": 3.0 }, "geometry": { "type": "Point", "coordinates": [ -63.1366751, -18.380724499999921 ] } },
{ "type": "Feature", "properties": { "id": 9130609911, "tags.power": "generator", "Type": "Node", "Country": "BO", "Area": null, "name": null, "tags.generator:type": "wind_turbine", "tags.generator:method": "wind_turbine", "tags.generator:source": "wind", "power_output_MW": 3.0 }, "geometry": { "type": "Point", "coordinates": [ -63.13374, -18.379780499999921 ] } },
{ "type": "Feature", "properties": { "id": 9130609912, "tags.power": "generator", "Type": "Node", "Country": "BO", "Area": null, "name": null, "tags.generator:type": "wind_turbine", "tags.generator:method": "wind_turbine", "tags.generator:source": "wind", "power_output_MW": 3.0 }, "geometry": { "type": "Point", "coordinates": [ -63.1307708, -18.37882549999992 ] } },
{ "type": "Feature", "properties": { "id": 9130609913, "tags.power": "generator", "Type": "Node", "Country": "BO", "Area": null, "name": null, "tags.generator:type": "wind_turbine", "tags.generator:method": "wind_turbine", "tags.generator:source": "wind", "power_output_MW": 3.0 }, "geometry": { "type": "Point", "coordinates": [ -63.1274909, -18.37777059999992 ] } },
{ "type": "Feature", "properties": { "id": 9130609914, "tags.power": "generator", "Type": "Node", "Country": "BO", "Area": null, "name": null, "tags.generator:type": "wind_turbine", "tags.generator:method": "wind_turbine", "tags.generator:source": "wind", "power_output_MW": 3.0 }, "geometry": { "type": "Point", "coordinates": [ -63.1243497, -18.376760199999921 ] } },
{ "type": "Feature", "properties": { "id": 9130609915, "tags.power": "generator", "Type": "Node", "Country": "BO", "Area": null, "name": null, "tags.generator:type": "wind_turbine", "tags.generator:method": "wind_turbine", "tags.generator:source": "wind", "power_output_MW": 3.0 }, "geometry": { "type": "Point", "coordinates": [ -63.121462, -18.375831399999921 ] } },
{ "type": "Feature", "properties": { "id": 9130609916, "tags.power": "generator", "Type": "Node", "Country": "BO", "Area": null, "name": null, "tags.generator:type": "wind_turbine", "tags.generator:method": "wind_turbine", "tags.generator:source": "wind", "power_output_MW": 3.0 }, "geometry": { "type": "Point", "coordinates": [ -63.1185032, -18.374879699999919 ] } },
{ "type": "Feature", "properties": { "id": 9130610217, "tags.power": "generator", "Type": "Node", "Country": "BO", "Area": null, "name": null, "tags.generator:type": "wind_turbine", "tags.generator:method": "wind_turbine", "tags.generator:source": "wind", "power_output_MW": 3.0 }, "geometry": { "type": "Point", "coordinates": [ -63.1140407, -18.373444399999919 ] } },
{ "type": "Feature", "properties": { "id": 9130610218, "tags.power": "generator", "Type": "Node", "Country": "BO", "Area": null, "name": null, "tags.generator:type": "wind_turbine", "tags.generator:method": "wind_turbine", "tags.generator:source": "wind", "power_output_MW": 3.0 }, "geometry": { "type": "Point", "coordinates": [ -63.106853599999987, -18.371132599999918 ] } },
{ "type": "Feature", "properties": { "id": 9130610219, "tags.power": "generator", "Type": "Node", "Country": "BO", "Area": null, "name": null, "tags.generator:type": "wind_turbine", "tags.generator:method": "wind_turbine", "tags.generator:source": "wind", "power_output_MW": 3.0 }, "geometry": { "type": "Point", "coordinates": [ -63.103820099999986, -18.370168 ] } },
{ "type": "Feature", "properties": { "id": 9130610222, "tags.power": "generator", "Type": "Node", "Country": "BO", "Area": null, "name": null, "tags.generator:type": "wind_turbine", "tags.generator:method": "wind_turbine", "tags.generator:source": "wind", "power_output_MW": 3.0 }, "geometry": { "type": "Point", "coordinates": [ -63.1118737, -18.372719599999918 ] } },
{ "type": "Feature", "properties": { "id": 9130610223, "tags.power": "generator", "Type": "Node", "Country": "BO", "Area": null, "name": null, "tags.generator:type": "wind_turbine", "tags.generator:method": "wind_turbine", "tags.generator:source": "wind", "power_output_MW": 3.0 }, "geometry": { "type": "Point", "coordinates": [ -63.100336399999989, -18.369016299999917 ] } },
{ "type": "Feature", "properties": { "id": 10790168714, "tags.power": "generator", "Type": "Node", "Country": "BO", "Area": null, "name": null, "tags.generator:type": "horizontal_axis", "tags.generator:method": "wind_turbine", "tags.generator:source": "wind", "power_output_MW": 3.0 }, "geometry": { "type": "Point", "coordinates": [ -62.849781899999911, -17.819955499999935 ] } },
{ "type": "Feature", "properties": { "id": 10790168715, "tags.power": "generator", "Type": "Node", "Country": "BO", "Area": null, "name": null, "tags.generator:type": "horizontal_axis", "tags.generator:method": "wind_turbine", "tags.generator:source": "wind", "power_output_MW": 3.0 }, "geometry": { "type": "Point", "coordinates": [ -62.847875899999913, -17.817998699999936 ] } },
{ "type": "Feature", "properties": { "id": 10790168716, "tags.power": "generator", "Type": "Node", "Country": "BO", "Area": null, "name": null, "tags.generator:type": "horizontal_axis", "tags.generator:method": "wind_turbine", "tags.generator:source": "wind", "power_output_MW": 3.0 }, "geometry": { "type": "Point", "coordinates": [ -62.845350599999911, -17.816767299999935 ] } },
{ "type": "Feature", "properties": { "id": 10790168717, "tags.power": "generator", "Type": "Node", "Country": "BO", "Area": null, "name": null, "tags.generator:type": "horizontal_axis", "tags.generator:method": "wind_turbine", "tags.generator:source": "wind", "power_output_MW": 3.0 }, "geometry": { "type": "Point", "coordinates": [ -62.84267639999991, -17.815912 ] } },
{ "type": "Feature", "properties": { "id": 10790168718, "tags.power": "generator", "Type": "Node", "Country": "BO", "Area": null, "name": null, "tags.generator:type": "horizontal_axis", "tags.generator:method": "wind_turbine", "tags.generator:source": "wind", "power_output_MW": 3.0 }, "geometry": { "type": "Point", "coordinates": [ -62.839994499999911, -17.815072499999932 ] } },
{ "type": "Feature", "properties": { "id": 10790168719, "tags.power": "generator", "Type": "Node", "Country": "BO", "Area": null, "name": null, "tags.generator:type": "horizontal_axis", "tags.generator:method": "wind_turbine", "tags.generator:source": "wind", "power_output_MW": 3.0 }, "geometry": { "type": "Point", "coordinates": [ -62.837302799999911, -17.81422749999993 ] } },
{ "type": "Feature", "properties": { "id": 10790168720, "tags.power": "generator", "Type": "Node", "Country": "BO", "Area": null, "name": null, "tags.generator:type": "horizontal_axis", "tags.generator:method": "wind_turbine", "tags.generator:source": "wind", "power_output_MW": 3.0 }, "geometry": { "type": "Point", "coordinates": [ -62.834611799999912, -17.813383599999931 ] } },
{ "type": "Feature", "properties": { "id": 10790168721, "tags.power": "generator", "Type": "Node", "Country": "BO", "Area": null, "name": null, "tags.generator:type": "horizontal_axis", "tags.generator:method": "wind_turbine", "tags.generator:source": "wind", "power_output_MW": 3.0 }, "geometry": { "type": "Point", "coordinates": [ -62.831944499999913, -17.812543099999932 ] } },
{ "type": "Feature", "properties": { "id": 10790168722, "tags.power": "generator", "Type": "Node", "Country": "BO", "Area": null, "name": null, "tags.generator:type": "horizontal_axis", "tags.generator:method": "wind_turbine", "tags.generator:source": "wind", "power_output_MW": 3.0 }, "geometry": { "type": "Point", "coordinates": [ -62.829804099999912, -17.810778399999933 ] } },
{ "type": "Feature", "properties": { "id": 10790168723, "tags.power": "generator", "Type": "Node", "Country": "BO", "Area": null, "name": null, "tags.generator:type": "horizontal_axis", "tags.generator:method": "wind_turbine", "tags.generator:source": "wind", "power_output_MW": 3.0 }, "geometry": { "type": "Point", "coordinates": [ -62.827804899999911, -17.808870899999931 ] } },
{ "type": "Feature", "properties": { "id": 10790168724, "tags.power": "generator", "Type": "Node", "Country": "BO", "Area": null, "name": null, "tags.generator:type": "horizontal_axis", "tags.generator:method": "wind_turbine", "tags.generator:source": "wind", "power_output_MW": 3.0 }, "geometry": { "type": "Point", "coordinates": [ -62.825795299999911, -17.806968399999931 ] } },
{ "type": "Feature", "properties": { "id": 208259012, "tags.power": "generator", "Type": "Way", "Country": "BO", "Area": 1420.0, "name": null, "tags.generator:type": null, "tags.generator:method": "water-storage", "tags.generator:source": "hydro", "power_output_MW": 54.0 }, "geometry": { "type": "Point", "coordinates": [ -65.875705955269396, -17.212191615575936 ] } }
]
}
