{
"type": "FeatureCollection",
"features": [
{ "type": "Feature", "properties": { "name": "BO" }, "geometry": { "type": "Polygon", "coordinates": [ [ [ -64.062584700999935, -22.238517198999944 ], [ -64.116694689999974, -22.407062691999897 ], [ -64.142601850999938, -22.411743409999929 ], [ -64.161816537999925, -22.467337081999915 ], [ -64.183227540999894, -22.473188143999892 ], [ -64.216314543999829, -22.543473682999888 ], [ -64.239764966999985, -22.555447313999935 ], [ -64.238894443999982, -22.620555555999942 ], [ -64.264546356999972, -22.649983952999833 ], [ -64.24220454999994, -22.665349460999948 ], [ -64.271144444999948, -22.70828888799997 ], [ -64.264069444999848, -22.7408472219999 ], [ -64.2835, -22.75205 ], [ -64.265116666999972, -22.764077776999898 ], [ -64.315747327999986, -22.882762321999962 ], [ -64.314772329999983, -22.867059541999936 ], [ -64.33975843199994, -22.86392065299998 ], [ -64.326808437999944, -22.836453982999956 ], [ -64.342200100999889, -22.806570645999841 ], [ -64.341654550999976, -22.74934040799991 ], [ -64.361182754999959, -22.72431753199993 ], [ -64.403045259999942, -22.719408485999907 ], [ -64.394443225999908, -22.68806303599996 ], [ -64.442299614999968, -22.637966154999958 ], [ -64.423937285999898, -22.635331588999918 ], [ -64.431764869999881, -22.581397206999952 ], [ -64.410134000999903, -22.563053698999909 ], [ -64.412867761999905, -22.538200227999937 ], [ -64.482954190999976, -22.480504215999929 ], [ -64.474793393999903, -22.46895786399989 ], [ -64.492079066999906, -22.436560554999971 ], [ -64.525103326999954, -22.441235091999943 ], [ -64.512886595999987, -22.415645667999968 ], [ -64.566762646999962, -22.368012581999892 ], [ -64.563574045999985, -22.325903869999877 ], [ -64.536553620999939, -22.285640229999899 ], [ -64.59726944099998, -22.242788040999983 ], [ -64.61714098799996, -22.205135589999827 ], [ -64.65094894899994, -22.189740042999972 ], [ -64.736868630999879, -22.194174262999979 ], [ -64.861790144999929, -22.122381364999967 ], [ -64.923964987999966, -22.121124125999927 ], [ -64.994308610999894, -22.084047427999963 ], [ -65.484819444999971, -22.095549999999889 ], [ -65.574919443999988, -22.075536110999963 ], [ -65.58936452699993, -22.098696141999881 ], [ -65.748023517999911, -22.109241403999874 ], [ -65.80484239499998, -22.075250016999917 ], [ -65.924797951999949, -21.933550018999938 ], [ -66.04818961899997, -21.919016685999907 ], [ -66.043289619999939, -21.87193890799989 ], [ -66.076309063999929, -21.834975019999945 ], [ -66.221479780999857, -21.781371169999943 ], [ -66.242833738999934, -21.793656720999934 ], [ -66.235352230999979, -21.850752329999978 ], [ -66.274816099999896, -21.944097418999888 ], [ -66.289493981999954, -22.086983558999975 ], [ -66.32048896699996, -22.084377869999855 ], [ -66.332025680999891, -22.118827559999886 ], [ -66.356983333999892, -22.132155555999873 ], [ -66.623177777999956, -22.197380555999871 ], [ -66.638263888999973, -22.225486110999896 ], [ -66.68625, -22.20953888899993 ], [ -66.739288888999965, -22.238458332999983 ], [ -66.782475, -22.438075 ], [ -66.928566665999824, -22.492227776999982 ], [ -66.972955554999942, -22.540658332999953 ], [ -67.027275, -22.540883333999886 ], [ -67.014083332999917, -22.654813888999968 ], [ -67.127772222999965, -22.722113888999957 ], [ -67.180510489999847, -22.813974857999881 ], [ -67.587988567999901, -22.906568378999964 ], [ -67.799028868999983, -22.881160662999946 ], [ -67.832542815999943, -22.850436775999981 ], [ -67.883150133999891, -22.834448019999911 ], [ -67.889187333999985, -22.702344722999896 ], [ -67.869118728999979, -22.691416540999967 ], [ -67.877957525999875, -22.666102530999979 ], [ -67.853363444999957, -22.557292015999963 ], [ -67.892610275999971, -22.499137764999887 ], [ -67.898634251999965, -22.423937587999944 ], [ -67.951381519999927, -22.330442540999968 ], [ -67.922515021999914, -22.252540550999925 ], [ -67.955189268999959, -22.177825351999957 ], [ -67.939203194999948, -22.108562325999969 ], [ -67.965161462999959, -22.054142719999902 ], [ -68.007411147999903, -22.039504122999915 ], [ -68.071955603999925, -21.980158827999958 ], [ -68.059873589999881, -21.777901547999932 ], [ -68.18056474499997, -21.604072322999912 ], [ -68.178367053999921, -21.303541829999972 ], [ -68.295057316999987, -21.097819129999834 ], [ -68.415715013999943, -20.941426366999963 ], [ -68.503471959999956, -20.942901085999949 ], [ -68.569135483999901, -20.894528408999975 ], [ -68.541059406999977, -20.801376149999953 ], [ -68.551567699999907, -20.728147053999919 ], [ -68.532124756999963, -20.722890451999945 ], [ -68.501613740999858, -20.66884585299988 ], [ -68.43932243699993, -20.644052831999943 ], [ -68.448676266999939, -20.624158192999914 ], [ -68.570930356999895, -20.575554538999938 ], [ -68.738742091999882, -20.456789411999978 ], [ -68.741824678999876, -20.369449203999977 ], [ -68.659366691999878, -20.335493248999853 ], [ -68.665617884999961, -20.305786414999943 ], [ -68.692394457999967, -20.295534074999921 ], [ -68.714977405999946, -20.246754977999899 ], [ -68.713949166999953, -20.195052700999952 ], [ -68.691703505999897, -20.177214152999966 ], [ -68.702070215999925, -20.143510449999837 ], [ -68.741738454999847, -20.125212897999972 ], [ -68.77387327799994, -20.129690335999953 ], [ -68.763484150999886, -20.078681205999885 ], [ -68.640416389999928, -20.048864198999922 ], [ -68.566246131999947, -20.050070442999981 ], [ -68.521615230999942, -19.924265833999982 ], [ -68.542296335999936, -19.889993528999867 ], [ -68.528153541999927, -19.845285493999882 ], [ -68.599337097999978, -19.82803485199986 ], [ -68.620761728999867, -19.789074897999853 ], [ -68.688861977999977, -19.74841164399993 ], [ -68.683545168999899, -19.719407335999961 ], [ -68.623172901999965, -19.700610637999944 ], [ -68.572450124999875, -19.605494219999855 ], [ -68.440631331999953, -19.440390488999981 ], [ -68.404887642999881, -19.416169785999955 ], [ -68.542764919999968, -19.296670520999953 ], [ -68.619734808999965, -19.27651428899992 ], [ -68.628284918999896, -19.251044843999978 ], [ -68.805887548999976, -19.083412939999903 ], [ -68.889647130999833, -19.043426331999967 ], [ -68.950195915999984, -18.936767756999927 ], [ -68.912354071999914, -18.892446504999896 ], [ -68.926220250999961, -18.843132522999952 ], [ -68.987042309999879, -18.750136972999826 ], [ -68.97152160599984, -18.732415617999948 ], [ -68.985396521999974, -18.677383770999825 ], [ -69.037026948999937, -18.613554029999818 ], [ -69.002192185999832, -18.588375393999911 ], [ -69.016908966999893, -18.572371006999902 ], [ -69.025193700999978, -18.461180765999927 ], [ -69.055010451999919, -18.37559639899996 ], [ -69.037986109999963, -18.322664433999876 ], [ -69.074903831999961, -18.291722317999927 ], [ -69.06526834999994, -18.239906896999912 ], [ -69.142341310999939, -18.163249511999936 ], [ -69.126937150999936, -18.127336195999931 ], [ -69.071331323999914, -18.074916323999901 ], [ -69.079488759999947, -18.046855753999978 ], [ -69.222123534999923, -17.979663989999949 ], [ -69.247229155999833, -17.982136579999974 ], [ -69.256538432999946, -17.953960693999932 ], [ -69.275967748999847, -17.969334068999956 ], [ -69.288823640999965, -17.959885649999876 ], [ -69.312377942999888, -17.913628915999936 ], [ -69.299286917999893, -17.855268548999902 ], [ -69.334855039999923, -17.734404635999965 ], [ -69.467871869999897, -17.604875037999932 ], [ -69.469174999999893, -17.373544444999936 ], [ -69.57586080599998, -17.291408265999962 ], [ -69.645246035999946, -17.281421467999905 ], [ -69.616802777999908, -17.261655554999891 ], [ -69.603691580999907, -17.219652383999971 ], [ -69.578370466999957, -17.20646397299987 ], [ -69.557958332999931, -17.165588888999878 ], [ -69.5155083329999, -17.149711110999931 ], [ -69.451147221999975, -17.09403611099998 ], [ -69.432533332999981, -17.110327777999885 ], [ -69.37397009599988, -17.072396592999894 ], [ -69.394581661999894, -17.02215509899986 ], [ -69.368629760999966, -16.988916220999897 ], [ -69.340032208999901, -16.98753191499992 ], [ -69.304446338999924, -16.916613268999924 ], [ -69.18772633899988, -16.796613753999907 ], [ -69.16979578899992, -16.727333196999894 ], [ -69.009570814999961, -16.667079336999905 ], [ -68.997250381999947, -16.641879404999941 ], [ -69.0327617559999, -16.607905106999908 ], [ -69.0402289459999, -16.572556955999971 ], [ -68.999685838999937, -16.448133529999893 ], [ -68.81884, -16.35149200099994 ], [ -68.818863, -16.321949 ], [ -68.963039695999953, -16.192163468999979 ], [ -68.985018426999943, -16.191416067999967 ], [ -69.017114551999953, -16.223082430999852 ], [ -69.055452117999948, -16.19819048099987 ], [ -69.101639516999967, -16.229100491999873 ], [ -69.197731, -16.16449 ], [ -69.401803, -15.606111999999882 ], [ -69.31432222199993, -15.51827777799997 ], [ -69.304891666999822, -15.480222221999952 ], [ -69.315934125999888, -15.469530563999911 ], [ -69.290450525999915, -15.437036348999925 ], [ -69.253369443999929, -15.469555554999943 ], [ -69.240583332999904, -15.460619443999974 ], [ -69.247474999999838, -15.370991666999885 ], [ -69.215406276999886, -15.317679753999982 ], [ -69.19594959799997, -15.314111686999979 ], [ -69.176015242999938, -15.261549349999939 ], [ -69.119850203999931, -15.258968661999916 ], [ -69.135156599999846, -15.219314655999938 ], [ -69.190143059999912, -15.158810373999927 ], [ -69.24344158599996, -15.112112797999941 ], [ -69.277098001999946, -15.111460560999944 ], [ -69.299682325999925, -15.048422778999907 ], [ -69.352610182999854, -14.97485008599989 ], [ -69.364394443999913, -14.929779166999879 ], [ -69.343496748999939, -14.882753682999919 ], [ -69.357466336999948, -14.812755797999898 ], [ -69.316273499999909, -14.774786265999978 ], [ -69.230511111999988, -14.748736110999971 ], [ -69.258033098999988, -14.685470793999968 ], [ -69.226450078999903, -14.627604388999885 ], [ -69.225514830999941, -14.580939081999873 ], [ -69.149246225999889, -14.576314633999971 ], [ -69.149330457999952, -14.51268367299997 ], [ -69.122206492999851, -14.509476971999959 ], [ -69.113478651999969, -14.488105295999901 ], [ -69.061741373999951, -14.461596750999945 ], [ -69.001936947999923, -14.384718911999926 ], [ -68.984623007999915, -14.335032249999927 ], [ -68.98524543699989, -14.237435458999869 ], [ -68.827721408999878, -14.229764877999912 ], [ -68.856536842999958, -14.164024995999966 ], [ -68.834172448999936, -14.144148286999894 ], [ -68.872037641999952, -14.110499306999941 ], [ -68.882536661999836, -14.05936827599993 ], [ -68.936639725999839, -14.026484046999883 ], [ -68.979463921999979, -13.975761340999895 ], [ -68.963421854999979, -13.949503155999935 ], [ -68.983464778999917, -13.929833967999912 ], [ -68.978864541999883, -13.880445215999885 ], [ -68.995048899999972, -13.844793109999955 ], [ -68.975556967999864, -13.761181045999876 ], [ -69.02671029399994, -13.738544166999873 ], [ -69.067280356999959, -13.672847698999874 ], [ -69.036545467999986, -13.63958256899997 ], [ -69.030774257999951, -13.655379401999937 ], [ -68.994138630999942, -13.652067719999934 ], [ -69.004353897999977, -13.622479523999971 ], [ -68.953093579999916, -13.604940592999981 ], [ -68.952683708999928, -13.535454698999899 ], [ -68.916237915999943, -13.520582259999912 ], [ -68.924016479999977, -13.510392866999894 ], [ -68.906470313999932, -13.488003071999913 ], [ -68.917570359999957, -13.485327402999872 ], [ -68.895818385999917, -13.463601002999894 ], [ -68.90733886299995, -13.44561892899992 ], [ -68.891616257999942, -13.431071211999893 ], [ -68.888813398999957, -13.371338330999947 ], [ -68.867708343999936, -13.357963765999898 ], [ -68.881038693999983, -13.342476630999954 ], [ -68.867911570999979, -13.332457567999825 ], [ -68.880280821999975, -13.33099830499998 ], [ -68.859677922999936, -13.311566704999962 ], [ -68.869456670999909, -13.298640483999975 ], [ -68.853801118999968, -13.283487466999873 ], [ -68.862052582999979, -13.270315381999978 ], [ -68.849412813999891, -13.269680194999921 ], [ -68.860936349999974, -13.257409620999852 ], [ -68.84493295599998, -13.246942765999961 ], [ -68.873342165999986, -13.181204960999935 ], [ -68.86008219699994, -13.184320303999925 ], [ -68.85628115399993, -13.170630608999943 ], [ -68.871737984999925, -13.167157682999914 ], [ -68.857831214999919, -13.150017514999945 ], [ -68.878575690999924, -13.13702582999997 ], [ -68.859753215999888, -13.095132642999943 ], [ -68.86355777599988, -13.047463608999919 ], [ -68.848641401999942, -13.047156248999897 ], [ -68.867745301999889, -13.031561345999933 ], [ -68.853540696999914, -13.015469819999964 ], [ -68.875897833999943, -13.014644084999929 ], [ -68.866044465999948, -12.995258332999981 ], [ -68.878967434999936, -12.986830922999957 ], [ -68.861368253999842, -12.980369416999906 ], [ -68.866424140999925, -12.96960556099998 ], [ -68.876079871999934, -12.979694962999872 ], [ -68.883940517999974, -12.955990727999961 ], [ -68.859123834999934, -12.947682292999957 ], [ -68.875075890999881, -12.938209896999922 ], [ -68.860142289999942, -12.925755009999875 ], [ -68.875744343999941, -12.918299289999936 ], [ -68.871239773999946, -12.869790126999931 ], [ -68.834395172999962, -12.858155894999982 ], [ -68.839835683999979, -12.823127150999937 ], [ -68.824134040999979, -12.804273555999885 ], [ -68.807686592999971, -12.808664408999903 ], [ -68.818925577999892, -12.791941046999909 ], [ -68.804743234999876, -12.78418613499997 ], [ -68.804739836999886, -12.755793310999877 ], [ -68.791573566999944, -12.760369846999936 ], [ -68.780372977999946, -12.73215217399985 ], [ -68.767311526999947, -12.742943548999847 ], [ -68.728578819999939, -12.713517372999945 ], [ -68.74330974999998, -12.708728920999874 ], [ -68.712415263999958, -12.680603493999968 ], [ -68.73446517799988, -12.668111977999899 ], [ -68.741718005999928, -12.634072445999891 ], [ -68.732575702999952, -12.610568085999887 ], [ -68.692648420999944, -12.585058026999945 ], [ -68.691665659999956, -12.557388356999979 ], [ -68.67420874499993, -12.55234325999993 ], [ -68.68304444599994, -12.523358849999966 ], [ -68.655150918999936, -12.534234796999954 ], [ -68.652213839999945, -12.497742007999818 ], [ -68.969980784999962, -11.912498119999896 ], [ -69.572290110999859, -10.94938510399993 ], [ -69.478239985999892, -10.955033622999849 ], [ -69.416786193999826, -10.92745971699992 ], [ -69.393397243999971, -10.945791977999932 ], [ -69.388732909999931, -10.934141157999932 ], [ -69.375124048999965, -10.956440003999944 ], [ -69.373560153999961, -10.940394416999879 ], [ -69.355895995999958, -10.939459799999895 ], [ -69.312072754999974, -10.956351280999968 ], [ -69.148506164999958, -10.964280127999928 ], [ -69.120469348999904, -10.981793177999975 ], [ -69.037506103999988, -10.982979773999944 ], [ -68.991755499999954, -11.012097064999921 ], [ -68.956939695999893, -10.994909285999938 ], [ -68.948272704999908, -11.012921331999905 ], [ -68.935142516999861, -11.005901335999852 ], [ -68.910235997999905, -11.022778740999968 ], [ -68.867416380999941, -11.023739813999839 ], [ -68.84381845899992, -11.001258478999944 ], [ -68.792587279999964, -10.991259573999969 ], [ -68.788834962999942, -11.015149362999978 ], [ -68.782012938999969, -10.999820707999959 ], [ -68.759346863999895, -11.003577839999878 ], [ -68.763130186999945, -11.019539831999964 ], [ -68.748916625999925, -11.010899543999869 ], [ -68.765868520999902, -11.069591306999939 ], [ -68.722212878999983, -11.106519596999874 ], [ -68.715645093999854, -11.14746099599995 ], [ -68.543540954999969, -11.110361097999942 ], [ -68.49194845199986, -11.057305242999973 ], [ -68.428983684999935, -11.035565334999944 ], [ -68.401557621999984, -11.05624131899998 ], [ -68.385247439999944, -11.020242807999864 ], [ -68.352270386999976, -11.007390481999948 ], [ -68.331412506999925, -11.015849627999899 ], [ -68.236657218999881, -10.96098474899992 ], [ -68.195804194999937, -10.859710271999973 ], [ -68.107320720999951, -10.781907925999974 ], [ -68.105812072999981, -10.716610908999883 ], [ -68.002466730999913, -10.650083854999934 ], [ -67.976760310999964, -10.661161766999896 ], [ -67.962602916999913, -10.64804408599997 ], [ -67.864837522999949, -10.63923185699997 ], [ -67.760238621999974, -10.684111433999931 ], [ -67.736011464999933, -10.711906674999966 ], [ -67.709184702999949, -10.709939552999913 ], [ -67.676708159999976, -10.605446640999844 ], [ -67.661327424999968, -10.617039452999961 ], [ -67.640900404999968, -10.601075181999875 ], [ -67.565261155999963, -10.497376624999902 ], [ -67.52286344699985, -10.493300003999934 ], [ -67.467369997999981, -10.456720212999869 ], [ -67.451185271999975, -10.464885214999981 ], [ -67.413216431999899, -10.426729437999882 ], [ -67.423570017999907, -10.395572354999899 ], [ -67.40737918099984, -10.376464430999931 ], [ -67.368669603999933, -10.378904668999951 ], [ -67.351799532999962, -10.395590112999855 ], [ -67.344858627999884, -10.378674121999893 ], [ -67.31182511399993, -10.378097337999975 ], [ -67.328113256999984, -10.336905553999941 ], [ -67.317452148999962, -10.319819739999957 ], [ -67.266031116999898, -10.33278004999994 ], [ -67.222836466999979, -10.313517006999916 ], [ -67.169410829999833, -10.337139657999955 ], [ -67.126755049999986, -10.316630607999969 ], [ -67.140512660999946, -10.307607890999861 ], [ -67.12550647899991, -10.29138132699984 ], [ -67.079447911999978, -10.290385325999921 ], [ -67.015850960999956, -10.258478777999926 ], [ -66.989267353999935, -10.220804061999957 ], [ -67.000896578999971, -10.21782285799992 ], [ -66.996953907999966, -10.198747366999896 ], [ -66.954428497999913, -10.188641508999865 ], [ -66.946447932999888, -10.158621604999951 ], [ -66.912158461999979, -10.147894815999905 ], [ -66.918576350999956, -10.130707657999892 ], [ -66.873808155999939, -10.101989085999946 ], [ -66.874725789999843, -10.081530608999969 ], [ -66.839226636999911, -10.084028687999876 ], [ -66.83752604599988, -10.063597696999977 ], [ -66.792339822999963, -10.023262967999926 ], [ -66.772168953999824, -10.022492199999931 ], [ -66.763530801999877, -10.001253245999976 ], [ -66.717918798999904, -9.975528939999947 ], [ -66.676034216999938, -9.969552383999883 ], [ -66.663943938999921, -9.940618065999956 ], [ -66.639084497999988, -9.95220065999996 ], [ -66.625062380999964, -9.897658535999938 ], [ -66.584058852999874, -9.906270022999877 ], [ -66.557405515999903, -9.885054947999947 ], [ -66.441604610999889, -9.870119062999947 ], [ -66.426697724999826, -9.899720963999869 ], [ -66.397026, -9.86578 ], [ -66.359807922999948, -9.86650055899986 ], [ -66.346641539999894, -9.840239525999948 ], [ -66.283064066999884, -9.845210856999927 ], [ -66.276575352999885, -9.829088308999928 ], [ -66.250757887999896, -9.835272032999967 ], [ -66.235100681999938, -9.818482870999958 ], [ -66.20252784499985, -9.839458962999913 ], [ -66.18355064799988, -9.825767890999884 ], [ -66.191113200999951, -9.808184674999893 ], [ -66.150248562999934, -9.789411196999822 ], [ -66.10476265899996, -9.78746181199989 ], [ -66.09298763299995, -9.81859185899998 ], [ -66.0708805189999, -9.788102164999941 ], [ -66.038530595999987, -9.790087696999933 ], [ -66.026159404999987, -9.816066628999977 ], [ -66.001950946999898, -9.800645885999927 ], [ -65.983268186999965, -9.810940665999908 ], [ -65.963837167999941, -9.802570118999938 ], [ -65.970946320999985, -9.774134626999967 ], [ -65.924007647999929, -9.756011613999874 ], [ -65.907082112999888, -9.769944554999938 ], [ -65.874095770999872, -9.757103022999956 ], [ -65.865529133999985, -9.798866494999913 ], [ -65.844387136999956, -9.794167306999952 ], [ -65.817815518999964, -9.75874676799998 ], [ -65.79796501699991, -9.79517190599995 ], [ -65.775421142999903, -9.766848563999929 ], [ -65.779556000999889, -9.749030999999889 ], [ -65.775392642999918, -9.738203545999909 ], [ -65.775463085999888, -9.762019470999974 ], [ -65.747306523999896, -9.784011954999926 ], [ -65.729254083999876, -9.760106938999968 ], [ -65.688611487999935, -9.75085497099991 ], [ -65.711553225999921, -9.770850066999969 ], [ -65.71261579999998, -9.810305500999959 ], [ -65.691182552999862, -9.814945003999981 ], [ -65.670895551999877, -9.782927328999961 ], [ -65.65010407699998, -9.793530138999927 ], [ -65.650834238999892, -9.818905833999963 ], [ -65.637108109999986, -9.806463704999942 ], [ -65.62869600099998, -9.838982653999949 ], [ -65.600822578999953, -9.826137667999944 ], [ -65.598375180999938, -9.843835406999915 ], [ -65.559533445999875, -9.845770003999917 ], [ -65.562715056999934, -9.812293327999953 ], [ -65.507286072999932, -9.793971060999979 ], [ -65.499618530999953, -9.738160132999894 ], [ -65.438848528999984, -9.696345119999933 ], [ -65.438783187999888, -9.67092291299997 ], [ -65.362322567999911, -9.714458791999959 ], [ -65.322884902999988, -9.815705933999936 ], [ -65.287532738999971, -9.852728495999884 ], [ -65.335106050999968, -9.935900475999972 ], [ -65.320662633999973, -10.003735340999981 ], [ -65.330417590999843, -10.063712018999922 ], [ -65.304506013999969, -10.098573779999981 ], [ -65.307845532999977, -10.17332713899998 ], [ -65.291822360999902, -10.223689129999968 ], [ -65.32669913299992, -10.304835888999833 ], [ -65.390767056999948, -10.371655804999875 ], [ -65.387496946999988, -10.44145965599995 ], [ -65.430540717999918, -10.482265654999935 ], [ -65.410842895999963, -10.508617400999981 ], [ -65.421520784999984, -10.530069579999974 ], [ -65.39813232299997, -10.579149245999929 ], [ -65.416786193999883, -10.618689535999977 ], [ -65.404289245999905, -10.642260550999936 ], [ -65.358375549999835, -10.657391546999975 ], [ -65.346833002999858, -10.681550455999968 ], [ -65.348213195999904, -10.778450964999934 ], [ -65.365570066999965, -10.780079840999974 ], [ -65.366996763999964, -10.796259878999876 ], [ -65.27531616199991, -10.872708869999883 ], [ -65.266846423999823, -10.921777396999971 ], [ -65.285865784999885, -10.927669524999942 ], [ -65.250892638999971, -10.984551429999954 ], [ -65.300539584999967, -11.029472101999943 ], [ -65.280899046999934, -11.063579557999958 ], [ -65.286369322999917, -11.092209814999933 ], [ -65.362815857999976, -11.137802123999961 ], [ -65.353740616999858, -11.184047634999956 ], [ -65.318733214999952, -11.199420928999928 ], [ -65.359496844999967, -11.218892531999927 ], [ -65.359740058999932, -11.261160084999972 ], [ -65.342865933999974, -11.309674455999925 ], [ -65.291839599999889, -11.324159620999922 ], [ -65.334438251999984, -11.348126759999957 ], [ -65.308696993999888, -11.496907102999955 ], [ -65.225733067999897, -11.51571131999998 ], [ -65.211583676999965, -11.533675771999924 ], [ -65.232638869999903, -11.567191180999941 ], [ -65.22454307199996, -11.664745112999981 ], [ -65.260784448999971, -11.708243102999973 ], [ -65.144355773999905, -11.775239943999907 ], [ -65.132904051999958, -11.772001266999894 ], [ -65.128507608999939, -11.721852655999953 ], [ -65.088172912999937, -11.709379194999883 ], [ -65.060649445999957, -11.786123047999922 ], [ -65.073663659999909, -11.86583834899983 ], [ -65.017492697999955, -11.900287850999916 ], [ -65.043098916999952, -11.963857443999927 ], [ -65.027559311999937, -11.97167232299995 ], [ -65.036426741999833, -11.995698648999962 ], [ -65.003095391999864, -11.994921580999971 ], [ -64.978459287999897, -12.01913296999993 ], [ -64.938221023999915, -12.00999279499996 ], [ -64.9212890579999, -12.027983213999903 ], [ -64.825223863999895, -12.025693013999955 ], [ -64.810490328999947, -12.058698720999871 ], [ -64.844780650999951, -12.096871064999903 ], [ -64.832626343999891, -12.121711730999891 ], [ -64.788490295999907, -12.085789680999881 ], [ -64.761707004999948, -12.102570138999909 ], [ -64.764198655999962, -12.152965220999818 ], [ -64.742942808999942, -12.152890204999892 ], [ -64.735488891999921, -12.111141203999978 ], [ -64.731323241999974, -12.155630110999937 ], [ -64.698837279999964, -12.187162398999931 ], [ -64.608765365999886, -12.218060025999932 ], [ -64.578145697999958, -12.210765375999927 ], [ -64.551660963999893, -12.239395298999966 ], [ -64.513505632999966, -12.223353803999828 ], [ -64.493640750999987, -12.288878822999948 ], [ -64.508709479999936, -12.360813785999937 ], [ -64.463101621999954, -12.383940128999939 ], [ -64.405782667999972, -12.44652037499992 ], [ -64.294921538999915, -12.457926617999817 ], [ -64.292941059999919, -12.501864140999885 ], [ -64.230614627999955, -12.453867682999885 ], [ -64.198044987999879, -12.47298625399992 ], [ -64.17430151699989, -12.467137283999932 ], [ -64.163901884999973, -12.513893833999873 ], [ -64.142630468999982, -12.502018289999967 ], [ -64.137864417999822, -12.478291968999883 ], [ -64.122952210999927, -12.506121144999952 ], [ -64.100541758999839, -12.486637695999946 ], [ -64.078758567999955, -12.499867929999937 ], [ -64.060204534999912, -12.489952657999936 ], [ -64.039067041999886, -12.515994191999937 ], [ -64.007098445999986, -12.517144179999946 ], [ -63.996378788999948, -12.501009637999971 ], [ -63.951194064999981, -12.530623923999883 ], [ -63.898995278999962, -12.503335128999936 ], [ -63.887228626999956, -12.445723981999947 ], [ -63.834917095999913, -12.464147917999981 ], [ -63.784982991999982, -12.428946292999967 ], [ -63.689237944999945, -12.449774546999947 ], [ -63.557336942999882, -12.50484879499993 ], [ -63.50237511399996, -12.565310567999916 ], [ -63.436852456999986, -12.564460268999881 ], [ -63.426776042999961, -12.594913337999913 ], [ -63.442060857999877, -12.605058840999959 ], [ -63.409587540999951, -12.612006815999905 ], [ -63.37056870999993, -12.659613056999888 ], [ -63.241158695999957, -12.690587280999978 ], [ -63.244770255999981, -12.661848945999964 ], [ -63.194559070999958, -12.653528295999934 ], [ -63.193414003999976, -12.623539611999945 ], [ -63.163701329999924, -12.640929873999823 ], [ -63.156930081999917, -12.614371295999888 ], [ -63.138879879999934, -12.646048485999927 ], [ -63.093255346999968, -12.659707467999965 ], [ -63.097669308999969, -12.681967351999958 ], [ -63.062274324999976, -12.686440853999898 ], [ -63.080893059999937, -12.723895555999945 ], [ -63.049861748999945, -12.734264617999941 ], [ -63.00863416999988, -12.810882502999959 ], [ -63.010832702999892, -12.83573663899989 ], [ -62.986125603999938, -12.837978 ], [ -62.977060266999956, -12.859847309999964 ], [ -62.959197277999976, -12.846741330999976 ], [ -62.945489099999861, -12.858304057999931 ], [ -62.932613307999986, -12.840197272999944 ], [ -62.894551166999975, -12.856714616999966 ], [ -62.873101215999895, -12.908169158999897 ], [ -62.84429309899997, -12.924149551999903 ], [ -62.848066616999915, -12.947406971999897 ], [ -62.806715468999982, -12.94038876299993 ], [ -62.80769777099988, -12.970828725999922 ], [ -62.780377592999969, -13.008156364999934 ], [ -62.758211356999936, -13.017823641999939 ], [ -62.745820892999973, -12.998697672999981 ], [ -62.73259522099994, -13.021979289999877 ], [ -62.727013504999945, -13.001341390999812 ], [ -62.697799309999937, -13.001662470999975 ], [ -62.65081616599997, -12.964481967999973 ], [ -62.652965367999911, -12.989744745999872 ], [ -62.633853753999915, -12.988111894999975 ], [ -62.630413962999967, -13.014272139999889 ], [ -62.599893119999933, -13.014652482999907 ], [ -62.615281306999975, -13.029117700999961 ], [ -62.608737845999883, -13.043077210999968 ], [ -62.500316752999936, -13.08211635299989 ], [ -62.474407412999938, -13.058729178999897 ], [ -62.456140723999852, -13.08739946399993 ], [ -62.434651875999975, -13.082920458999979 ], [ -62.415614916999971, -13.127762127999915 ], [ -62.398570656999937, -13.113487412999916 ], [ -62.392467541999906, -13.134358266999982 ], [ -62.321242464999955, -13.150953019999918 ], [ -62.314420041999938, -13.134071913999946 ], [ -62.275471146999848, -13.156501330999959 ], [ -62.275436878999926, -13.145179364999876 ], [ -62.244242030999828, -13.143003956999905 ], [ -62.243115918999933, -13.116825488999893 ], [ -62.217169895999859, -13.110521469999924 ], [ -62.192162982999946, -13.152711249999982 ], [ -62.168771532999983, -13.112965077999945 ], [ -62.150926083999934, -13.16078035899983 ], [ -62.127427369999964, -13.147615941999959 ], [ -62.116400897999881, -13.158991983999897 ], [ -62.112827053999922, -13.260370998999917 ], [ -62.070612524999945, -13.282778365999945 ], [ -62.07252271699997, -13.29556309599991 ], [ -62.057756954999945, -13.28855721799988 ], [ -62.058362151999916, -13.310165791999964 ], [ -62.035878526999909, -13.328548358999853 ], [ -62.017177888999981, -13.327693556999975 ], [ -62.000341905999903, -13.373568402999979 ], [ -61.997887058999936, -13.362806096999975 ], [ -61.974652530999947, -13.368076290999966 ], [ -61.968923352999923, -13.40772925999994 ], [ -61.938111169999956, -13.407625032999931 ], [ -61.915386363999971, -13.433031474999893 ], [ -61.89691754099988, -13.42716280999997 ], [ -61.883630543999971, -13.494528722999917 ], [ -61.856287068999961, -13.537612551999928 ], [ -61.823944364999875, -13.52188319999982 ], [ -61.782420786999978, -13.536911914999962 ], [ -61.771615100999952, -13.5160920699999 ], [ -61.757940228999985, -13.540311370999916 ], [ -61.753731949999974, -13.519406222999976 ], [ -61.732229557999972, -13.526807174999931 ], [ -61.694734341999833, -13.498104542999954 ], [ -61.648698540999931, -13.518861517999937 ], [ -61.64589051299987, -13.50652746999998 ], [ -61.62389988699988, -13.515206833999969 ], [ -61.577875088999917, -13.487205744999926 ], [ -61.572452086999931, -13.517147996999881 ], [ -61.533477314999914, -13.521166386999937 ], [ -61.510272934999875, -13.547413819999974 ], [ -61.474633598999901, -13.554503741999952 ], [ -61.403594390999956, -13.538002611999957 ], [ -61.391266586999961, -13.519908307999913 ], [ -61.261026102999892, -13.494109696999885 ], [ -61.22517961099993, -13.530230294999967 ], [ -61.193549035999979, -13.535500381999952 ], [ -61.183160552999936, -13.505967554999927 ], [ -61.150080127999956, -13.531030015999818 ], [ -61.142749944999821, -13.511755824999966 ], [ -61.139917209999908, -13.528333305999979 ], [ -61.105823254999905, -13.531018863999975 ], [ -61.091489976999867, -13.492909123999937 ], [ -61.041009513999938, -13.507002909999812 ], [ -61.054791451999904, -13.487388109999927 ], [ -61.041367678999904, -13.475887944999897 ], [ -60.989925088999939, -13.492870524999944 ], [ -61.010743521999927, -13.509209729999952 ], [ -61.006924064999907, -13.551251976999936 ], [ -60.972193381999887, -13.534846718999972 ], [ -60.956809411999984, -13.551246975999959 ], [ -60.918727506999971, -13.54254981899993 ], [ -60.923372033999954, -13.56646713899994 ], [ -60.880340727999965, -13.616959802999872 ], [ -60.82310186199993, -13.630263187999901 ], [ -60.810425286999987, -13.654198096999892 ], [ -60.773500816999899, -13.660458311999889 ], [ -60.763392190999923, -13.686204127999929 ], [ -60.708665512999914, -13.689919350999901 ], [ -60.695837240999879, -13.71356820799997 ], [ -60.690361044999918, -13.696208633999902 ], [ -60.656257886999981, -13.735305722999897 ], [ -60.620947033999983, -13.716987044999939 ], [ -60.606261811999957, -13.747583665999969 ], [ -60.576494652999941, -13.746410046999927 ], [ -60.551433757999916, -13.781728015999875 ], [ -60.546412767999982, -13.769256028999905 ], [ -60.521003111999903, -13.770859427999881 ], [ -60.528465794999818, -13.79466661299989 ], [ -60.460604124999975, -13.79925508599996 ], [ -60.471966757999894, -13.851744888999974 ], [ -60.45072645099998, -13.857000001999893 ], [ -60.442070420999926, -13.934285581999916 ], [ -60.406082049999952, -14.00934050099994 ], [ -60.466634236999937, -14.096449588999974 ], [ -60.482097637999971, -14.182415416999959 ], [ -60.467013437999981, -14.187479995999865 ], [ -60.45083374699982, -14.238273071999913 ], [ -60.460411852999982, -14.263714498999946 ], [ -60.443286619999924, -14.316310331999944 ], [ -60.382488662999947, -14.367647416999887 ], [ -60.399527635999959, -14.412035094999908 ], [ -60.339532715999894, -14.509450681999908 ], [ -60.321652687999915, -14.609521084999813 ], [ -60.272178576999977, -14.622801956999979 ], [ -60.244364035999922, -15.09531476799998 ], [ -60.574873691999926, -15.096018556999923 ], [ -60.237603902999979, -15.473504778999938 ], [ -60.179901737999899, -15.997673107999901 ], [ -60.173455798999896, -16.263012888999867 ], [ -58.431146946999888, -16.322428873999968 ], [ -58.395816479999894, -16.298787586999936 ], [ -58.388959654999837, -16.262846195999941 ], [ -58.365501471999835, -16.274207118999982 ], [ -58.321987153999942, -16.266001906999975 ], [ -58.303699997999956, -16.309736209999869 ], [ -58.307640273999937, -16.371835100999931 ], [ -58.346128685999986, -16.389865208999879 ], [ -58.356162592999851, -16.426673874999892 ], [ -58.333892969999965, -16.484437079999964 ], [ -58.338129277999883, -16.516281805999938 ], [ -58.435152568999911, -16.594508003999977 ], [ -58.467146150999952, -16.69488961199994 ], [ -58.458503617999952, -16.788535323999952 ], [ -58.478668090999918, -16.822755100999871 ], [ -58.460095391999857, -16.864156377999905 ], [ -58.476497912999946, -16.938136458999963 ], [ -58.457517180999957, -16.940071007999904 ], [ -58.462951252999972, -16.962474005999923 ], [ -58.444926524999971, -16.985475519999966 ], [ -58.423158737999927, -16.988807361999875 ], [ -58.434787938999875, -17.028258942999969 ], [ -58.417353151999976, -17.037509394999915 ], [ -58.433935873999985, -17.037660274999951 ], [ -58.42202655799997, -17.050835072999973 ], [ -58.432349748999911, -17.05984614699986 ], [ -58.399499424999988, -17.083764089999875 ], [ -58.397393429999966, -17.186376437999968 ], [ -58.304238463999923, -17.269883634999871 ], [ -58.299991443999886, -17.298737967999955 ], [ -58.278068648999977, -17.300345921999963 ], [ -58.255216355999949, -17.354039750999959 ], [ -58.202910494999969, -17.354349538999827 ], [ -58.199752145999923, -17.390260368999975 ], [ -58.157085062999897, -17.385020450999946 ], [ -58.151339299999847, -17.409683429999973 ], [ -58.122809719999964, -17.414271176999932 ], [ -58.120298091999985, -17.450234352999871 ], [ -58.055859025999951, -17.458196903999976 ], [ -58.044183361999956, -17.492317730999957 ], [ -57.997075088999964, -17.515397162999875 ], [ -57.969542202999889, -17.514510195999947 ], [ -57.887796707999883, -17.452794120999954 ], [ -57.747035942999901, -17.554843412999901 ], [ -57.792800902999943, -17.555740355999944 ], [ -57.780818938999914, -17.576299666999887 ], [ -57.79373931899994, -17.592380522999974 ], [ -57.779621124999949, -17.656549452999968 ], [ -57.714809417999959, -17.733718870999951 ], [ -57.720081329999971, -17.771709440999871 ], [ -57.688102608999941, -17.806790483999919 ], [ -57.688735961999839, -17.827026365999927 ], [ -57.72287947999996, -17.830212346999929 ], [ -57.600705643999959, -18.045163859999946 ], [ -57.574790954999912, -18.131889343999887 ], [ -57.454433527999925, -18.231024371999922 ], [ -57.55776977499994, -18.240350723999939 ], [ -57.590164287999926, -18.337323071999947 ], [ -57.767183921999845, -18.900547848999963 ], [ -57.719772337999984, -18.899068832999887 ], [ -57.70882940599995, -19.028990601999965 ], [ -57.784191131999876, -19.033510207999939 ], [ -58.133399962999931, -19.757841109999958 ], [ -57.876689910999914, -19.965881347999982 ], [ -57.872947692999901, -19.982688903999929 ], [ -57.909339903999978, -20.034027098999957 ], [ -57.956895088999943, -20.022634944999879 ], [ -57.972457784999904, -20.049865543999829 ], [ -58.025190760999976, -20.058572915999946 ], [ -58.050300598999911, -20.10044097899987 ], [ -58.093745454999919, -20.10868083399987 ], [ -58.118019104999917, -20.139450073999967 ], [ -58.169829657999969, -20.165862961999949 ], [ -58.136942741999974, -20.118691511999941 ], [ -58.162099304999913, -20.076662540999962 ], [ -58.156785939999907, -20.043864094999947 ], [ -58.175089157999935, -20.028361022999889 ], [ -58.185482729999933, -19.971189637999942 ], [ -58.213123475999964, -19.951393685999847 ], [ -58.19594374199994, -19.92817518499993 ], [ -58.201893107999979, -19.864796928999908 ], [ -58.164758995999875, -19.827079106999918 ], [ -58.23544117799986, -19.775484008999968 ], [ -59.114492127999938, -19.344007635999958 ], [ -59.976918299999966, -19.295172724999929 ], [ -60.600998481999966, -19.455933679999873 ], [ -61.735471104999931, -19.63417819599988 ], [ -61.922404906999986, -20.089239512999882 ], [ -62.266645604999951, -20.562743267999963 ], [ -62.260665158999927, -21.058500006999964 ], [ -62.643883663999986, -22.246648498999946 ], [ -62.665459575999932, -22.244727002999923 ], [ -62.69104851499992, -22.19105298799991 ], [ -62.720418840999969, -22.210754488999953 ], [ -62.755518790999986, -22.152658992999932 ], [ -62.782212791999939, -22.174525410999934 ], [ -62.812145076999968, -22.133828363999896 ], [ -62.810881180999843, -22.090764592999903 ], [ -62.793094104999909, -22.063982888999817 ], [ -62.814657271999977, -22.047072921999927 ], [ -62.804782782999837, -22.002229801999931 ], [ -63.667059341999959, -22.00346387299993 ], [ -63.683606205999979, -22.054775136999922 ], [ -63.688892518999978, -22.011731796999925 ], [ -63.717745891999982, -21.999507675999951 ], [ -63.930780938999931, -21.999327465999954 ], [ -63.953451965999932, -22.036828213999854 ], [ -63.958229495999888, -22.086149874999933 ], [ -63.979818209999848, -22.080926083999884 ], [ -63.9858905399999, -22.109031383999877 ], [ -63.99278160599988, -22.105140824999978 ], [ -64.000133474999927, -22.107575743999973 ], [ -63.992498711999986, -22.133040092999977 ], [ -64.033073864999892, -22.196530203999941 ], [ -64.033310818999951, -22.242389751999895 ], [ -64.062584700999935, -22.238517198999944 ] ] ] } }
]
}
